<?xml version="1.0" encoding="UTF-8"?>
<osm version="0.6" generator="Overpass API 0.7.55.7 8b86ff77">
<note>The data included in this document is from www.openstreetmap.org. The data is made available under ODbL.</note>
<meta osm_base="2019-08-02T08:32:03Z" areas="2019-08-02T07:39:02Z"/>

  <node id="3957067013" lat="39.5537898" lon="-0.3400249" version="1" timestamp="2016-01-20T17:53:50Z" changeset="36706180" uid="121415" user="edvac">
    <tag k="addr:city" v="Emperador"/>
    <tag k="addr:country" v="ES"/>
    <tag k="addr:housenumber" v="20"/>
    <tag k="addr:postcode" v="46135"/>
    <tag k="addr:province" v="Valencia"/>
    <tag k="addr:state" v="Comunitat Valenciana"/>
    <tag k="addr:street" v="Avinguda de Barcelona"/>
  </node>
  <node id="3957067014" lat="39.5538425" lon="-0.3399995" version="1" timestamp="2016-01-20T17:53:50Z" changeset="36706180" uid="121415" user="edvac">
    <tag k="addr:city" v="Emperador"/>
    <tag k="addr:country" v="ES"/>
    <tag k="addr:housenumber" v="22"/>
    <tag k="addr:postcode" v="46135"/>
    <tag k="addr:province" v="Valencia"/>
    <tag k="addr:state" v="Comunitat Valenciana"/>
    <tag k="addr:street" v="Avinguda de Barcelona"/>
  </node>
  <node id="3957067015" lat="39.5538968" lon="-0.3399741" version="1" timestamp="2016-01-20T17:53:50Z" changeset="36706180" uid="121415" user="edvac">
    <tag k="addr:city" v="Emperador"/>
    <tag k="addr:country" v="ES"/>
    <tag k="addr:housenumber" v="24"/>
    <tag k="addr:postcode" v="46135"/>
    <tag k="addr:province" v="Valencia"/>
    <tag k="addr:state" v="Comunitat Valenciana"/>
    <tag k="addr:street" v="Avinguda de Barcelona"/>
  </node>
  <node id="3957067016" lat="39.5539601" lon="-0.3399409" version="1" timestamp="2016-01-20T17:53:50Z" changeset="36706180" uid="121415" user="edvac">
    <tag k="addr:city" v="Emperador"/>
    <tag k="addr:country" v="ES"/>
    <tag k="addr:housenumber" v="26"/>
    <tag k="addr:postcode" v="46135"/>
    <tag k="addr:province" v="Valencia"/>
    <tag k="addr:state" v="Comunitat Valenciana"/>
    <tag k="addr:street" v="Avinguda de Barcelona"/>
  </node>
  <node id="3957067017" lat="39.5540617" lon="-0.3398793" version="1" timestamp="2016-01-20T17:53:50Z" changeset="36706180" uid="121415" user="edvac">
    <tag k="addr:city" v="Emperador"/>
    <tag k="addr:country" v="ES"/>
    <tag k="addr:housenumber" v="28"/>
    <tag k="addr:postcode" v="46135"/>
    <tag k="addr:province" v="Valencia"/>
    <tag k="addr:state" v="Comunitat Valenciana"/>
    <tag k="addr:street" v="Avinguda de Barcelona"/>
  </node>
  <node id="3957067018" lat="39.5542704" lon="-0.3397592" version="1" timestamp="2016-01-20T17:53:50Z" changeset="36706180" uid="121415" user="edvac">
    <tag k="addr:city" v="Emperador"/>
    <tag k="addr:country" v="ES"/>
    <tag k="addr:housenumber" v="32"/>
    <tag k="addr:postcode" v="46135"/>
    <tag k="addr:province" v="Valencia"/>
    <tag k="addr:state" v="Comunitat Valenciana"/>
    <tag k="addr:street" v="Avinguda de Barcelona"/>
  </node>
  <node id="3957067019" lat="39.5543510" lon="-0.3397191" version="1" timestamp="2016-01-20T17:53:51Z" changeset="36706180" uid="121415" user="edvac">
    <tag k="addr:city" v="Emperador"/>
    <tag k="addr:country" v="ES"/>
    <tag k="addr:housenumber" v="34"/>
    <tag k="addr:postcode" v="46135"/>
    <tag k="addr:province" v="Valencia"/>
    <tag k="addr:state" v="Comunitat Valenciana"/>
    <tag k="addr:street" v="Avinguda de Barcelona"/>
  </node>
  <node id="3957067020" lat="39.5544060" lon="-0.3396830" version="1" timestamp="2016-01-20T17:53:51Z" changeset="36706180" uid="121415" user="edvac">
    <tag k="addr:city" v="Emperador"/>
    <tag k="addr:country" v="ES"/>
    <tag k="addr:housenumber" v="36"/>
    <tag k="addr:postcode" v="46135"/>
    <tag k="addr:province" v="Valencia"/>
    <tag k="addr:state" v="Comunitat Valenciana"/>
    <tag k="addr:street" v="Avinguda de Barcelona"/>
  </node>
  <node id="3957067022" lat="39.5543322" lon="-0.3396764" version="1" timestamp="2016-01-20T17:53:51Z" changeset="36706180" uid="121415" user="edvac">
    <tag k="addr:city" v="Emperador"/>
    <tag k="addr:country" v="ES"/>
    <tag k="addr:housenumber" v="34"/>
    <tag k="addr:postcode" v="46135"/>
    <tag k="addr:province" v="Valencia"/>
    <tag k="addr:state" v="Comunitat Valenciana"/>
    <tag k="addr:street" v="Avinguda de Barcelona"/>
    <tag k="contact:phone" v="+34 961440976"/>
    <tag k="name" v="Outlet Granell Sport"/>
    <tag k="shop" v="sports"/>
  </node>
  <area id="3600348158">
    <tag k="admin_level" v="8"/>
    <tag k="boundary" v="administrative"/>
    <tag k="idee:name" v="Emperador"/>
    <tag k="ine:municipio" v="46117"/>
    <tag k="name" v="Emperador"/>
    <tag k="name:ca" v="Emperador"/>
    <tag k="population" v="615"/>
    <tag k="population:date" v="2009"/>
    <tag k="source" v="BDLL25, EGRN, Instituto GeogrÃ¡fico Nacional"/>
    <tag k="type" v="boundary"/>
    <tag k="wikidata" v="Q2045916"/>
    <tag k="wikipedia" v="es:Emperador (Valencia)"/>
  </area>

</osm>
