<?xml version='1.0' encoding='UTF-8'?>
<osm upload='never' version='0.6' generator='CatAtom2Osm 1.2dev'>
<changeset>
  <tag k="comment" v="#Spanish_Cadastre_Buildings_Import"/>
  <tag k="source" v="Direcci&#243;n General del Catastro"/>
  <tag k="type" v="import"/>
  <tag k="url" v="https://wiki.openstreetmap.org/wiki/Spanish_Cadastre/Buildings_Import"/>
  <tag k="source:date" v="2019-10-26"/>
</changeset>
<node id="-395" action="modify" visible="true" lon="-5.496913192052962" lat="41.009508347068156">
  <tag k="addr:street" v="Calle Cantera"/>
  <tag k="addr:housenumber" v="2"/>
  <tag k="addr:postcode" v="37340"/>
  <tag k="entrance" v="yes"/>
  <tag k="image" v="http://ovc.catastro.meh.es/OVCServWeb/OVCWcfLibres/OVCFotoFachada.svc/RecuperarFotoFachadaGet?ReferenciaCatastral=0130106TL9403S"/>
</node>
<node id="-81" action="modify" visible="true" lon="-5.497619754430693" lat="41.007176931887216">
  <tag k="addr:street" v="Calle de las Huertas"/>
  <tag k="addr:housenumber" v="18"/>
  <tag k="addr:postcode" v="37340"/>
  <tag k="entrance" v="yes"/>
  <tag k="image" v="http://ovc.catastro.meh.es/OVCServWeb/OVCWcfLibres/OVCFotoFachada.svc/RecuperarFotoFachadaGet?ReferenciaCatastral=0027616TL9402N"/>
</node>
<node id="-45" action="modify" visible="true" lon="-5.497556007778314" lat="41.008117549039866">
  <tag k="addr:street" v="Calle de Torrubio"/>
  <tag k="addr:housenumber" v="15"/>
  <tag k="addr:postcode" v="37340"/>
  <tag k="entrance" v="yes"/>
  <tag k="image" v="http://ovc.catastro.meh.es/OVCServWeb/OVCWcfLibres/OVCFotoFachada.svc/RecuperarFotoFachadaGet?ReferenciaCatastral=0029104TL9402N"/>
</node>
<node id="-63" action="modify" visible="true" lon="-5.498018570389851" lat="41.00793292576533">
  <tag k="addr:street" v="Calle de Torrubio"/>
  <tag k="addr:housenumber" v="5"/>
  <tag k="addr:postcode" v="37340"/>
  <tag k="entrance" v="yes"/>
  <tag k="image" v="http://ovc.catastro.meh.es/OVCServWeb/OVCWcfLibres/OVCFotoFachada.svc/RecuperarFotoFachadaGet?ReferenciaCatastral=0029142TL9402N"/>
</node>
<node id="-27" action="modify" visible="true" lon="-5.498042513174826" lat="41.00903000664287">
  <tag k="addr:street" v="Calle del Arenal"/>
  <tag k="addr:housenumber" v="32"/>
  <tag k="addr:postcode" v="37340"/>
  <tag k="entrance" v="yes"/>
  <tag k="image" v="http://ovc.catastro.meh.es/OVCServWeb/OVCWcfLibres/OVCFotoFachada.svc/RecuperarFotoFachadaGet?ReferenciaCatastral=0029121TL9402N"/>
</node>
<node id="-99" action="modify" visible="true" lon="-5.497697820311044" lat="41.00752844808323">
  <tag k="addr:street" v="Calle de las Huertas"/>
  <tag k="addr:housenumber" v="8"/>
  <tag k="addr:postcode" v="37340"/>
  <tag k="entrance" v="yes"/>
  <tag k="image" v="http://ovc.catastro.meh.es/OVCServWeb/OVCWcfLibres/OVCFotoFachada.svc/RecuperarFotoFachadaGet?ReferenciaCatastral=0027678TL9402N"/>
</node>
<node id="-117" action="modify" visible="true" lon="-5.5004920042621706" lat="41.006904801869176">
  <tag k="addr:street" v="Avenida de los Labradores"/>
  <tag k="addr:housenumber" v="31"/>
  <tag k="addr:postcode" v="37340"/>
  <tag k="entrance" v="yes"/>
  <tag k="image" v="http://ovc.catastro.meh.es/OVCServWeb/OVCWcfLibres/OVCFotoFachada.svc/RecuperarFotoFachadaGet?ReferenciaCatastral=9827422TL8492N"/>
</node>
<node id="-135" action="modify" visible="true" lon="-5.500842865706593" lat="41.00837592489849">
  <tag k="addr:street" v="Calle de Cantarranas"/>
  <tag k="addr:housenumber" v="3"/>
  <tag k="addr:postcode" v="37340"/>
  <tag k="entrance" v="yes"/>
  <tag k="image" v="http://ovc.catastro.meh.es/OVCServWeb/OVCWcfLibres/OVCFotoFachada.svc/RecuperarFotoFachadaGet?ReferenciaCatastral=9729923TL8492N"/>
</node>
<node id="-153" action="modify" visible="true" lon="-5.501515155833357" lat="41.00847612010354">
  <tag k="addr:street" v="Calle de la Fuente"/>
  <tag k="addr:housenumber" v="10"/>
  <tag k="addr:postcode" v="37340"/>
  <tag k="entrance" v="yes"/>
  <tag k="image" v="http://ovc.catastro.meh.es/OVCServWeb/OVCWcfLibres/OVCFotoFachada.svc/RecuperarFotoFachadaGet?ReferenciaCatastral=9729931TL8492N"/>
</node>
<node id="-171" action="modify" visible="true" lon="-5.50165910976684" lat="41.00638942137547">
  <tag k="addr:street" v="Calle de Benito Herreros"/>
  <tag k="addr:housenumber" v="20"/>
  <tag k="addr:postcode" v="37340"/>
  <tag k="entrance" v="yes"/>
  <tag k="image" v="http://ovc.catastro.meh.es/OVCServWeb/OVCWcfLibres/OVCFotoFachada.svc/RecuperarFotoFachadaGet?ReferenciaCatastral=9727010TL8492N"/>
</node>
<node id="-237" action="modify" visible="true" lon="-5.497363958728281" lat="41.00762435359233">
  <tag k="addr:street" v="Calle del Prado"/>
  <tag k="addr:housenumber" v="3"/>
  <tag k="addr:postcode" v="37340"/>
  <tag k="entrance" v="yes"/>
  <tag k="image" v="http://ovc.catastro.meh.es/OVCServWeb/OVCWcfLibres/OVCFotoFachada.svc/RecuperarFotoFachadaGet?ReferenciaCatastral=0127311TL9402N"/>
</node>
<node id="-18" action="modify" visible="true" lon="-5.498265609174324" lat="41.00885811506969">
  <tag k="addr:street" v="Calle del Arenal"/>
  <tag k="addr:housenumber" v="20"/>
  <tag k="addr:postcode" v="37340"/>
  <tag k="entrance" v="yes"/>
  <tag k="image" v="http://ovc.catastro.meh.es/OVCServWeb/OVCWcfLibres/OVCFotoFachada.svc/RecuperarFotoFachadaGet?ReferenciaCatastral=0029127TL9402N"/>
</node>
<node id="-36" action="modify" visible="true" lon="-5.496942993844008" lat="41.009730762137586">
  <tag k="addr:street" v="Calle del Arenal"/>
  <tag k="addr:housenumber" v="48"/>
  <tag k="addr:postcode" v="37340"/>
  <tag k="entrance" v="yes"/>
  <tag k="image" v="http://ovc.catastro.meh.es/OVCServWeb/OVCWcfLibres/OVCFotoFachada.svc/RecuperarFotoFachadaGet?ReferenciaCatastral=0130208TL9403S"/>
</node>
<node id="-72" action="modify" visible="true" lon="-5.49709089652416" lat="41.00847263953823">
  <tag k="addr:street" v="Calle de San Miguel"/>
  <tag k="addr:housenumber" v="7"/>
  <tag k="addr:postcode" v="37340"/>
  <tag k="entrance" v="yes"/>
  <tag k="image" v="http://ovc.catastro.meh.es/OVCServWeb/OVCWcfLibres/OVCFotoFachada.svc/RecuperarFotoFachadaGet?ReferenciaCatastral=0028509TL9402N"/>
</node>
<node id="-54" action="modify" visible="true" lon="-5.498080050746834" lat="41.0079267268833">
  <tag k="addr:street" v="Calle de Torrubio"/>
  <tag k="addr:housenumber" v="3"/>
  <tag k="addr:postcode" v="37340"/>
  <tag k="entrance" v="yes"/>
  <tag k="image" v="http://ovc.catastro.meh.es/OVCServWeb/OVCWcfLibres/OVCFotoFachada.svc/RecuperarFotoFachadaGet?ReferenciaCatastral=0029141TL9402N"/>
</node>
<node id="-90" action="modify" visible="true" lon="-5.49753124778321" lat="41.0064374422943">
  <tag k="addr:street" v="Calle de las Huertas"/>
  <tag k="addr:housenumber" v="36"/>
  <tag k="addr:postcode" v="37340"/>
  <tag k="entrance" v="yes"/>
  <tag k="image" v="http://ovc.catastro.meh.es/OVCServWeb/OVCWcfLibres/OVCFotoFachada.svc/RecuperarFotoFachadaGet?ReferenciaCatastral=0027606TL9402N"/>
</node>
<node id="-144" action="modify" visible="true" lon="-5.499259371737199" lat="41.008769228409925">
  <tag k="addr:street" v="Calle de Cantarranas"/>
  <tag k="addr:housenumber" v="47"/>
  <tag k="addr:postcode" v="37340"/>
  <tag k="entrance" v="yes"/>
  <tag k="image" v="http://ovc.catastro.meh.es/OVCServWeb/OVCWcfLibres/OVCFotoFachada.svc/RecuperarFotoFachadaGet?ReferenciaCatastral=9929303TL8492N"/>
</node>
<node id="-162" action="modify" visible="true" lon="-5.501746996635987" lat="41.008693964193824">
  <tag k="addr:street" v="Calle de la Fuente"/>
  <tag k="addr:housenumber" v="28"/>
  <tag k="addr:postcode" v="37340"/>
  <tag k="entrance" v="yes"/>
  <tag k="image" v="http://ovc.catastro.meh.es/OVCServWeb/OVCWcfLibres/OVCFotoFachada.svc/RecuperarFotoFachadaGet?ReferenciaCatastral=9729942TL8492N"/>
</node>
<node id="-246" action="modify" visible="true" lon="-5.496012231175691" lat="41.00600110116491">
  <tag k="addr:street" v="Calle del Prado"/>
  <tag k="addr:housenumber" v="55"/>
  <tag k="addr:postcode" v="37340"/>
  <tag k="entrance" v="yes"/>
  <tag k="image" v="http://ovc.catastro.meh.es/OVCServWeb/OVCWcfLibres/OVCFotoFachada.svc/RecuperarFotoFachadaGet?ReferenciaCatastral=0126902TL9402N"/>
</node>
<node id="-108" action="modify" visible="true" lon="-5.500745957318925" lat="41.00678476032284">
  <tag k="addr:street" v="Avenida de los Labradores"/>
  <tag k="addr:housenumber" v="16"/>
  <tag k="addr:postcode" v="37340"/>
  <tag k="entrance" v="yes"/>
  <tag k="image" v="http://ovc.catastro.meh.es/OVCServWeb/OVCWcfLibres/OVCFotoFachada.svc/RecuperarFotoFachadaGet?ReferenciaCatastral=9727001TL8492N"/>
</node>
<node id="-126" action="modify" visible="true" lon="-5.50076565675446" lat="41.008653659673136">
  <tag k="addr:street" v="Calle de Cantarranas"/>
  <tag k="addr:housenumber" v="15"/>
  <tag k="addr:postcode" v="37340"/>
  <tag k="entrance" v="yes"/>
  <tag k="image" v="http://ovc.catastro.meh.es/OVCServWeb/OVCWcfLibres/OVCFotoFachada.svc/RecuperarFotoFachadaGet?ReferenciaCatastral=9729917TL8492N"/>
</node>
<node id="-5" action="modify" visible="true" lon="-5.499887528967564" lat="41.0079067063521">
  <tag k="addr:street" v="Calle de las Angustias"/>
  <tag k="addr:housenumber" v="2"/>
  <tag k="addr:postcode" v="37340"/>
  <tag k="entrance" v="yes"/>
  <tag k="image" v="http://ovc.catastro.meh.es/OVCServWeb/OVCWcfLibres/OVCFotoFachada.svc/RecuperarFotoFachadaGet?ReferenciaCatastral=9728501TL8492N"/>
</node>
<node id="-404" action="modify" visible="true" lon="-5.492037996764046" lat="41.004954842949">
  <tag k="addr:street" v="Calle R&#237;o Tormes"/>
  <tag k="addr:housenumber" v="16"/>
  <tag k="addr:postcode" v="37340"/>
  <tag k="image" v="http://ovc.catastro.meh.es/OVCServWeb/OVCWcfLibres/OVCFotoFachada.svc/RecuperarFotoFachadaGet?ReferenciaCatastral=0525108TL9402N"/>
</node>
<node id="-426" action="modify" visible="true" lon="-5.4922061682956365" lat="41.00475521426342">
  <tag k="addr:street" v="Calle R&#237;o Almar"/>
  <tag k="addr:housenumber" v="18"/>
  <tag k="addr:postcode" v="37340"/>
  <tag k="entrance" v="yes"/>
  <tag k="image" v="http://ovc.catastro.meh.es/OVCServWeb/OVCWcfLibres/OVCFotoFachada.svc/RecuperarFotoFachadaGet?ReferenciaCatastral=0525122TL9402N"/>
</node>
<node id="-273" action="modify" visible="true" lon="-5.497789160988125" lat="41.0062757581804">
  <tag k="addr:street" v="Traves&#237;a del Tejar"/>
  <tag k="addr:housenumber" v="2"/>
  <tag k="addr:postcode" v="37340"/>
  <tag k="entrance" v="yes"/>
  <tag k="image" v="http://ovc.catastro.meh.es/OVCServWeb/OVCWcfLibres/OVCFotoFachada.svc/RecuperarFotoFachadaGet?ReferenciaCatastral=0027604TL9402N"/>
</node>
<node id="-309" action="modify" visible="true" lon="-5.526512624509588" lat="40.978114376048964">
  <tag k="addr:place" v="Caser&#237;o Islas Caballo"/>
  <tag k="addr:housenumber" v="34"/>
  <tag k="addr:postcode" v="37340"/>
  <tag k="image" v="http://ovc.catastro.meh.es/OVCServWeb/OVCWcfLibres/OVCFotoFachada.svc/RecuperarFotoFachadaGet?ReferenciaCatastral=000303400TL83H"/>
</node>
<node id="-11" action="modify" visible="true" lon="-5.499878140397539" lat="41.0080029002094">
  <tag k="addr:street" v="Calle de las Angustias"/>
  <tag k="addr:housenumber" v="4D"/>
  <tag k="addr:postcode" v="37340"/>
  <tag k="image" v="http://ovc.catastro.meh.es/OVCServWeb/OVCWcfLibres/OVCFotoFachada.svc/RecuperarFotoFachadaGet?ReferenciaCatastral=9728534TL8492N"/>
</node>
<node id="-256" action="modify" visible="true" lon="-5.501531423273012" lat="41.00619517933132">
  <tag k="addr:street" v="Calle de Salamanca"/>
  <tag k="addr:housenumber" v="10"/>
  <tag k="addr:postcode" v="37340"/>
  <tag k="entrance" v="yes"/>
  <tag k="image" v="http://ovc.catastro.meh.es/OVCServWeb/OVCWcfLibres/OVCFotoFachada.svc/RecuperarFotoFachadaGet?ReferenciaCatastral=9626505TL8492N"/>
</node>
<node id="-292" action="modify" visible="true" lon="-5.50074769981072" lat="41.00730395738882">
  <tag k="addr:street" v="Calle de Can&#243;nigo Bellido"/>
  <tag k="addr:housenumber" v="11"/>
  <tag k="addr:postcode" v="37340"/>
  <tag k="entrance" v="yes"/>
  <tag k="image" v="http://ovc.catastro.meh.es/OVCServWeb/OVCWcfLibres/OVCFotoFachada.svc/RecuperarFotoFachadaGet?ReferenciaCatastral=9727505TL8492N"/>
</node>
<node id="-328" action="modify" visible="true" lon="-5.498027002010124" lat="41.00963380018663">
  <tag k="addr:street" v="Calle Comuneros de Castilla"/>
  <tag k="addr:housenumber" v="17"/>
  <tag k="addr:postcode" v="37340"/>
  <tag k="image" v="http://ovc.catastro.meh.es/OVCServWeb/OVCWcfLibres/OVCFotoFachada.svc/RecuperarFotoFachadaGet?ReferenciaCatastral=9930602TL8493S"/>
</node>
<node id="-346" action="modify" visible="true" lon="-5.4954528161387834" lat="41.006415601743456">
  <tag k="addr:street" v="Paseo de los Jornaleros"/>
  <tag k="addr:housenumber" v="45"/>
  <tag k="addr:postcode" v="37340"/>
  <tag k="entrance" v="yes"/>
  <tag k="image" v="http://ovc.catastro.meh.es/OVCServWeb/OVCWcfLibres/OVCFotoFachada.svc/RecuperarFotoFachadaGet?ReferenciaCatastral=0227303TL9402N"/>
</node>
<node id="-364" action="modify" visible="true" lon="-5.501835988144445" lat="41.0065079034251">
  <tag k="addr:street" v="Calle del Palomar"/>
  <tag k="addr:housenumber" v="21"/>
  <tag k="addr:postcode" v="37340"/>
  <tag k="entrance" v="yes"/>
  <tag k="image" v="http://ovc.catastro.meh.es/OVCServWeb/OVCWcfLibres/OVCFotoFachada.svc/RecuperarFotoFachadaGet?ReferenciaCatastral=9727011TL8492N"/>
</node>
<node id="-382" action="modify" visible="true" lon="-5.499519042454904" lat="41.00934526256264">
  <tag k="addr:street" v="Calle Primero de Mayo"/>
  <tag k="addr:housenumber" v="4"/>
  <tag k="addr:postcode" v="37340"/>
  <tag k="image" v="http://ovc.catastro.meh.es/OVCServWeb/OVCWcfLibres/OVCFotoFachada.svc/RecuperarFotoFachadaGet?ReferenciaCatastral=9829506TL8492N"/>
</node>
<node id="-418" action="modify" visible="true" lon="-5.501613082918549" lat="41.007522753201016">
  <tag k="addr:street" v="Calle de San Pedro"/>
  <tag k="addr:housenumber" v="20"/>
  <tag k="addr:postcode" v="37340"/>
  <tag k="entrance" v="yes"/>
  <tag k="image" v="http://ovc.catastro.meh.es/OVCServWeb/OVCWcfLibres/OVCFotoFachada.svc/RecuperarFotoFachadaGet?ReferenciaCatastral=9628607TL8492N"/>
</node>
<node id="-436" action="modify" visible="true" lon="-5.4973801727061495" lat="41.00676281229993">
  <tag k="addr:street" v="Calle de Fray Luis de Le&#243;n"/>
  <tag k="addr:housenumber" v="2"/>
  <tag k="addr:postcode" v="37340"/>
  <tag k="entrance" v="yes"/>
  <tag k="image" v="http://ovc.catastro.meh.es/OVCServWeb/OVCWcfLibres/OVCFotoFachada.svc/RecuperarFotoFachadaGet?ReferenciaCatastral=0026409TL9402N"/>
</node>
<node id="-247" action="modify" visible="true" lon="-5.495941747302142" lat="41.00594498473356">
  <tag k="addr:street" v="Calle del Prado"/>
  <tag k="addr:housenumber" v="57"/>
  <tag k="addr:postcode" v="37340"/>
  <tag k="entrance" v="yes"/>
  <tag k="image" v="http://ovc.catastro.meh.es/OVCServWeb/OVCWcfLibres/OVCFotoFachada.svc/RecuperarFotoFachadaGet?ReferenciaCatastral=0126901TL9402N"/>
</node>
<node id="-265" action="modify" visible="true" lon="-5.503348881343825" lat="41.00543625137624">
  <tag k="addr:street" v="Calle de Salamanca"/>
  <tag k="addr:housenumber" v="21"/>
  <tag k="addr:postcode" v="37340"/>
  <tag k="image" v="http://ovc.catastro.meh.es/OVCServWeb/OVCWcfLibres/OVCFotoFachada.svc/RecuperarFotoFachadaGet?ReferenciaCatastral=9825401TL8492N"/>
</node>
<node id="-283" action="modify" visible="true" lon="-5.500569513962293" lat="41.00753010391237">
  <tag k="addr:street" v="Calle Traviesa"/>
  <tag k="addr:housenumber" v="14"/>
  <tag k="addr:postcode" v="37340"/>
  <tag k="entrance" v="yes"/>
  <tag k="image" v="http://ovc.catastro.meh.es/OVCServWeb/OVCWcfLibres/OVCFotoFachada.svc/RecuperarFotoFachadaGet?ReferenciaCatastral=9727514TL8492N"/>
</node>
<node id="-191" action="modify" visible="true" lon="-5.502275072498959" lat="41.00845582925485">
  <tag k="addr:street" v="Calle del Jard&#237;n"/>
  <tag k="addr:housenumber" v="2"/>
  <tag k="addr:postcode" v="37340"/>
  <tag k="entrance" v="yes"/>
  <tag k="image" v="http://ovc.catastro.meh.es/OVCServWeb/OVCWcfLibres/OVCFotoFachada.svc/RecuperarFotoFachadaGet?ReferenciaCatastral=9629903TL8492N"/>
</node>
<node id="-211" action="modify" visible="true" lon="-5.4973757293141725" lat="41.009772627616854">
  <tag k="addr:street" v="Calle del Matadero"/>
  <tag k="addr:housenumber" v="13"/>
  <tag k="addr:postcode" v="37340"/>
  <tag k="entrance" v="yes"/>
  <tag k="image" v="http://ovc.catastro.meh.es/OVCServWeb/OVCWcfLibres/OVCFotoFachada.svc/RecuperarFotoFachadaGet?ReferenciaCatastral=0030901TL9403S"/>
</node>
<node id="-222" action="modify" visible="true" lon="-5.498953224254646" lat="41.00804935784488">
  <tag k="addr:street" v="Plaza de la Libertad"/>
  <tag k="addr:housenumber" v="6"/>
  <tag k="addr:postcode" v="37340"/>
  <tag k="entrance" v="yes"/>
  <tag k="image" v="http://ovc.catastro.meh.es/OVCServWeb/OVCWcfLibres/OVCFotoFachada.svc/RecuperarFotoFachadaGet?ReferenciaCatastral=9928306TL8492N"/>
</node>
<node id="-301" action="modify" visible="true" lon="-5.52703726785274" lat="40.97789496500513">
  <tag k="addr:place" v="Caser&#237;o Islas Caballo"/>
  <tag k="addr:housenumber" v="1"/>
  <tag k="addr:postcode" v="37340"/>
  <tag k="image" v="http://ovc.catastro.meh.es/OVCServWeb/OVCWcfLibres/OVCFotoFachada.svc/RecuperarFotoFachadaGet?ReferenciaCatastral=000302900TL83H"/>
</node>
<node id="-319" action="modify" visible="true" lon="-5.496343914630531" lat="41.00947860708602">
  <tag k="addr:street" v="Calle constituci&#243;n"/>
  <tag k="addr:housenumber" v="6"/>
  <tag k="addr:postcode" v="37340"/>
  <tag k="entrance" v="yes"/>
  <tag k="image" v="http://ovc.catastro.meh.es/OVCServWeb/OVCWcfLibres/OVCFotoFachada.svc/RecuperarFotoFachadaGet?ReferenciaCatastral=0130701TL9403S"/>
</node>
<node id="-337" action="modify" visible="true" lon="-5.496049614580851" lat="41.00764427975997">
  <tag k="addr:street" v="Paseo de los Jornaleros"/>
  <tag k="addr:housenumber" v="10"/>
  <tag k="addr:postcode" v="37340"/>
  <tag k="entrance" v="yes"/>
  <tag k="image" v="http://ovc.catastro.meh.es/OVCServWeb/OVCWcfLibres/OVCFotoFachada.svc/RecuperarFotoFachadaGet?ReferenciaCatastral=0127317TL9402N"/>
</node>
<node id="-355" action="modify" visible="true" lon="-5.50126289483887" lat="41.00794175786104">
  <tag k="addr:street" v="Plaza Adrial"/>
  <tag k="addr:housenumber" v="3"/>
  <tag k="addr:postcode" v="37340"/>
  <tag k="entrance" v="yes"/>
  <tag k="image" v="http://ovc.catastro.meh.es/OVCServWeb/OVCWcfLibres/OVCFotoFachada.svc/RecuperarFotoFachadaGet?ReferenciaCatastral=9728909TL8492N"/>
</node>
<node id="-393" action="modify" visible="true" lon="-5.498337805216319" lat="41.00663192279764">
  <tag k="addr:street" v="Calle Particular"/>
  <tag k="addr:housenumber" v="2"/>
  <tag k="addr:postcode" v="37340"/>
  <tag k="entrance" v="yes"/>
  <tag k="image" v="http://ovc.catastro.meh.es/OVCServWeb/OVCWcfLibres/OVCFotoFachada.svc/RecuperarFotoFachadaGet?ReferenciaCatastral=0027660TL9402N"/>
</node>
<node id="-201" action="modify" visible="true" lon="-5.4994769503831025" lat="41.00786343965174">
  <tag k="addr:street" v="Plaza del Hospital"/>
  <tag k="addr:housenumber" v="17"/>
  <tag k="addr:postcode" v="37340"/>
  <tag k="entrance" v="yes"/>
  <tag k="image" v="http://ovc.catastro.meh.es/OVCServWeb/OVCWcfLibres/OVCFotoFachada.svc/RecuperarFotoFachadaGet?ReferenciaCatastral=9828601TL8492N"/>
</node>
<node id="-12" action="modify" visible="true" lon="-5.500451686923114" lat="41.00792622732555">
  <tag k="addr:street" v="Calle de las Angustias"/>
  <tag k="addr:housenumber" v="5"/>
  <tag k="addr:postcode" v="37340"/>
  <tag k="entrance" v="yes"/>
  <tag k="image" v="http://ovc.catastro.meh.es/OVCServWeb/OVCWcfLibres/OVCFotoFachada.svc/RecuperarFotoFachadaGet?ReferenciaCatastral=9828212TL8492N"/>
</node>
<node id="-28" action="modify" visible="true" lon="-5.497817335933665" lat="41.00918223236397">
  <tag k="addr:street" v="Calle del Arenal"/>
  <tag k="addr:housenumber" v="38"/>
  <tag k="addr:postcode" v="37340"/>
  <tag k="entrance" v="yes"/>
  <tag k="image" v="http://ovc.catastro.meh.es/OVCServWeb/OVCWcfLibres/OVCFotoFachada.svc/RecuperarFotoFachadaGet?ReferenciaCatastral=0029119TL9402N"/>
</node>
<node id="-46" action="modify" visible="true" lon="-5.497143131333665" lat="41.008099020673136">
  <tag k="addr:street" v="Calle de Torrubio"/>
  <tag k="addr:housenumber" v="21"/>
  <tag k="addr:postcode" v="37340"/>
  <tag k="entrance" v="yes"/>
  <tag k="image" v="http://ovc.catastro.meh.es/OVCServWeb/OVCWcfLibres/OVCFotoFachada.svc/RecuperarFotoFachadaGet?ReferenciaCatastral=0028513TL9402N"/>
</node>
<node id="-64" action="modify" visible="true" lon="-5.498093023155258" lat="41.007817645406355">
  <tag k="addr:street" v="Calle de Torrubio"/>
  <tag k="addr:housenumber" v="6"/>
  <tag k="addr:postcode" v="37340"/>
  <tag k="entrance" v="yes"/>
  <tag k="image" v="http://ovc.catastro.meh.es/OVCServWeb/OVCWcfLibres/OVCFotoFachada.svc/RecuperarFotoFachadaGet?ReferenciaCatastral=0027628TL9402N"/>
</node>
<node id="-82" action="modify" visible="true" lon="-5.4976992655812005" lat="41.00770613889561">
  <tag k="addr:street" v="Calle de las Huertas"/>
  <tag k="addr:housenumber" v="2"/>
  <tag k="addr:postcode" v="37340"/>
  <tag k="entrance" v="yes"/>
  <tag k="image" v="http://ovc.catastro.meh.es/OVCServWeb/OVCWcfLibres/OVCFotoFachada.svc/RecuperarFotoFachadaGet?ReferenciaCatastral=0027625TL9402N"/>
</node>
<node id="-100" action="modify" visible="true" lon="-5.497482730148675" lat="41.00671503523139">
  <tag k="addr:street" v="Calle de las Huertas"/>
  <tag k="addr:housenumber" v="9"/>
  <tag k="addr:postcode" v="37340"/>
  <tag k="entrance" v="yes"/>
  <tag k="image" v="http://ovc.catastro.meh.es/OVCServWeb/OVCWcfLibres/OVCFotoFachada.svc/RecuperarFotoFachadaGet?ReferenciaCatastral=0026408TL9402N"/>
</node>
<node id="-118" action="modify" visible="true" lon="-5.50047075588511" lat="41.00685383503734">
  <tag k="addr:street" v="Avenida de los Labradores"/>
  <tag k="addr:housenumber" v="33"/>
  <tag k="addr:postcode" v="37340"/>
  <tag k="entrance" v="yes"/>
  <tag k="image" v="http://ovc.catastro.meh.es/OVCServWeb/OVCWcfLibres/OVCFotoFachada.svc/RecuperarFotoFachadaGet?ReferenciaCatastral=9827423TL8492N"/>
</node>
<node id="-136" action="modify" visible="true" lon="-5.4992419289064705" lat="41.008689624311806">
  <tag k="addr:street" v="Calle de Cantarranas"/>
  <tag k="addr:housenumber" v="30"/>
  <tag k="addr:postcode" v="37340"/>
  <tag k="entrance" v="yes"/>
  <tag k="image" v="http://ovc.catastro.meh.es/OVCServWeb/OVCWcfLibres/OVCFotoFachada.svc/RecuperarFotoFachadaGet?ReferenciaCatastral=9929109TL8492N"/>
</node>
<node id="-154" action="modify" visible="true" lon="-5.5021772141137575" lat="41.008681918487376">
  <tag k="addr:street" v="Calle de la Fuente"/>
  <tag k="addr:housenumber" v="11"/>
  <tag k="addr:postcode" v="37340"/>
  <tag k="entrance" v="yes"/>
  <tag k="image" v="http://ovc.catastro.meh.es/OVCServWeb/OVCWcfLibres/OVCFotoFachada.svc/RecuperarFotoFachadaGet?ReferenciaCatastral=9629905TL8492N"/>
</node>
<node id="-109" action="modify" visible="true" lon="-5.49990617384872" lat="41.00713567010168">
  <tag k="addr:street" v="Avenida de los Labradores"/>
  <tag k="addr:housenumber" v="17"/>
  <tag k="addr:postcode" v="37340"/>
  <tag k="entrance" v="yes"/>
  <tag k="image" v="http://ovc.catastro.meh.es/OVCServWeb/OVCWcfLibres/OVCFotoFachada.svc/RecuperarFotoFachadaGet?ReferenciaCatastral=9827415TL8492N"/>
</node>
<node id="-127" action="modify" visible="true" lon="-5.500088148014623" lat="41.00851453552657">
  <tag k="addr:street" v="Calle de Cantarranas"/>
  <tag k="addr:housenumber" v="16"/>
  <tag k="addr:postcode" v="37340"/>
  <tag k="entrance" v="yes"/>
  <tag k="image" v="http://ovc.catastro.meh.es/OVCServWeb/OVCWcfLibres/OVCFotoFachada.svc/RecuperarFotoFachadaGet?ReferenciaCatastral=9728517TL8492N"/>
</node>
<node id="-245" action="modify" visible="true" lon="-5.496078062094186" lat="41.00605349513276">
  <tag k="addr:street" v="Calle del Prado"/>
  <tag k="addr:housenumber" v="53"/>
  <tag k="addr:postcode" v="37340"/>
  <tag k="entrance" v="yes"/>
  <tag k="image" v="http://ovc.catastro.meh.es/OVCServWeb/OVCWcfLibres/OVCFotoFachada.svc/RecuperarFotoFachadaGet?ReferenciaCatastral=0126903TL9402N"/>
</node>
<node id="-19" action="modify" visible="true" lon="-5.498223345214166" lat="41.00905012888538">
  <tag k="addr:street" v="Calle del Arenal"/>
  <tag k="addr:housenumber" v="21"/>
  <tag k="addr:postcode" v="37340"/>
  <tag k="entrance" v="yes"/>
  <tag k="image" v="http://ovc.catastro.meh.es/OVCServWeb/OVCWcfLibres/OVCFotoFachada.svc/RecuperarFotoFachadaGet?ReferenciaCatastral=0030110TL9403S"/>
</node>
<node id="-37" action="modify" visible="true" lon="-5.498887749886169" lat="41.008358156609745">
  <tag k="addr:street" v="Calle del Arenal"/>
  <tag k="addr:housenumber" v="6"/>
  <tag k="addr:postcode" v="37340"/>
  <tag k="entrance" v="yes"/>
  <tag k="image" v="http://ovc.catastro.meh.es/OVCServWeb/OVCWcfLibres/OVCFotoFachada.svc/RecuperarFotoFachadaGet?ReferenciaCatastral=9928310TL8492N"/>
</node>
<node id="-55" action="modify" visible="true" lon="-5.4956779111213505" lat="41.00809125968567">
  <tag k="addr:street" v="Calle de Torrubio"/>
  <tag k="addr:housenumber" v="30"/>
  <tag k="addr:postcode" v="37340"/>
  <tag k="entrance" v="yes"/>
  <tag k="image" v="http://ovc.catastro.meh.es/OVCServWeb/OVCWcfLibres/OVCFotoFachada.svc/RecuperarFotoFachadaGet?ReferenciaCatastral=0227302TL9402N"/>
</node>
<node id="-73" action="modify" visible="true" lon="-5.497154376885913" lat="41.00844811426714">
  <tag k="addr:street" v="Calle de San Miguel"/>
  <tag k="addr:housenumber" v="9"/>
  <tag k="addr:postcode" v="37340"/>
  <tag k="entrance" v="yes"/>
  <tag k="image" v="http://ovc.catastro.meh.es/OVCServWeb/OVCWcfLibres/OVCFotoFachada.svc/RecuperarFotoFachadaGet?ReferenciaCatastral=0028510TL9402N"/>
</node>
<node id="-91" action="modify" visible="true" lon="-5.4975225570785655" lat="41.00637106621059">
  <tag k="addr:street" v="Calle de las Huertas"/>
  <tag k="addr:housenumber" v="38"/>
  <tag k="addr:postcode" v="37340"/>
  <tag k="entrance" v="yes"/>
  <tag k="image" v="http://ovc.catastro.meh.es/OVCServWeb/OVCWcfLibres/OVCFotoFachada.svc/RecuperarFotoFachadaGet?ReferenciaCatastral=0027605TL9402N"/>
</node>
<node id="-145" action="modify" visible="true" lon="-5.499174836082761" lat="41.00879960049387">
  <tag k="addr:street" v="Calle de Cantarranas"/>
  <tag k="addr:housenumber" v="49"/>
  <tag k="addr:postcode" v="37340"/>
  <tag k="image" v="http://ovc.catastro.meh.es/OVCServWeb/OVCWcfLibres/OVCFotoFachada.svc/RecuperarFotoFachadaGet?ReferenciaCatastral=9929304TL8492N"/>
</node>
<node id="-163" action="modify" visible="true" lon="-5.501565628414053" lat="41.008236233194374">
  <tag k="addr:street" v="Calle de la Fuente"/>
  <tag k="addr:housenumber" v="4"/>
  <tag k="addr:postcode" v="37340"/>
  <tag k="entrance" v="yes"/>
  <tag k="image" v="http://ovc.catastro.meh.es/OVCServWeb/OVCWcfLibres/OVCFotoFachada.svc/RecuperarFotoFachadaGet?ReferenciaCatastral=9729928TL8492N"/>
</node>
<node id="-6" action="modify" visible="true" lon="-5.50018597370255" lat="41.0080459637359">
  <tag k="addr:street" v="Calle de las Angustias"/>
  <tag k="addr:housenumber" v="20"/>
  <tag k="addr:postcode" v="37340"/>
  <tag k="entrance" v="yes"/>
  <tag k="image" v="http://ovc.catastro.meh.es/OVCServWeb/OVCWcfLibres/OVCFotoFachada.svc/RecuperarFotoFachadaGet?ReferenciaCatastral=9728533TL8492N"/>
</node>
<node id="-199" action="modify" visible="true" lon="-5.499672185931749" lat="41.00796617130199">
  <tag k="addr:street" v="Plaza del Hospital"/>
  <tag k="addr:housenumber" v="15"/>
  <tag k="addr:postcode" v="37340"/>
  <tag k="image" v="http://ovc.catastro.meh.es/OVCServWeb/OVCWcfLibres/OVCFotoFachada.svc/RecuperarFotoFachadaGet?ReferenciaCatastral=9728505TL8492N"/>
</node>
<node id="-223" action="modify" visible="true" lon="-5.4997645454407635" lat="41.008355468813576">
  <tag k="addr:street" v="Calle del Peligro"/>
  <tag k="addr:housenumber" v="10"/>
  <tag k="addr:postcode" v="37340"/>
  <tag k="entrance" v="yes"/>
  <tag k="image" v="http://ovc.catastro.meh.es/OVCServWeb/OVCWcfLibres/OVCFotoFachada.svc/RecuperarFotoFachadaGet?ReferenciaCatastral=9929124TL8492N"/>
</node>
<node id="-402" action="modify" visible="true" lon="-5.4921657222477425" lat="41.00496431592144">
  <tag k="addr:street" v="Calle R&#237;o Tormes"/>
  <tag k="addr:housenumber" v="14"/>
  <tag k="addr:postcode" v="37340"/>
  <tag k="image" v="http://ovc.catastro.meh.es/OVCServWeb/OVCWcfLibres/OVCFotoFachada.svc/RecuperarFotoFachadaGet?ReferenciaCatastral=0525107TL9402N"/>
</node>
<node id="-441" action="modify" visible="true" lon="-5.502985167451827" lat="41.00906828503342">
  <tag k="addr:street" v="Plaza de la Fuente"/>
  <tag k="addr:housenumber" v="3"/>
  <tag k="addr:postcode" v="37340"/>
  <tag k="entrance" v="yes"/>
  <tag k="image" v="http://ovc.catastro.meh.es/OVCServWeb/OVCWcfLibres/OVCFotoFachada.svc/RecuperarFotoFachadaGet?ReferenciaCatastral=9529912TL8492N"/>
</node>
<node id="-2" action="modify" visible="true" lon="-5.499951223669458" lat="41.008129450581755">
  <tag k="addr:street" v="Calle de las Angustias"/>
  <tag k="addr:housenumber" v="16"/>
  <tag k="addr:postcode" v="37340"/>
  <tag k="entrance" v="yes"/>
  <tag k="image" v="http://ovc.catastro.meh.es/OVCServWeb/OVCWcfLibres/OVCFotoFachada.svc/RecuperarFotoFachadaGet?ReferenciaCatastral=9728512TL8492N"/>
</node>
<node id="-1" action="modify" visible="true" lon="-5.499878207335444" lat="41.008209691738216">
  <tag k="addr:street" v="Calle de las Angustias"/>
  <tag k="addr:housenumber" v="12"/>
  <tag k="addr:postcode" v="37340"/>
  <tag k="entrance" v="yes"/>
  <tag k="image" v="http://ovc.catastro.meh.es/OVCServWeb/OVCWcfLibres/OVCFotoFachada.svc/RecuperarFotoFachadaGet?ReferenciaCatastral=9728510TL8492N"/>
</node>
<node id="-7" action="modify" visible="true" lon="-5.500341191723502" lat="41.00799424426226">
  <tag k="addr:street" v="Calle de las Angustias"/>
  <tag k="addr:housenumber" v="22"/>
  <tag k="addr:postcode" v="37340"/>
  <tag k="entrance" v="yes"/>
  <tag k="image" v="http://ovc.catastro.meh.es/OVCServWeb/OVCWcfLibres/OVCFotoFachada.svc/RecuperarFotoFachadaGet?ReferenciaCatastral=9728531TL8492N"/>
</node>
<node id="-200" action="modify" visible="true" lon="-5.499629369120465" lat="41.008036760678856">
  <tag k="addr:street" v="Plaza del Hospital"/>
  <tag k="addr:housenumber" v="16"/>
  <tag k="addr:postcode" v="37340"/>
  <tag k="image" v="http://ovc.catastro.meh.es/OVCServWeb/OVCWcfLibres/OVCFotoFachada.svc/RecuperarFotoFachadaGet?ReferenciaCatastral=9728506TL8492N"/>
</node>
<node id="-274" action="modify" visible="true" lon="-5.497877174739164" lat="41.00670812967662">
  <tag k="addr:street" v="Traves&#237;a del Tejar"/>
  <tag k="addr:housenumber" v="4"/>
  <tag k="addr:postcode" v="37340"/>
  <tag k="entrance" v="yes"/>
  <tag k="image" v="http://ovc.catastro.meh.es/OVCServWeb/OVCWcfLibres/OVCFotoFachada.svc/RecuperarFotoFachadaGet?ReferenciaCatastral=0027626TL9402N"/>
</node>
<node id="-310" action="modify" visible="true" lon="-5.526104910862977" lat="40.9781470947404">
  <tag k="addr:place" v="Caser&#237;o Islas Caballo"/>
  <tag k="addr:housenumber" v="35"/>
  <tag k="addr:postcode" v="37340"/>
  <tag k="image" v="http://ovc.catastro.meh.es/OVCServWeb/OVCWcfLibres/OVCFotoFachada.svc/RecuperarFotoFachadaGet?ReferenciaCatastral=000300200TL83H"/>
</node>
<node id="-220" action="modify" visible="true" lon="-5.4990791754696335" lat="41.008167911386415">
  <tag k="addr:street" v="Plaza de la Libertad"/>
  <tag k="addr:housenumber" v="4"/>
  <tag k="addr:postcode" v="37340"/>
  <tag k="entrance" v="yes"/>
  <tag k="image" v="http://ovc.catastro.meh.es/OVCServWeb/OVCWcfLibres/OVCFotoFachada.svc/RecuperarFotoFachadaGet?ReferenciaCatastral=9928308TL8492N"/>
</node>
<node id="-257" action="modify" visible="true" lon="-5.501848441169004" lat="41.005996283646894">
  <tag k="addr:street" v="Calle de Salamanca"/>
  <tag k="addr:housenumber" v="11"/>
  <tag k="addr:postcode" v="37340"/>
  <tag k="entrance" v="yes"/>
  <tag k="image" v="http://ovc.catastro.meh.es/OVCServWeb/OVCWcfLibres/OVCFotoFachada.svc/RecuperarFotoFachadaGet?ReferenciaCatastral=9726405TL8492N"/>
</node>
<node id="-293" action="modify" visible="true" lon="-5.501513829200767" lat="41.007691593285024">
  <tag k="addr:street" v="Calle de Can&#243;nigo Bellido"/>
  <tag k="addr:housenumber" v="12"/>
  <tag k="addr:postcode" v="37340"/>
  <tag k="image" v="http://ovc.catastro.meh.es/OVCServWeb/OVCWcfLibres/OVCFotoFachada.svc/RecuperarFotoFachadaGet?ReferenciaCatastral=9628609TL8492N"/>
</node>
<node id="-329" action="modify" visible="true" lon="-5.497776907674336" lat="41.009678462282224">
  <tag k="addr:street" v="Calle Comuneros de Castilla"/>
  <tag k="addr:housenumber" v="19"/>
  <tag k="addr:postcode" v="37340"/>
  <tag k="image" v="http://ovc.catastro.meh.es/OVCServWeb/OVCWcfLibres/OVCFotoFachada.svc/RecuperarFotoFachadaGet?ReferenciaCatastral=9930605TL8493S"/>
</node>
<node id="-347" action="modify" visible="true" lon="-5.495544727305972" lat="41.00608001648028">
  <tag k="addr:street" v="Paseo de los Jornaleros"/>
  <tag k="addr:housenumber" v="46"/>
  <tag k="addr:postcode" v="37340"/>
  <tag k="entrance" v="yes"/>
  <tag k="image" v="http://ovc.catastro.meh.es/OVCServWeb/OVCWcfLibres/OVCFotoFachada.svc/RecuperarFotoFachadaGet?ReferenciaCatastral=0126604TL9402N"/>
</node>
<node id="-365" action="modify" visible="true" lon="-5.501162874855115" lat="41.00679675326424">
  <tag k="addr:street" v="Calle del Palomar"/>
  <tag k="addr:housenumber" v="8"/>
  <tag k="addr:postcode" v="37340"/>
  <tag k="entrance" v="yes"/>
  <tag k="image" v="http://ovc.catastro.meh.es/OVCServWeb/OVCWcfLibres/OVCFotoFachada.svc/RecuperarFotoFachadaGet?ReferenciaCatastral=9727209TL8492N"/>
</node>
<node id="-383" action="modify" visible="true" lon="-5.499369965991372" lat="41.008798888761866">
  <tag k="addr:street" v="Calle Primero de Mayo"/>
  <tag k="addr:housenumber" v="9"/>
  <tag k="addr:postcode" v="37340"/>
  <tag k="image" v="http://ovc.catastro.meh.es/OVCServWeb/OVCWcfLibres/OVCFotoFachada.svc/RecuperarFotoFachadaGet?ReferenciaCatastral=9929302TL8492N"/>
</node>
<node id="-419" action="modify" visible="true" lon="-5.501820440723759" lat="41.007506409842456">
  <tag k="addr:street" v="Calle de San Pedro"/>
  <tag k="addr:housenumber" v="22"/>
  <tag k="addr:postcode" v="37340"/>
  <tag k="entrance" v="yes"/>
  <tag k="image" v="http://ovc.catastro.meh.es/OVCServWeb/OVCWcfLibres/OVCFotoFachada.svc/RecuperarFotoFachadaGet?ReferenciaCatastral=9628613TL8492N"/>
</node>
<node id="-437" action="modify" visible="true" lon="-5.4973195855621455" lat="41.0067691250923">
  <tag k="addr:street" v="Calle de Fray Luis de Le&#243;n"/>
  <tag k="addr:housenumber" v="4"/>
  <tag k="addr:postcode" v="37340"/>
  <tag k="entrance" v="yes"/>
  <tag k="image" v="http://ovc.catastro.meh.es/OVCServWeb/OVCWcfLibres/OVCFotoFachada.svc/RecuperarFotoFachadaGet?ReferenciaCatastral=0026407TL9402N"/>
</node>
<node id="-432" action="modify" visible="true" lon="-5.499582345490798" lat="41.005635968418446">
  <tag k="addr:street" v="Calle de la Ermita"/>
  <tag k="addr:housenumber" v="18"/>
  <tag k="addr:postcode" v="37340"/>
  <tag k="image" v="http://ovc.catastro.meh.es/OVCServWeb/OVCWcfLibres/OVCFotoFachada.svc/RecuperarFotoFachadaGet?ReferenciaCatastral=9826901TL8492N"/>
</node>
<node id="-391" action="modify" visible="true" lon="-5.498901674356098" lat="41.00771262130029">
  <tag k="addr:street" v="Plaza de la Villa"/>
  <tag k="addr:housenumber" v="8"/>
  <tag k="addr:postcode" v="37340"/>
  <tag k="entrance" v="yes"/>
  <tag k="image" v="http://ovc.catastro.meh.es/OVCServWeb/OVCWcfLibres/OVCFotoFachada.svc/RecuperarFotoFachadaGet?ReferenciaCatastral=0027632TL9402N"/>
</node>
<node id="-284" action="modify" visible="true" lon="-5.500925189961575" lat="41.0081436159277">
  <tag k="addr:street" v="Calle Traviesa"/>
  <tag k="addr:housenumber" v="2"/>
  <tag k="addr:postcode" v="37340"/>
  <tag k="entrance" v="yes"/>
  <tag k="image" v="http://ovc.catastro.meh.es/OVCServWeb/OVCWcfLibres/OVCFotoFachada.svc/RecuperarFotoFachadaGet?ReferenciaCatastral=9728913TL8492N"/>
</node>
<node id="-320" action="modify" visible="true" lon="-5.496408255048081" lat="41.009519336001084">
  <tag k="addr:street" v="Calle constituci&#243;n"/>
  <tag k="addr:housenumber" v="7"/>
  <tag k="addr:postcode" v="37340"/>
  <tag k="entrance" v="yes"/>
  <tag k="image" v="http://ovc.catastro.meh.es/OVCServWeb/OVCWcfLibres/OVCFotoFachada.svc/RecuperarFotoFachadaGet?ReferenciaCatastral=0130102TL9403S"/>
</node>
<node id="-338" action="modify" visible="true" lon="-5.4958894769426365" lat="41.00725183138938">
  <tag k="addr:street" v="Paseo de los Jornaleros"/>
  <tag k="addr:housenumber" v="14"/>
  <tag k="addr:postcode" v="37340"/>
  <tag k="entrance" v="yes"/>
  <tag k="image" v="http://ovc.catastro.meh.es/OVCServWeb/OVCWcfLibres/OVCFotoFachada.svc/RecuperarFotoFachadaGet?ReferenciaCatastral=0127319TL9402N"/>
</node>
<node id="-248" action="modify" visible="true" lon="-5.495709812859023" lat="41.00589913533883">
  <tag k="addr:street" v="Calle del Prado"/>
  <tag k="addr:housenumber" v="59"/>
  <tag k="addr:postcode" v="37340"/>
  <tag k="entrance" v="yes"/>
  <tag k="image" v="http://ovc.catastro.meh.es/OVCServWeb/OVCWcfLibres/OVCFotoFachada.svc/RecuperarFotoFachadaGet?ReferenciaCatastral=0126603TL9402N"/>
</node>
<node id="-266" action="modify" visible="true" lon="-5.501229215814027" lat="41.00622665956675">
  <tag k="addr:street" v="Calle de Salamanca"/>
  <tag k="addr:housenumber" v="3"/>
  <tag k="addr:postcode" v="37340"/>
  <tag k="entrance" v="yes"/>
  <tag k="image" v="http://ovc.catastro.meh.es/OVCServWeb/OVCWcfLibres/OVCFotoFachada.svc/RecuperarFotoFachadaGet?ReferenciaCatastral=9726402TL8492N"/>
</node>
<node id="-356" action="modify" visible="true" lon="-5.501440455174605" lat="41.0079365507033">
  <tag k="addr:street" v="Plaza Adrial"/>
  <tag k="addr:housenumber" v="4"/>
  <tag k="addr:postcode" v="37340"/>
  <tag k="entrance" v="yes"/>
  <tag k="image" v="http://ovc.catastro.meh.es/OVCServWeb/OVCWcfLibres/OVCFotoFachada.svc/RecuperarFotoFachadaGet?ReferenciaCatastral=9628616TL8492N"/>
</node>
<node id="-375" action="modify" visible="true" lon="-5.502584078181383" lat="41.00788354798238">
  <tag k="addr:street" v="Calle Camino de los Partidos"/>
  <tag k="addr:housenumber" v="4"/>
  <tag k="addr:postcode" v="37340"/>
  <tag k="image" v="http://ovc.catastro.meh.es/OVCServWeb/OVCWcfLibres/OVCFotoFachada.svc/RecuperarFotoFachadaGet?ReferenciaCatastral=9528510TL8492N"/>
</node>
<node id="-410" action="modify" visible="true" lon="-5.492194934420095" lat="41.00524925640029">
  <tag k="addr:street" v="Calle R&#237;o Tormes"/>
  <tag k="addr:housenumber" v="7"/>
  <tag k="addr:postcode" v="37340"/>
  <tag k="image" v="http://ovc.catastro.meh.es/OVCServWeb/OVCWcfLibres/OVCFotoFachada.svc/RecuperarFotoFachadaGet?ReferenciaCatastral=0525204TL9402N"/>
</node>
<node id="-428" action="modify" visible="true" lon="-5.492082226369099" lat="41.004651241036605">
  <tag k="addr:street" v="Calle R&#237;o Almar"/>
  <tag k="addr:housenumber" v="22"/>
  <tag k="addr:postcode" v="37340"/>
  <tag k="entrance" v="yes"/>
  <tag k="image" v="http://ovc.catastro.meh.es/OVCServWeb/OVCWcfLibres/OVCFotoFachada.svc/RecuperarFotoFachadaGet?ReferenciaCatastral=0525120TL9402N"/>
</node>
<node id="-178" action="modify" visible="true" lon="-5.502437468539771" lat="41.00819434147681">
  <tag k="addr:street" v="Calle de Arriba"/>
  <tag k="addr:housenumber" v="11"/>
  <tag k="addr:postcode" v="37340"/>
  <tag k="entrance" v="yes"/>
  <tag k="image" v="http://ovc.catastro.meh.es/OVCServWeb/OVCWcfLibres/OVCFotoFachada.svc/RecuperarFotoFachadaGet?ReferenciaCatastral=9628628TL8492N"/>
</node>
<node id="-207" action="modify" visible="true" lon="-5.499834277929821" lat="41.007679876875244">
  <tag k="addr:street" v="Plaza del Hospital"/>
  <tag k="addr:housenumber" v="7"/>
  <tag k="addr:postcode" v="37340"/>
  <tag k="entrance" v="yes"/>
  <tag k="image" v="http://ovc.catastro.meh.es/OVCServWeb/OVCWcfLibres/OVCFotoFachada.svc/RecuperarFotoFachadaGet?ReferenciaCatastral=9828801TL8492N"/>
</node>
<node id="-173" action="modify" visible="true" lon="-5.501957675990035" lat="41.006303952461224">
  <tag k="addr:street" v="Calle de Benito Herreros"/>
  <tag k="addr:housenumber" v="26"/>
  <tag k="addr:postcode" v="37340"/>
  <tag k="entrance" v="yes"/>
  <tag k="image" v="http://ovc.catastro.meh.es/OVCServWeb/OVCWcfLibres/OVCFotoFachada.svc/RecuperarFotoFachadaGet?ReferenciaCatastral=9727014TL8492N"/>
</node>
<node id="-65" action="modify" visible="true" lon="-5.497969771028016" lat="41.00793774911102">
  <tag k="addr:street" v="Calle de Torrubio"/>
  <tag k="addr:housenumber" v="7"/>
  <tag k="addr:postcode" v="37340"/>
  <tag k="entrance" v="yes"/>
  <tag k="image" v="http://ovc.catastro.meh.es/OVCServWeb/OVCWcfLibres/OVCFotoFachada.svc/RecuperarFotoFachadaGet?ReferenciaCatastral=0029143TL9402N"/>
</node>
<node id="-83" action="modify" visible="true" lon="-5.4974226221273845" lat="41.00620268473838">
  <tag k="addr:street" v="Calle de las Huertas"/>
  <tag k="addr:housenumber" v="21"/>
  <tag k="addr:postcode" v="37340"/>
  <tag k="entrance" v="yes"/>
  <tag k="image" v="http://ovc.catastro.meh.es/OVCServWeb/OVCWcfLibres/OVCFotoFachada.svc/RecuperarFotoFachadaGet?ReferenciaCatastral=0026914TL9402N"/>
</node>
<node id="-29" action="modify" visible="true" lon="-5.49899151781807" lat="41.0082997201591">
  <tag k="addr:street" v="Calle del Arenal"/>
  <tag k="addr:housenumber" v="4"/>
  <tag k="addr:postcode" v="37340"/>
  <tag k="image" v="http://ovc.catastro.meh.es/OVCServWeb/OVCWcfLibres/OVCFotoFachada.svc/RecuperarFotoFachadaGet?ReferenciaCatastral=9928309TL8492N"/>
</node>
<node id="-47" action="modify" visible="true" lon="-5.497058904272903" lat="41.00819644878555">
  <tag k="addr:street" v="Calle de Torrubio"/>
  <tag k="addr:housenumber" v="21C"/>
  <tag k="addr:postcode" v="37340"/>
  <tag k="image" v="http://ovc.catastro.meh.es/OVCServWeb/OVCWcfLibres/OVCFotoFachada.svc/RecuperarFotoFachadaGet?ReferenciaCatastral=0028511TL9402N"/>
</node>
<node id="-101" action="modify" visible="true" lon="-5.500388773037191" lat="41.00729302153332">
  <tag k="addr:street" v="Avenida de los Labradores"/>
  <tag k="addr:housenumber" v="10"/>
  <tag k="addr:postcode" v="37340"/>
  <tag k="entrance" v="yes"/>
  <tag k="image" v="http://ovc.catastro.meh.es/OVCServWeb/OVCWcfLibres/OVCFotoFachada.svc/RecuperarFotoFachadaGet?ReferenciaCatastral=9727506TL8492N"/>
</node>
<node id="-119" action="modify" visible="true" lon="-5.500433772931338" lat="41.006765069616996">
  <tag k="addr:street" v="Avenida de los Labradores"/>
  <tag k="addr:housenumber" v="35"/>
  <tag k="addr:postcode" v="37340"/>
  <tag k="entrance" v="yes"/>
  <tag k="image" v="http://ovc.catastro.meh.es/OVCServWeb/OVCWcfLibres/OVCFotoFachada.svc/RecuperarFotoFachadaGet?ReferenciaCatastral=9827424TL8492N"/>
</node>
<node id="-137" action="modify" visible="true" lon="-5.500296939586618" lat="41.008521595948146">
  <tag k="addr:street" v="Calle de Cantarranas"/>
  <tag k="addr:housenumber" v="31"/>
  <tag k="addr:postcode" v="37340"/>
  <tag k="entrance" v="yes"/>
  <tag k="image" v="http://ovc.catastro.meh.es/OVCServWeb/OVCWcfLibres/OVCFotoFachada.svc/RecuperarFotoFachadaGet?ReferenciaCatastral=9729907TL8492N"/>
</node>
<node id="-155" action="modify" visible="true" lon="-5.50146704556759" lat="41.008494150927454">
  <tag k="addr:street" v="Calle de la Fuente"/>
  <tag k="addr:housenumber" v="12"/>
  <tag k="addr:postcode" v="37340"/>
  <tag k="entrance" v="yes"/>
  <tag k="image" v="http://ovc.catastro.meh.es/OVCServWeb/OVCWcfLibres/OVCFotoFachada.svc/RecuperarFotoFachadaGet?ReferenciaCatastral=9729932TL8492N"/>
</node>
<node id="-241" action="modify" visible="true" lon="-5.496274517892538" lat="41.00620883854342">
  <tag k="addr:street" v="Calle del Prado"/>
  <tag k="addr:housenumber" v="47"/>
  <tag k="addr:postcode" v="37340"/>
  <tag k="entrance" v="yes"/>
  <tag k="image" v="http://ovc.catastro.meh.es/OVCServWeb/OVCWcfLibres/OVCFotoFachada.svc/RecuperarFotoFachadaGet?ReferenciaCatastral=0126906TL9402N"/>
</node>
<node id="-20" action="modify" visible="true" lon="-5.498194152049501" lat="41.0089069802935">
  <tag k="addr:street" v="Calle del Arenal"/>
  <tag k="addr:housenumber" v="22"/>
  <tag k="addr:postcode" v="37340"/>
  <tag k="entrance" v="yes"/>
  <tag k="image" v="http://ovc.catastro.meh.es/OVCServWeb/OVCWcfLibres/OVCFotoFachada.svc/RecuperarFotoFachadaGet?ReferenciaCatastral=0029126TL9402N"/>
</node>
<node id="-38" action="modify" visible="true" lon="-5.498873744107976" lat="41.00847160248053">
  <tag k="addr:street" v="Calle del Arenal"/>
  <tag k="addr:housenumber" v="7"/>
  <tag k="addr:postcode" v="37340"/>
  <tag k="image" v="http://ovc.catastro.meh.es/OVCServWeb/OVCWcfLibres/OVCFotoFachada.svc/RecuperarFotoFachadaGet?ReferenciaCatastral=9929107TL8492N"/>
</node>
<node id="-56" action="modify" visible="true" lon="-5.496780800162021" lat="41.00825021396443">
  <tag k="addr:street" v="Calle de Torrubio"/>
  <tag k="addr:housenumber" v="31"/>
  <tag k="addr:postcode" v="37340"/>
  <tag k="image" v="http://ovc.catastro.meh.es/OVCServWeb/OVCWcfLibres/OVCFotoFachada.svc/RecuperarFotoFachadaGet?ReferenciaCatastral=0028506TL9402N"/>
</node>
<node id="-74" action="modify" visible="true" lon="-5.497473753581717" lat="41.00709675118658">
  <tag k="addr:street" v="Calle de las Huertas"/>
  <tag k="addr:housenumber" v="1"/>
  <tag k="addr:postcode" v="37340"/>
  <tag k="entrance" v="yes"/>
  <tag k="image" v="http://ovc.catastro.meh.es/OVCServWeb/OVCWcfLibres/OVCFotoFachada.svc/RecuperarFotoFachadaGet?ReferenciaCatastral=0027905TL9402N"/>
</node>
<node id="-92" action="modify" visible="true" lon="-5.49751470922129" lat="41.0063112516612">
  <tag k="addr:street" v="Calle de las Huertas"/>
  <tag k="addr:housenumber" v="40"/>
  <tag k="addr:postcode" v="37340"/>
  <tag k="entrance" v="yes"/>
  <tag k="image" v="http://ovc.catastro.meh.es/OVCServWeb/OVCWcfLibres/OVCFotoFachada.svc/RecuperarFotoFachadaGet?ReferenciaCatastral=0027603TL9402N"/>
</node>
<node id="-110" action="modify" visible="true" lon="-5.4999549357448885" lat="41.00712374945448">
  <tag k="addr:street" v="Avenida de los Labradores"/>
  <tag k="addr:housenumber" v="19"/>
  <tag k="addr:postcode" v="37340"/>
  <tag k="entrance" v="yes"/>
  <tag k="image" v="http://ovc.catastro.meh.es/OVCServWeb/OVCWcfLibres/OVCFotoFachada.svc/RecuperarFotoFachadaGet?ReferenciaCatastral=9827416TL8492N"/>
</node>
<node id="-128" action="modify" visible="true" lon="-5.50070543571203" lat="41.008629037660796">
  <tag k="addr:street" v="Calle de Cantarranas"/>
  <tag k="addr:housenumber" v="17"/>
  <tag k="addr:postcode" v="37340"/>
  <tag k="entrance" v="yes"/>
  <tag k="image" v="http://ovc.catastro.meh.es/OVCServWeb/OVCWcfLibres/OVCFotoFachada.svc/RecuperarFotoFachadaGet?ReferenciaCatastral=9729915TL8492N"/>
</node>
<node id="-146" action="modify" visible="true" lon="-5.500747727726059" lat="41.00841275558739">
  <tag k="addr:street" v="Calle de Cantarranas"/>
  <tag k="addr:housenumber" v="5"/>
  <tag k="addr:postcode" v="37340"/>
  <tag k="entrance" v="yes"/>
  <tag k="image" v="http://ovc.catastro.meh.es/OVCServWeb/OVCWcfLibres/OVCFotoFachada.svc/RecuperarFotoFachadaGet?ReferenciaCatastral=9729921TL8492N"/>
</node>
<node id="-164" action="modify" visible="true" lon="-5.50184116208143" lat="41.00825887136631">
  <tag k="addr:street" v="Calle de la Fuente"/>
  <tag k="addr:housenumber" v="5"/>
  <tag k="addr:postcode" v="37340"/>
  <tag k="image" v="http://ovc.catastro.meh.es/OVCServWeb/OVCWcfLibres/OVCFotoFachada.svc/RecuperarFotoFachadaGet?ReferenciaCatastral=9628622TL8492N"/>
</node>
<node id="-244" action="modify" visible="true" lon="-5.49614234480982" lat="41.00610438689861">
  <tag k="addr:street" v="Calle del Prado"/>
  <tag k="addr:housenumber" v="51"/>
  <tag k="addr:postcode" v="37340"/>
  <tag k="entrance" v="yes"/>
  <tag k="image" v="http://ovc.catastro.meh.es/OVCServWeb/OVCWcfLibres/OVCFotoFachada.svc/RecuperarFotoFachadaGet?ReferenciaCatastral=0126904TL9402N"/>
</node>
<node id="-400" action="modify" visible="true" lon="-5.492160980448264" lat="41.00507192643563">
  <tag k="addr:street" v="Calle R&#237;o Tormes"/>
  <tag k="addr:housenumber" v="12"/>
  <tag k="addr:postcode" v="37340"/>
  <tag k="image" v="http://ovc.catastro.meh.es/OVCServWeb/OVCWcfLibres/OVCFotoFachada.svc/RecuperarFotoFachadaGet?ReferenciaCatastral=0525106TL9402N"/>
</node>
<node id="-443" action="modify" visible="true" lon="-5.503806296593715" lat="41.00912930266579">
  <tag k="addr:street" v="Plaza de la Fuente"/>
  <tag k="addr:housenumber" v="5D"/>
  <tag k="addr:postcode" v="37340"/>
  <tag k="image" v="http://ovc.catastro.meh.es/OVCServWeb/OVCWcfLibres/OVCFotoFachada.svc/RecuperarFotoFachadaGet?ReferenciaCatastral=9529917TL8492N"/>
</node>
<node id="-206" action="modify" visible="true" lon="-5.499368990835507" lat="41.007361774476635">
  <tag k="addr:street" v="Plaza del Hospital"/>
  <tag k="addr:housenumber" v="4T"/>
  <tag k="addr:postcode" v="37340"/>
  <tag k="entrance" v="yes"/>
  <tag k="image" v="http://ovc.catastro.meh.es/OVCServWeb/OVCWcfLibres/OVCFotoFachada.svc/RecuperarFotoFachadaGet?ReferenciaCatastral=9827401TL8492N"/>
</node>
<node id="-275" action="modify" visible="true" lon="-5.497950964270239" lat="41.00676435061949">
  <tag k="addr:street" v="Traves&#237;a del Tejar"/>
  <tag k="addr:housenumber" v="6"/>
  <tag k="addr:postcode" v="37340"/>
  <tag k="entrance" v="yes"/>
  <tag k="image" v="http://ovc.catastro.meh.es/OVCServWeb/OVCWcfLibres/OVCFotoFachada.svc/RecuperarFotoFachadaGet?ReferenciaCatastral=0027639TL9402N"/>
</node>
<node id="-311" action="modify" visible="true" lon="-5.526248116005827" lat="40.978131344933644">
  <tag k="addr:place" v="Caser&#237;o Islas Caballo"/>
  <tag k="addr:housenumber" v="36"/>
  <tag k="addr:postcode" v="37340"/>
  <tag k="image" v="http://ovc.catastro.meh.es/OVCServWeb/OVCWcfLibres/OVCFotoFachada.svc/RecuperarFotoFachadaGet?ReferenciaCatastral=000300100TL83H"/>
</node>
<node id="-302" action="modify" visible="true" lon="-5.525791235613153" lat="40.978504413000486">
  <tag k="addr:place" v="Caser&#237;o Islas Caballo"/>
  <tag k="addr:housenumber" v="16D"/>
  <tag k="addr:postcode" v="37340"/>
  <tag k="image" v="http://ovc.catastro.meh.es/OVCServWeb/OVCWcfLibres/OVCFotoFachada.svc/RecuperarFotoFachadaGet?ReferenciaCatastral=000303200TL83H"/>
</node>
<node id="-186" action="modify" visible="true" lon="-5.502210861962614" lat="41.00814476334263">
  <tag k="addr:street" v="Calle de Arriba"/>
  <tag k="addr:housenumber" v="7"/>
  <tag k="addr:postcode" v="37340"/>
  <tag k="entrance" v="yes"/>
  <tag k="image" v="http://ovc.catastro.meh.es/OVCServWeb/OVCWcfLibres/OVCFotoFachada.svc/RecuperarFotoFachadaGet?ReferenciaCatastral=9628625TL8492N"/>
</node>
<node id="-187" action="modify" visible="true" lon="-5.502590948119837" lat="41.00833187606354">
  <tag k="addr:street" v="Calle de Arriba"/>
  <tag k="addr:housenumber" v="8"/>
  <tag k="addr:postcode" v="37340"/>
  <tag k="entrance" v="yes"/>
  <tag k="image" v="http://ovc.catastro.meh.es/OVCServWeb/OVCWcfLibres/OVCFotoFachada.svc/RecuperarFotoFachadaGet?ReferenciaCatastral=9529902TL8492N"/>
</node>
<node id="-258" action="modify" visible="true" lon="-5.501701096278392" lat="41.006149862229485">
  <tag k="addr:street" v="Calle de Salamanca"/>
  <tag k="addr:housenumber" v="12"/>
  <tag k="addr:postcode" v="37340"/>
  <tag k="entrance" v="yes"/>
  <tag k="image" v="http://ovc.catastro.meh.es/OVCServWeb/OVCWcfLibres/OVCFotoFachada.svc/RecuperarFotoFachadaGet?ReferenciaCatastral=9626506TL8492N"/>
</node>
<node id="-294" action="modify" visible="true" lon="-5.501277515726347" lat="41.0076405083296">
  <tag k="addr:street" v="Calle de Can&#243;nigo Bellido"/>
  <tag k="addr:housenumber" v="16"/>
  <tag k="addr:postcode" v="37340"/>
  <tag k="entrance" v="yes"/>
  <tag k="image" v="http://ovc.catastro.meh.es/OVCServWeb/OVCWcfLibres/OVCFotoFachada.svc/RecuperarFotoFachadaGet?ReferenciaCatastral=9628606TL8492N"/>
</node>
<node id="-330" action="modify" visible="true" lon="-5.4994252785436615" lat="41.00903470957302">
  <tag k="addr:street" v="Calle Comuneros de Castilla"/>
  <tag k="addr:housenumber" v="2"/>
  <tag k="addr:postcode" v="37340"/>
  <tag k="entrance" v="yes"/>
  <tag k="image" v="http://ovc.catastro.meh.es/OVCServWeb/OVCWcfLibres/OVCFotoFachada.svc/RecuperarFotoFachadaGet?ReferenciaCatastral=9929307TL8492N"/>
</node>
<node id="-348" action="modify" visible="true" lon="-5.495384514489691" lat="41.00628247859523">
  <tag k="addr:street" v="Paseo de los Jornaleros"/>
  <tag k="addr:housenumber" v="47"/>
  <tag k="addr:postcode" v="37340"/>
  <tag k="entrance" v="yes"/>
  <tag k="image" v="http://ovc.catastro.meh.es/OVCServWeb/OVCWcfLibres/OVCFotoFachada.svc/RecuperarFotoFachadaGet?ReferenciaCatastral=0227304TL9402N"/>
</node>
<node id="-366" action="modify" visible="true" lon="-5.497252738773134" lat="41.0064255423053">
  <tag k="addr:street" v="Calle de Hern&#225;n Cort&#233;s"/>
  <tag k="addr:housenumber" v="1"/>
  <tag k="addr:postcode" v="37340"/>
  <tag k="entrance" v="yes"/>
  <tag k="image" v="http://ovc.catastro.meh.es/OVCServWeb/OVCWcfLibres/OVCFotoFachada.svc/RecuperarFotoFachadaGet?ReferenciaCatastral=0026401TL9402N"/>
</node>
<node id="-384" action="modify" visible="true" lon="-5.498811652898343" lat="41.00808188242198">
  <tag k="addr:street" v="Plaza de la Villa"/>
  <tag k="addr:housenumber" v="1"/>
  <tag k="addr:postcode" v="37340"/>
  <tag k="entrance" v="yes"/>
  <tag k="image" v="http://ovc.catastro.meh.es/OVCServWeb/OVCWcfLibres/OVCFotoFachada.svc/RecuperarFotoFachadaGet?ReferenciaCatastral=9928304TL8492N"/>
</node>
<node id="-420" action="modify" visible="true" lon="-5.500705437896865" lat="41.00758587024817">
  <tag k="addr:street" v="Calle de San Pedro"/>
  <tag k="addr:housenumber" v="5"/>
  <tag k="addr:postcode" v="37340"/>
  <tag k="entrance" v="yes"/>
  <tag k="image" v="http://ovc.catastro.meh.es/OVCServWeb/OVCWcfLibres/OVCFotoFachada.svc/RecuperarFotoFachadaGet?ReferenciaCatastral=9727518TL8492N"/>
</node>
<node id="-438" action="modify" visible="true" lon="-5.50266488372434" lat="41.00892500851654">
  <tag k="addr:street" v="Plaza de la Fuente"/>
  <tag k="addr:housenumber" v="1"/>
  <tag k="addr:postcode" v="37340"/>
  <tag k="entrance" v="yes"/>
  <tag k="image" v="http://ovc.catastro.meh.es/OVCServWeb/OVCWcfLibres/OVCFotoFachada.svc/RecuperarFotoFachadaGet?ReferenciaCatastral=9629909TL8492N"/>
</node>
<node id="-157" action="modify" visible="true" lon="-5.501519012306257" lat="41.00850112183898">
  <tag k="addr:street" v="Calle de la Fuente"/>
  <tag k="addr:housenumber" v="16"/>
  <tag k="addr:postcode" v="37340"/>
  <tag k="entrance" v="yes"/>
  <tag k="image" v="http://ovc.catastro.meh.es/OVCServWeb/OVCWcfLibres/OVCFotoFachada.svc/RecuperarFotoFachadaGet?ReferenciaCatastral=9729934TL8492N"/>
</node>
<node id="-194" action="modify" visible="true" lon="-5.502795438739989" lat="41.008902909179675">
  <tag k="addr:street" v="Calle del Jard&#237;n"/>
  <tag k="addr:housenumber" v="7"/>
  <tag k="addr:postcode" v="37340"/>
  <tag k="entrance" v="yes"/>
  <tag k="image" v="http://ovc.catastro.meh.es/OVCServWeb/OVCWcfLibres/OVCFotoFachada.svc/RecuperarFotoFachadaGet?ReferenciaCatastral=9529910TL8492N"/>
</node>
<node id="-249" action="modify" visible="true" lon="-5.497188043726585" lat="41.006926310061125">
  <tag k="addr:street" v="Calle del Prado"/>
  <tag k="addr:housenumber" v="6"/>
  <tag k="addr:postcode" v="37340"/>
  <tag k="entrance" v="yes"/>
  <tag k="image" v="http://ovc.catastro.meh.es/OVCServWeb/OVCWcfLibres/OVCFotoFachada.svc/RecuperarFotoFachadaGet?ReferenciaCatastral=0027901TL9402N"/>
</node>
<node id="-267" action="modify" visible="true" lon="-5.501266229648403" lat="41.006278270539966">
  <tag k="addr:street" v="Calle de Salamanca"/>
  <tag k="addr:housenumber" v="6"/>
  <tag k="addr:postcode" v="37340"/>
  <tag k="entrance" v="yes"/>
  <tag k="image" v="http://ovc.catastro.meh.es/OVCServWeb/OVCWcfLibres/OVCFotoFachada.svc/RecuperarFotoFachadaGet?ReferenciaCatastral=9626509TL8492N"/>
</node>
<node id="-285" action="modify" visible="true" lon="-5.500789367007" lat="41.00810065932212">
  <tag k="addr:street" v="Calle Traviesa"/>
  <tag k="addr:housenumber" v="3"/>
  <tag k="addr:postcode" v="37340"/>
  <tag k="entrance" v="yes"/>
  <tag k="image" v="http://ovc.catastro.meh.es/OVCServWeb/OVCWcfLibres/OVCFotoFachada.svc/RecuperarFotoFachadaGet?ReferenciaCatastral=9728524TL8492N"/>
</node>
<node id="-321" action="modify" visible="true" lon="-5.496307197037985" lat="41.0095512072985">
  <tag k="addr:street" v="Calle constituci&#243;n"/>
  <tag k="addr:housenumber" v="9"/>
  <tag k="addr:postcode" v="37340"/>
  <tag k="entrance" v="yes"/>
  <tag k="image" v="http://ovc.catastro.meh.es/OVCServWeb/OVCWcfLibres/OVCFotoFachada.svc/RecuperarFotoFachadaGet?ReferenciaCatastral=0130101TL9403S"/>
</node>
<node id="-339" action="modify" visible="true" lon="-5.496051534582663" lat="41.00803116750764">
  <tag k="addr:street" v="Paseo de los Jornaleros"/>
  <tag k="addr:housenumber" v="2"/>
  <tag k="addr:postcode" v="37340"/>
  <tag k="entrance" v="yes"/>
  <tag k="image" v="http://ovc.catastro.meh.es/OVCServWeb/OVCWcfLibres/OVCFotoFachada.svc/RecuperarFotoFachadaGet?ReferenciaCatastral=0127320TL9402N"/>
</node>
<node id="-357" action="modify" visible="true" lon="-5.501515379161067" lat="41.0080280575003">
  <tag k="addr:street" v="Plaza Adrial"/>
  <tag k="addr:housenumber" v="5"/>
  <tag k="addr:postcode" v="37340"/>
  <tag k="entrance" v="yes"/>
  <tag k="image" v="http://ovc.catastro.meh.es/OVCServWeb/OVCWcfLibres/OVCFotoFachada.svc/RecuperarFotoFachadaGet?ReferenciaCatastral=9628617TL8492N"/>
</node>
<node id="-374" action="modify" visible="true" lon="-5.502444091250712" lat="41.00654068687127">
  <tag k="addr:street" v="Calle Camino de los Partidos"/>
  <tag k="addr:housenumber" v="20"/>
  <tag k="addr:postcode" v="37340"/>
  <tag k="entrance" v="yes"/>
  <tag k="image" v="http://ovc.catastro.meh.es/OVCServWeb/OVCWcfLibres/OVCFotoFachada.svc/RecuperarFotoFachadaGet?ReferenciaCatastral=9627801TL8492N"/>
</node>
<node id="-411" action="modify" visible="true" lon="-5.492286091745326" lat="41.00519103086952">
  <tag k="addr:street" v="Calle R&#237;o Tormes"/>
  <tag k="addr:housenumber" v="8"/>
  <tag k="addr:postcode" v="37340"/>
  <tag k="image" v="http://ovc.catastro.meh.es/OVCServWeb/OVCWcfLibres/OVCFotoFachada.svc/RecuperarFotoFachadaGet?ReferenciaCatastral=0525104TL9402N"/>
</node>
<node id="-429" action="modify" visible="true" lon="-5.497599387669178" lat="41.00598434952586">
  <tag k="addr:street" v="Calle de la Ermita"/>
  <tag k="addr:housenumber" v="1"/>
  <tag k="addr:postcode" v="37340"/>
  <tag k="entrance" v="yes"/>
  <tag k="image" v="http://ovc.catastro.meh.es/OVCServWeb/OVCWcfLibres/OVCFotoFachada.svc/RecuperarFotoFachadaGet?ReferenciaCatastral=0026103TL9402N"/>
</node>
<node id="-48" action="modify" visible="true" lon="-5.496589153613611" lat="41.00811828035595">
  <tag k="addr:street" v="Calle de Torrubio"/>
  <tag k="addr:housenumber" v="22"/>
  <tag k="addr:postcode" v="37340"/>
  <tag k="entrance" v="yes"/>
  <tag k="image" v="http://ovc.catastro.meh.es/OVCServWeb/OVCWcfLibres/OVCFotoFachada.svc/RecuperarFotoFachadaGet?ReferenciaCatastral=0127304TL9402N"/>
</node>
<node id="-66" action="modify" visible="true" lon="-5.497947456622583" lat="41.00776310296855">
  <tag k="addr:street" v="Calle de Torrubio"/>
  <tag k="addr:housenumber" v="8"/>
  <tag k="addr:postcode" v="37340"/>
  <tag k="entrance" v="yes"/>
  <tag k="image" v="http://ovc.catastro.meh.es/OVCServWeb/OVCWcfLibres/OVCFotoFachada.svc/RecuperarFotoFachadaGet?ReferenciaCatastral=0027636TL9402N"/>
</node>
<node id="-84" action="modify" visible="true" lon="-5.497593996638329" lat="41.00702514502646">
  <tag k="addr:street" v="Calle de las Huertas"/>
  <tag k="addr:housenumber" v="22"/>
  <tag k="addr:postcode" v="37340"/>
  <tag k="entrance" v="yes"/>
  <tag k="image" v="http://ovc.catastro.meh.es/OVCServWeb/OVCWcfLibres/OVCFotoFachada.svc/RecuperarFotoFachadaGet?ReferenciaCatastral=0027614TL9402N"/>
</node>
<node id="-30" action="modify" visible="true" lon="-5.497663464932036" lat="41.009286448824525">
  <tag k="addr:street" v="Calle del Arenal"/>
  <tag k="addr:housenumber" v="40"/>
  <tag k="addr:postcode" v="37340"/>
  <tag k="entrance" v="yes"/>
  <tag k="image" v="http://ovc.catastro.meh.es/OVCServWeb/OVCWcfLibres/OVCFotoFachada.svc/RecuperarFotoFachadaGet?ReferenciaCatastral=0029606TL9402N"/>
</node>
<node id="-102" action="modify" visible="true" lon="-5.500251529996684" lat="41.00729134264599">
  <tag k="addr:street" v="Avenida de los Labradores"/>
  <tag k="addr:housenumber" v="11"/>
  <tag k="addr:postcode" v="37340"/>
  <tag k="entrance" v="yes"/>
  <tag k="image" v="http://ovc.catastro.meh.es/OVCServWeb/OVCWcfLibres/OVCFotoFachada.svc/RecuperarFotoFachadaGet?ReferenciaCatastral=9827427TL8492N"/>
</node>
<node id="-120" action="modify" visible="true" lon="-5.5003637001554155" lat="41.00659818976566">
  <tag k="addr:street" v="Avenida de los Labradores"/>
  <tag k="addr:housenumber" v="37"/>
  <tag k="addr:postcode" v="37340"/>
  <tag k="entrance" v="yes"/>
  <tag k="image" v="http://ovc.catastro.meh.es/OVCServWeb/OVCWcfLibres/OVCFotoFachada.svc/RecuperarFotoFachadaGet?ReferenciaCatastral=9827425TL8492N"/>
</node>
<node id="-138" action="modify" visible="true" lon="-5.499139447615893" lat="41.00872404623156">
  <tag k="addr:street" v="Calle de Cantarranas"/>
  <tag k="addr:housenumber" v="32"/>
  <tag k="addr:postcode" v="37340"/>
  <tag k="entrance" v="yes"/>
  <tag k="image" v="http://ovc.catastro.meh.es/OVCServWeb/OVCWcfLibres/OVCFotoFachada.svc/RecuperarFotoFachadaGet?ReferenciaCatastral=9929108TL8492N"/>
</node>
<node id="-156" action="modify" visible="true" lon="-5.5014540523886755" lat="41.008530008098944">
  <tag k="addr:street" v="Calle de la Fuente"/>
  <tag k="addr:housenumber" v="14"/>
  <tag k="addr:postcode" v="37340"/>
  <tag k="entrance" v="yes"/>
  <tag k="image" v="http://ovc.catastro.meh.es/OVCServWeb/OVCWcfLibres/OVCFotoFachada.svc/RecuperarFotoFachadaGet?ReferenciaCatastral=9729933TL8492N"/>
</node>
<node id="-174" action="modify" visible="true" lon="-5.502281236920382" lat="41.0062202296976">
  <tag k="addr:street" v="Calle de Benito Herreros"/>
  <tag k="addr:housenumber" v="30"/>
  <tag k="addr:postcode" v="37340"/>
  <tag k="image" v="http://ovc.catastro.meh.es/OVCServWeb/OVCWcfLibres/OVCFotoFachada.svc/RecuperarFotoFachadaGet?ReferenciaCatastral=9727016TL8492N"/>
</node>
<node id="-396" action="modify" visible="true" lon="-5.4969630073155376" lat="41.009608911940056">
  <tag k="addr:street" v="Calle Cantera"/>
  <tag k="addr:housenumber" v="4"/>
  <tag k="addr:postcode" v="37340"/>
  <tag k="entrance" v="yes"/>
  <tag k="image" v="http://ovc.catastro.meh.es/OVCServWeb/OVCWcfLibres/OVCFotoFachada.svc/RecuperarFotoFachadaGet?ReferenciaCatastral=0130206TL9403S"/>
</node>
<node id="-57" action="modify" visible="true" lon="-5.496528503358383" lat="41.0081834994504">
  <tag k="addr:street" v="Calle de Torrubio"/>
  <tag k="addr:housenumber" v="35"/>
  <tag k="addr:postcode" v="37340"/>
  <tag k="entrance" v="yes"/>
  <tag k="image" v="http://ovc.catastro.meh.es/OVCServWeb/OVCWcfLibres/OVCFotoFachada.svc/RecuperarFotoFachadaGet?ReferenciaCatastral=0028501TL9402N"/>
</node>
<node id="-75" action="modify" visible="true" lon="-5.497660490501628" lat="41.00748088734799">
  <tag k="addr:street" v="Calle de las Huertas"/>
  <tag k="addr:housenumber" v="10"/>
  <tag k="addr:postcode" v="37340"/>
  <tag k="entrance" v="yes"/>
  <tag k="image" v="http://ovc.catastro.meh.es/OVCServWeb/OVCWcfLibres/OVCFotoFachada.svc/RecuperarFotoFachadaGet?ReferenciaCatastral=0027620TL9402N"/>
</node>
<node id="-21" action="modify" visible="true" lon="-5.498114226593031" lat="41.00912347152182">
  <tag k="addr:street" v="Calle del Arenal"/>
  <tag k="addr:housenumber" v="23"/>
  <tag k="addr:postcode" v="37340"/>
  <tag k="entrance" v="yes"/>
  <tag k="image" v="http://ovc.catastro.meh.es/OVCServWeb/OVCWcfLibres/OVCFotoFachada.svc/RecuperarFotoFachadaGet?ReferenciaCatastral=0030119TL9403S"/>
</node>
<node id="-39" action="modify" visible="true" lon="-5.498731702880935" lat="41.00858405083319">
  <tag k="addr:street" v="Calle del Arenal"/>
  <tag k="addr:housenumber" v="9"/>
  <tag k="addr:postcode" v="37340"/>
  <tag k="entrance" v="yes"/>
  <tag k="image" v="http://ovc.catastro.meh.es/OVCServWeb/OVCWcfLibres/OVCFotoFachada.svc/RecuperarFotoFachadaGet?ReferenciaCatastral=9929125TL8492N"/>
</node>
<node id="-93" action="modify" visible="true" lon="-5.497505753980156" lat="41.0062425870193">
  <tag k="addr:street" v="Calle de las Huertas"/>
  <tag k="addr:housenumber" v="42"/>
  <tag k="addr:postcode" v="37340"/>
  <tag k="entrance" v="yes"/>
  <tag k="image" v="http://ovc.catastro.meh.es/OVCServWeb/OVCWcfLibres/OVCFotoFachada.svc/RecuperarFotoFachadaGet?ReferenciaCatastral=0027602TL9402N"/>
</node>
<node id="-111" action="modify" visible="true" lon="-5.4999519317985905" lat="41.007627411129086">
  <tag k="addr:street" v="Avenida de los Labradores"/>
  <tag k="addr:housenumber" v="2"/>
  <tag k="addr:postcode" v="37340"/>
  <tag k="entrance" v="yes"/>
  <tag k="image" v="http://ovc.catastro.meh.es/OVCServWeb/OVCWcfLibres/OVCFotoFachada.svc/RecuperarFotoFachadaGet?ReferenciaCatastral=9828802TL8492N"/>
</node>
<node id="-129" action="modify" visible="true" lon="-5.5007316220127755" lat="41.00866155068321">
  <tag k="addr:street" v="Calle de Cantarranas"/>
  <tag k="addr:housenumber" v="17D"/>
  <tag k="addr:postcode" v="37340"/>
  <tag k="entrance" v="yes"/>
  <tag k="image" v="http://ovc.catastro.meh.es/OVCServWeb/OVCWcfLibres/OVCFotoFachada.svc/RecuperarFotoFachadaGet?ReferenciaCatastral=9729916TL8492N"/>
</node>
<node id="-147" action="modify" visible="true" lon="-5.499089259270208" lat="41.00882642682025">
  <tag k="addr:street" v="Calle de Cantarranas"/>
  <tag k="addr:housenumber" v="51"/>
  <tag k="addr:postcode" v="37340"/>
  <tag k="entrance" v="yes"/>
  <tag k="image" v="http://ovc.catastro.meh.es/OVCServWeb/OVCWcfLibres/OVCFotoFachada.svc/RecuperarFotoFachadaGet?ReferenciaCatastral=9929305TL8492N"/>
</node>
<node id="-165" action="modify" visible="true" lon="-5.5016583461038655" lat="41.008334930388834">
  <tag k="addr:street" v="Calle de la Fuente"/>
  <tag k="addr:housenumber" v="6"/>
  <tag k="addr:postcode" v="37340"/>
  <tag k="entrance" v="yes"/>
  <tag k="image" v="http://ovc.catastro.meh.es/OVCServWeb/OVCWcfLibres/OVCFotoFachada.svc/RecuperarFotoFachadaGet?ReferenciaCatastral=9729929TL8492N"/>
</node>
<node id="-243" action="modify" visible="true" lon="-5.497145878366496" lat="41.007281998855525">
  <tag k="addr:street" v="Calle del Prado"/>
  <tag k="addr:housenumber" v="5"/>
  <tag k="addr:postcode" v="37340"/>
  <tag k="image" v="http://ovc.catastro.meh.es/OVCServWeb/OVCWcfLibres/OVCFotoFachada.svc/RecuperarFotoFachadaGet?ReferenciaCatastral=0127312TL9402N"/>
</node>
<node id="-398" action="modify" visible="true" lon="-5.492223536039927" lat="41.005131478671466">
  <tag k="addr:street" v="Calle R&#237;o Tormes"/>
  <tag k="addr:housenumber" v="10"/>
  <tag k="addr:postcode" v="37340"/>
  <tag k="image" v="http://ovc.catastro.meh.es/OVCServWeb/OVCWcfLibres/OVCFotoFachada.svc/RecuperarFotoFachadaGet?ReferenciaCatastral=0525105TL9402N"/>
</node>
<node id="-3" action="modify" visible="true" lon="-5.500115306712823" lat="41.00805182760625">
  <tag k="addr:street" v="Calle de las Angustias"/>
  <tag k="addr:housenumber" v="18"/>
  <tag k="addr:postcode" v="37340"/>
  <tag k="entrance" v="yes"/>
  <tag k="image" v="http://ovc.catastro.meh.es/OVCServWeb/OVCWcfLibres/OVCFotoFachada.svc/RecuperarFotoFachadaGet?ReferenciaCatastral=9728513TL8492N"/>
</node>
<node id="-4" action="modify" visible="true" lon="-5.500226741258602" lat="41.00796758855382">
  <tag k="addr:street" v="Calle de las Angustias"/>
  <tag k="addr:housenumber" v="1D"/>
  <tag k="addr:postcode" v="37340"/>
  <tag k="entrance" v="yes"/>
  <tag k="image" v="http://ovc.catastro.meh.es/OVCServWeb/OVCWcfLibres/OVCFotoFachada.svc/RecuperarFotoFachadaGet?ReferenciaCatastral=9828210TL8492N"/>
</node>
<node id="-192" action="modify" visible="true" lon="-5.502781487310666" lat="41.0085354458911">
  <tag k="addr:street" v="Calle del Jard&#237;n"/>
  <tag k="addr:housenumber" v="3"/>
  <tag k="addr:postcode" v="37340"/>
  <tag k="entrance" v="yes"/>
  <tag k="image" v="http://ovc.catastro.meh.es/OVCServWeb/OVCWcfLibres/OVCFotoFachada.svc/RecuperarFotoFachadaGet?ReferenciaCatastral=9529908TL8492N"/>
</node>
<node id="-195" action="modify" visible="true" lon="-5.494879589137717" lat="41.00586022841818">
  <tag k="addr:street" v="Calle de la Rinconada"/>
  <tag k="addr:housenumber" v="5A"/>
  <tag k="addr:postcode" v="37340"/>
  <tag k="image" v="http://ovc.catastro.meh.es/OVCServWeb/OVCWcfLibres/OVCFotoFachada.svc/RecuperarFotoFachadaGet?ReferenciaCatastral=0226806TL9402N"/>
</node>
<node id="-276" action="modify" visible="true" lon="-5.497857000589891" lat="41.006451935761945">
  <tag k="addr:street" v="Traves&#237;a del Tejar"/>
  <tag k="addr:housenumber" v="9"/>
  <tag k="addr:postcode" v="37340"/>
  <tag k="entrance" v="yes"/>
  <tag k="image" v="http://ovc.catastro.meh.es/OVCServWeb/OVCWcfLibres/OVCFotoFachada.svc/RecuperarFotoFachadaGet?ReferenciaCatastral=0027648TL9402N"/>
</node>
<node id="-312" action="modify" visible="true" lon="-5.524965854217736" lat="40.97754105788878">
  <tag k="addr:place" v="Caser&#237;o Islas Caballo"/>
  <tag k="addr:housenumber" v="39"/>
  <tag k="addr:postcode" v="37340"/>
  <tag k="image" v="http://ovc.catastro.meh.es/OVCServWeb/OVCWcfLibres/OVCFotoFachada.svc/RecuperarFotoFachadaGet?ReferenciaCatastral=000301700TL83H"/>
</node>
<node id="-376" action="modify" visible="true" lon="-5.502955557235131" lat="41.007792144303025">
  <tag k="addr:street" v="Calle Camino de los Partidos"/>
  <tag k="addr:housenumber" v="4"/>
  <tag k="addr:postcode" v="37340"/>
  <tag k="image" v="http://ovc.catastro.meh.es/OVCServWeb/OVCWcfLibres/OVCFotoFachada.svc/RecuperarFotoFachadaGet?ReferenciaCatastral=9528510TL8492N"/>
</node>
<node id="-407" action="modify" visible="true" lon="-5.49241120349733" lat="41.00531013515228">
  <tag k="addr:street" v="Calle R&#237;o Tormes"/>
  <tag k="addr:housenumber" v="4"/>
  <tag k="addr:postcode" v="37340"/>
  <tag k="image" v="http://ovc.catastro.meh.es/OVCServWeb/OVCWcfLibres/OVCFotoFachada.svc/RecuperarFotoFachadaGet?ReferenciaCatastral=0525102TL9402N"/>
</node>
<node id="-219" action="modify" visible="true" lon="-5.496558784837912" lat="41.00844697921586">
  <tag k="addr:street" v="Calle del Matadero"/>
  <tag k="addr:housenumber" v="3"/>
  <tag k="addr:postcode" v="37340"/>
  <tag k="entrance" v="yes"/>
  <tag k="image" v="http://ovc.catastro.meh.es/OVCServWeb/OVCWcfLibres/OVCFotoFachada.svc/RecuperarFotoFachadaGet?ReferenciaCatastral=0028515TL9402N"/>
</node>
<node id="-303" action="modify" visible="true" lon="-5.525466404753947" lat="40.977803310752975">
  <tag k="addr:place" v="Caser&#237;o Islas Caballo"/>
  <tag k="addr:housenumber" v="2"/>
  <tag k="addr:postcode" v="37340"/>
  <tag k="image" v="http://ovc.catastro.meh.es/OVCServWeb/OVCWcfLibres/OVCFotoFachada.svc/RecuperarFotoFachadaGet?ReferenciaCatastral=000301100TL83H"/>
</node>
<node id="-295" action="modify" visible="true" lon="-5.501126764667595" lat="41.00742105291719">
  <tag k="addr:street" v="Calle de Can&#243;nigo Bellido"/>
  <tag k="addr:housenumber" v="20"/>
  <tag k="addr:postcode" v="37340"/>
  <tag k="entrance" v="yes"/>
  <tag k="image" v="http://ovc.catastro.meh.es/OVCServWeb/OVCWcfLibres/OVCFotoFachada.svc/RecuperarFotoFachadaGet?ReferenciaCatastral=9727217TL8492N"/>
</node>
<node id="-331" action="modify" visible="true" lon="-5.499379616572627" lat="41.00913766978056">
  <tag k="addr:street" v="Calle Comuneros de Castilla"/>
  <tag k="addr:housenumber" v="3"/>
  <tag k="addr:postcode" v="37340"/>
  <tag k="entrance" v="yes"/>
  <tag k="image" v="http://ovc.catastro.meh.es/OVCServWeb/OVCWcfLibres/OVCFotoFachada.svc/RecuperarFotoFachadaGet?ReferenciaCatastral=9829502TL8492N"/>
</node>
<node id="-185" action="modify" visible="true" lon="-5.502465458917795" lat="41.00836522561749">
  <tag k="addr:street" v="Calle de Arriba"/>
  <tag k="addr:housenumber" v="6"/>
  <tag k="addr:postcode" v="37340"/>
  <tag k="entrance" v="yes"/>
  <tag k="image" v="http://ovc.catastro.meh.es/OVCServWeb/OVCWcfLibres/OVCFotoFachada.svc/RecuperarFotoFachadaGet?ReferenciaCatastral=9529901TL8492N"/>
</node>
<node id="-232" action="modify" visible="true" lon="-5.496967839037004" lat="41.00636818951019">
  <tag k="addr:street" v="Calle del Prado"/>
  <tag k="addr:housenumber" v="16"/>
  <tag k="addr:postcode" v="37340"/>
  <tag k="entrance" v="yes"/>
  <tag k="image" v="http://ovc.catastro.meh.es/OVCServWeb/OVCWcfLibres/OVCFotoFachada.svc/RecuperarFotoFachadaGet?ReferenciaCatastral=0026917TL9402N"/>
</node>
<node id="-259" action="modify" visible="true" lon="-5.5019992868786725" lat="41.00594220518833">
  <tag k="addr:street" v="Calle de Salamanca"/>
  <tag k="addr:housenumber" v="13D"/>
  <tag k="addr:postcode" v="37340"/>
  <tag k="entrance" v="yes"/>
  <tag k="image" v="http://ovc.catastro.meh.es/OVCServWeb/OVCWcfLibres/OVCFotoFachada.svc/RecuperarFotoFachadaGet?ReferenciaCatastral=9726409TL8492N"/>
</node>
<node id="-349" action="modify" visible="true" lon="-5.496288326505005" lat="41.00787925916201">
  <tag k="addr:street" v="Paseo de los Jornaleros"/>
  <tag k="addr:housenumber" v="4D"/>
  <tag k="addr:postcode" v="37340"/>
  <tag k="image" v="http://ovc.catastro.meh.es/OVCServWeb/OVCWcfLibres/OVCFotoFachada.svc/RecuperarFotoFachadaGet?ReferenciaCatastral=0127324TL9402N"/>
</node>
<node id="-367" action="modify" visible="true" lon="-5.502475124855778" lat="41.00801295696443">
  <tag k="addr:street" v="Calle Camino de los Partidos"/>
  <tag k="addr:housenumber" v="1"/>
  <tag k="addr:postcode" v="37340"/>
  <tag k="entrance" v="yes"/>
  <tag k="image" v="http://ovc.catastro.meh.es/OVCServWeb/OVCWcfLibres/OVCFotoFachada.svc/RecuperarFotoFachadaGet?ReferenciaCatastral=9628627TL8492N"/>
</node>
<node id="-385" action="modify" visible="true" lon="-5.4987011378168456" lat="41.00813859125431">
  <tag k="addr:street" v="Plaza de la Villa"/>
  <tag k="addr:housenumber" v="2"/>
  <tag k="addr:postcode" v="37340"/>
  <tag k="entrance" v="yes"/>
  <tag k="image" v="http://ovc.catastro.meh.es/OVCServWeb/OVCWcfLibres/OVCFotoFachada.svc/RecuperarFotoFachadaGet?ReferenciaCatastral=9928301TL8492N"/>
</node>
<node id="-421" action="modify" visible="true" lon="-5.50091417870493" lat="41.00760615237542">
  <tag k="addr:street" v="Calle de San Pedro"/>
  <tag k="addr:housenumber" v="6"/>
  <tag k="addr:postcode" v="37340"/>
  <tag k="entrance" v="yes"/>
  <tag k="image" v="http://ovc.catastro.meh.es/OVCServWeb/OVCWcfLibres/OVCFotoFachada.svc/RecuperarFotoFachadaGet?ReferenciaCatastral=9728904TL8492N"/>
</node>
<node id="-439" action="modify" visible="true" lon="-5.502775548845414" lat="41.00927779971165">
  <tag k="addr:street" v="Plaza de la Fuente"/>
  <tag k="addr:housenumber" v="11"/>
  <tag k="addr:postcode" v="37340"/>
  <tag k="image" v="http://ovc.catastro.meh.es/OVCServWeb/OVCWcfLibres/OVCFotoFachada.svc/RecuperarFotoFachadaGet?ReferenciaCatastral=9630103TL8493S"/>
</node>
<node id="-250" action="modify" visible="true" lon="-5.495645441630681" lat="41.0058290554631">
  <tag k="addr:street" v="Calle del Prado"/>
  <tag k="addr:housenumber" v="61"/>
  <tag k="addr:postcode" v="37340"/>
  <tag k="entrance" v="yes"/>
  <tag k="image" v="http://ovc.catastro.meh.es/OVCServWeb/OVCWcfLibres/OVCFotoFachada.svc/RecuperarFotoFachadaGet?ReferenciaCatastral=0126602TL9402N"/>
</node>
<node id="-268" action="modify" visible="true" lon="-5.501544537046872" lat="41.00607778666648">
  <tag k="addr:street" v="Calle de Salamanca"/>
  <tag k="addr:housenumber" v="7"/>
  <tag k="addr:postcode" v="37340"/>
  <tag k="entrance" v="yes"/>
  <tag k="image" v="http://ovc.catastro.meh.es/OVCServWeb/OVCWcfLibres/OVCFotoFachada.svc/RecuperarFotoFachadaGet?ReferenciaCatastral=9726403TL8492N"/>
</node>
<node id="-286" action="modify" visible="true" lon="-5.5007898203802" lat="41.0080103102011">
  <tag k="addr:street" v="Calle Traviesa"/>
  <tag k="addr:housenumber" v="4"/>
  <tag k="addr:postcode" v="37340"/>
  <tag k="entrance" v="yes"/>
  <tag k="image" v="http://ovc.catastro.meh.es/OVCServWeb/OVCWcfLibres/OVCFotoFachada.svc/RecuperarFotoFachadaGet?ReferenciaCatastral=9728912TL8492N"/>
</node>
<node id="-322" action="modify" visible="true" lon="-5.496811700757614" lat="41.00963233316461">
  <tag k="addr:street" v="Calle de Pitiegua"/>
  <tag k="addr:housenumber" v="1"/>
  <tag k="addr:postcode" v="37340"/>
  <tag k="entrance" v="yes"/>
  <tag k="image" v="http://ovc.catastro.meh.es/OVCServWeb/OVCWcfLibres/OVCFotoFachada.svc/RecuperarFotoFachadaGet?ReferenciaCatastral=0130205TL9403S"/>
</node>
<node id="-340" action="modify" visible="true" lon="-5.4958342393043464" lat="41.00652415081075">
  <tag k="addr:street" v="Paseo de los Jornaleros"/>
  <tag k="addr:housenumber" v="34"/>
  <tag k="addr:postcode" v="37340"/>
  <tag k="entrance" v="yes"/>
  <tag k="image" v="http://ovc.catastro.meh.es/OVCServWeb/OVCWcfLibres/OVCFotoFachada.svc/RecuperarFotoFachadaGet?ReferenciaCatastral=0126610TL9402N"/>
</node>
<node id="-358" action="modify" visible="true" lon="-5.501390515165575" lat="41.00814394264525">
  <tag k="addr:street" v="Plaza Adrial"/>
  <tag k="addr:housenumber" v="6"/>
  <tag k="addr:postcode" v="37340"/>
  <tag k="entrance" v="yes"/>
  <tag k="image" v="http://ovc.catastro.meh.es/OVCServWeb/OVCWcfLibres/OVCFotoFachada.svc/RecuperarFotoFachadaGet?ReferenciaCatastral=9729927TL8492N"/>
</node>
<node id="-373" action="modify" visible="true" lon="-5.502976916724738" lat="41.0078506761781">
  <tag k="addr:street" v="Calle Camino de los Partidos"/>
  <tag k="addr:housenumber" v="2"/>
  <tag k="addr:postcode" v="37340"/>
  <tag k="image" v="http://ovc.catastro.meh.es/OVCServWeb/OVCWcfLibres/OVCFotoFachada.svc/RecuperarFotoFachadaGet?ReferenciaCatastral=9528502TL8492N"/>
</node>
<node id="-412" action="modify" visible="true" lon="-5.492132173383174" lat="41.00518961852463">
  <tag k="addr:street" v="Calle R&#237;o Tormes"/>
  <tag k="addr:housenumber" v="9"/>
  <tag k="addr:postcode" v="37340"/>
  <tag k="image" v="http://ovc.catastro.meh.es/OVCServWeb/OVCWcfLibres/OVCFotoFachada.svc/RecuperarFotoFachadaGet?ReferenciaCatastral=0525205TL9402N"/>
</node>
<node id="-430" action="modify" visible="true" lon="-5.498735589547798" lat="41.00583199759872">
  <tag k="addr:street" v="Calle de la Ermita"/>
  <tag k="addr:housenumber" v="12"/>
  <tag k="addr:postcode" v="37340"/>
  <tag k="entrance" v="yes"/>
  <tag k="image" v="http://ovc.catastro.meh.es/OVCServWeb/OVCWcfLibres/OVCFotoFachada.svc/RecuperarFotoFachadaGet?ReferenciaCatastral=9926101TL8492N"/>
</node>
<node id="-229" action="modify" visible="true" lon="-5.499492151222409" lat="41.00831021888349">
  <tag k="addr:street" v="Calle del Peligro"/>
  <tag k="addr:housenumber" v="6"/>
  <tag k="addr:postcode" v="37340"/>
  <tag k="image" v="http://ovc.catastro.meh.es/OVCServWeb/OVCWcfLibres/OVCFotoFachada.svc/RecuperarFotoFachadaGet?ReferenciaCatastral=9929118TL8492N"/>
</node>
<node id="-213" action="modify" visible="true" lon="-5.497339424665358" lat="41.00995085994133">
  <tag k="addr:street" v="Calle del Matadero"/>
  <tag k="addr:housenumber" v="15"/>
  <tag k="addr:postcode" v="37340"/>
  <tag k="entrance" v="yes"/>
  <tag k="image" v="http://ovc.catastro.meh.es/OVCServWeb/OVCWcfLibres/OVCFotoFachada.svc/RecuperarFotoFachadaGet?ReferenciaCatastral=0030902TL9403S"/>
</node>
<node id="-85" action="modify" visible="true" lon="-5.497415899593963" lat="41.00611600552629">
  <tag k="addr:street" v="Calle de las Huertas"/>
  <tag k="addr:housenumber" v="23"/>
  <tag k="addr:postcode" v="37340"/>
  <tag k="entrance" v="yes"/>
  <tag k="image" v="http://ovc.catastro.meh.es/OVCServWeb/OVCWcfLibres/OVCFotoFachada.svc/RecuperarFotoFachadaGet?ReferenciaCatastral=0026913TL9402N"/>
</node>
<node id="-49" action="modify" visible="true" lon="-5.49708560681528" lat="41.00810789599962">
  <tag k="addr:street" v="Calle de Torrubio"/>
  <tag k="addr:housenumber" v="23"/>
  <tag k="addr:postcode" v="37340"/>
  <tag k="entrance" v="yes"/>
  <tag k="image" v="http://ovc.catastro.meh.es/OVCServWeb/OVCWcfLibres/OVCFotoFachada.svc/RecuperarFotoFachadaGet?ReferenciaCatastral=0028512TL9402N"/>
</node>
<node id="-67" action="modify" visible="true" lon="-5.49786372483585" lat="41.00795360403088">
  <tag k="addr:street" v="Calle de Torrubio"/>
  <tag k="addr:housenumber" v="9"/>
  <tag k="addr:postcode" v="37340"/>
  <tag k="entrance" v="yes"/>
  <tag k="image" v="http://ovc.catastro.meh.es/OVCServWeb/OVCWcfLibres/OVCFotoFachada.svc/RecuperarFotoFachadaGet?ReferenciaCatastral=0029145TL9402N"/>
</node>
<node id="-13" action="modify" visible="true" lon="-5.499971684018183" lat="41.00804288406914">
  <tag k="addr:street" v="Calle de las Angustias"/>
  <tag k="addr:housenumber" v="6"/>
  <tag k="addr:postcode" v="37340"/>
  <tag k="entrance" v="yes"/>
  <tag k="image" v="http://ovc.catastro.meh.es/OVCServWeb/OVCWcfLibres/OVCFotoFachada.svc/RecuperarFotoFachadaGet?ReferenciaCatastral=9728504TL8492N"/>
</node>
<node id="-31" action="modify" visible="true" lon="-5.4975083780769936" lat="41.00953196622701">
  <tag k="addr:street" v="Calle del Arenal"/>
  <tag k="addr:housenumber" v="41"/>
  <tag k="addr:postcode" v="37340"/>
  <tag k="entrance" v="yes"/>
  <tag k="image" v="http://ovc.catastro.meh.es/OVCServWeb/OVCWcfLibres/OVCFotoFachada.svc/RecuperarFotoFachadaGet?ReferenciaCatastral=0030102TL9403S"/>
</node>
<node id="-103" action="modify" visible="true" lon="-5.500478000337379" lat="41.007202518742865">
  <tag k="addr:street" v="Avenida de los Labradores"/>
  <tag k="addr:housenumber" v="12"/>
  <tag k="addr:postcode" v="37340"/>
  <tag k="entrance" v="yes"/>
  <tag k="image" v="http://ovc.catastro.meh.es/OVCServWeb/OVCWcfLibres/OVCFotoFachada.svc/RecuperarFotoFachadaGet?ReferenciaCatastral=9727503TL8492N"/>
</node>
<node id="-121" action="modify" visible="true" lon="-5.5003058544082615" lat="41.00645637074566">
  <tag k="addr:street" v="Avenida de los Labradores"/>
  <tag k="addr:housenumber" v="39"/>
  <tag k="addr:postcode" v="37340"/>
  <tag k="entrance" v="yes"/>
  <tag k="image" v="http://ovc.catastro.meh.es/OVCServWeb/OVCWcfLibres/OVCFotoFachada.svc/RecuperarFotoFachadaGet?ReferenciaCatastral=9827426TL8492N"/>
</node>
<node id="-139" action="modify" visible="true" lon="-5.500218928323986" lat="41.00858804903479">
  <tag k="addr:street" v="Calle de Cantarranas"/>
  <tag k="addr:housenumber" v="33"/>
  <tag k="addr:postcode" v="37340"/>
  <tag k="entrance" v="yes"/>
  <tag k="image" v="http://ovc.catastro.meh.es/OVCServWeb/OVCWcfLibres/OVCFotoFachada.svc/RecuperarFotoFachadaGet?ReferenciaCatastral=9729906TL8492N"/>
</node>
<node id="-427" action="modify" visible="true" lon="-5.492138022783193" lat="41.00470595069524">
  <tag k="addr:street" v="Calle R&#237;o Almar"/>
  <tag k="addr:housenumber" v="20"/>
  <tag k="addr:postcode" v="37340"/>
  <tag k="entrance" v="yes"/>
  <tag k="image" v="http://ovc.catastro.meh.es/OVCServWeb/OVCWcfLibres/OVCFotoFachada.svc/RecuperarFotoFachadaGet?ReferenciaCatastral=0525121TL9402N"/>
</node>
<node id="-242" action="modify" visible="true" lon="-5.496206499316351" lat="41.006155055423896">
  <tag k="addr:street" v="Calle del Prado"/>
  <tag k="addr:housenumber" v="49"/>
  <tag k="addr:postcode" v="37340"/>
  <tag k="entrance" v="yes"/>
  <tag k="image" v="http://ovc.catastro.meh.es/OVCServWeb/OVCWcfLibres/OVCFotoFachada.svc/RecuperarFotoFachadaGet?ReferenciaCatastral=0126905TL9402N"/>
</node>
<node id="-58" action="modify" visible="true" lon="-5.493727358218796" lat="41.00773287848743">
  <tag k="addr:street" v="Calle de Torrubio"/>
  <tag k="addr:housenumber" v="36"/>
  <tag k="addr:postcode" v="37340"/>
  <tag k="image" v="http://ovc.catastro.meh.es/OVCServWeb/OVCWcfLibres/OVCFotoFachada.svc/RecuperarFotoFachadaGet?ReferenciaCatastral=37020A50700001"/>
</node>
<node id="-22" action="modify" visible="true" lon="-5.498150016870313" lat="41.008958348592344">
  <tag k="addr:street" v="Calle del Arenal"/>
  <tag k="addr:housenumber" v="24"/>
  <tag k="addr:postcode" v="37340"/>
  <tag k="entrance" v="yes"/>
  <tag k="image" v="http://ovc.catastro.meh.es/OVCServWeb/OVCWcfLibres/OVCFotoFachada.svc/RecuperarFotoFachadaGet?ReferenciaCatastral=0029125TL9402N"/>
</node>
<node id="-40" action="modify" visible="true" lon="-5.498252444365509" lat="41.007906452684836">
  <tag k="addr:street" v="Calle de Torrubio"/>
  <tag k="addr:housenumber" v="1"/>
  <tag k="addr:postcode" v="37340"/>
  <tag k="entrance" v="yes"/>
  <tag k="image" v="http://ovc.catastro.meh.es/OVCServWeb/OVCWcfLibres/OVCFotoFachada.svc/RecuperarFotoFachadaGet?ReferenciaCatastral=0029140TL9402N"/>
</node>
<node id="-76" action="modify" visible="true" lon="-5.497653372747124" lat="41.007423006181114">
  <tag k="addr:street" v="Calle de las Huertas"/>
  <tag k="addr:housenumber" v="12"/>
  <tag k="addr:postcode" v="37340"/>
  <tag k="entrance" v="yes"/>
  <tag k="image" v="http://ovc.catastro.meh.es/OVCServWeb/OVCWcfLibres/OVCFotoFachada.svc/RecuperarFotoFachadaGet?ReferenciaCatastral=0027619TL9402N"/>
</node>
<node id="-94" action="modify" visible="true" lon="-5.497460585490978" lat="41.00592205962749">
  <tag k="addr:street" v="Calle de las Huertas"/>
  <tag k="addr:housenumber" v="46"/>
  <tag k="addr:postcode" v="37340"/>
  <tag k="entrance" v="yes"/>
  <tag k="image" v="http://ovc.catastro.meh.es/OVCServWeb/OVCWcfLibres/OVCFotoFachada.svc/RecuperarFotoFachadaGet?ReferenciaCatastral=0026102TL9402N"/>
</node>
<node id="-112" action="modify" visible="true" lon="-5.5004746038462935" lat="41.006233465778436">
  <tag k="addr:street" v="Avenida de los Labradores"/>
  <tag k="addr:housenumber" v="20"/>
  <tag k="addr:postcode" v="37340"/>
  <tag k="entrance" v="yes"/>
  <tag k="image" v="http://ovc.catastro.meh.es/OVCServWeb/OVCWcfLibres/OVCFotoFachada.svc/RecuperarFotoFachadaGet?ReferenciaCatastral=9726601TL8492N"/>
</node>
<node id="-130" action="modify" visible="true" lon="-5.500018651449935" lat="41.00852860762296">
  <tag k="addr:street" v="Calle de Cantarranas"/>
  <tag k="addr:housenumber" v="18"/>
  <tag k="addr:postcode" v="37340"/>
  <tag k="entrance" v="yes"/>
  <tag k="image" v="http://ovc.catastro.meh.es/OVCServWeb/OVCWcfLibres/OVCFotoFachada.svc/RecuperarFotoFachadaGet?ReferenciaCatastral=9728516TL8492N"/>
</node>
<node id="-148" action="modify" visible="true" lon="-5.499004264863849" lat="41.00885674403805">
  <tag k="addr:street" v="Calle de Cantarranas"/>
  <tag k="addr:housenumber" v="53"/>
  <tag k="addr:postcode" v="37340"/>
  <tag k="image" v="http://ovc.catastro.meh.es/OVCServWeb/OVCWcfLibres/OVCFotoFachada.svc/RecuperarFotoFachadaGet?ReferenciaCatastral=9929306TL8492N"/>
</node>
<node id="-166" action="modify" visible="true" lon="-5.501603379824969" lat="41.0084226865193">
  <tag k="addr:street" v="Calle de la Fuente"/>
  <tag k="addr:housenumber" v="8"/>
  <tag k="addr:postcode" v="37340"/>
  <tag k="entrance" v="yes"/>
  <tag k="image" v="http://ovc.catastro.meh.es/OVCServWeb/OVCWcfLibres/OVCFotoFachada.svc/RecuperarFotoFachadaGet?ReferenciaCatastral=9729930TL8492N"/>
</node>
<node id="-8" action="modify" visible="true" lon="-5.500473030336553" lat="41.007965001031636">
  <tag k="addr:street" v="Calle de las Angustias"/>
  <tag k="addr:housenumber" v="24"/>
  <tag k="addr:postcode" v="37340"/>
  <tag k="entrance" v="yes"/>
  <tag k="image" v="http://ovc.catastro.meh.es/OVCServWeb/OVCWcfLibres/OVCFotoFachada.svc/RecuperarFotoFachadaGet?ReferenciaCatastral=9728530TL8492N"/>
</node>
<node id="-234" action="modify" visible="true" lon="-5.496953824084398" lat="41.00617019819563">
  <tag k="addr:street" v="Calle del Prado"/>
  <tag k="addr:housenumber" v="20"/>
  <tag k="addr:postcode" v="37340"/>
  <tag k="entrance" v="yes"/>
  <tag k="image" v="http://ovc.catastro.meh.es/OVCServWeb/OVCWcfLibres/OVCFotoFachada.svc/RecuperarFotoFachadaGet?ReferenciaCatastral=0026918TL9402N"/>
</node>
<node id="-205" action="modify" visible="true" lon="-5.499328019301843" lat="41.00745996700444">
  <tag k="addr:street" v="Plaza del Hospital"/>
  <tag k="addr:housenumber" v="4D"/>
  <tag k="addr:postcode" v="37340"/>
  <tag k="entrance" v="yes"/>
  <tag k="image" v="http://ovc.catastro.meh.es/OVCServWeb/OVCWcfLibres/OVCFotoFachada.svc/RecuperarFotoFachadaGet?ReferenciaCatastral=9827402TL8492N"/>
</node>
<node id="-277" action="modify" visible="true" lon="-5.497243331618165" lat="41.008232501881">
  <tag k="addr:street" v="Calle del Tentetieso"/>
  <tag k="addr:housenumber" v="1"/>
  <tag k="addr:postcode" v="37340"/>
  <tag k="entrance" v="yes"/>
  <tag k="image" v="http://ovc.catastro.meh.es/OVCServWeb/OVCWcfLibres/OVCFotoFachada.svc/RecuperarFotoFachadaGet?ReferenciaCatastral=0029101TL9402N"/>
</node>
<node id="-313" action="modify" visible="true" lon="-5.524746742345356" lat="40.977351012756046">
  <tag k="addr:place" v="Caser&#237;o Islas Caballo"/>
  <tag k="addr:housenumber" v="41"/>
  <tag k="addr:postcode" v="37340"/>
  <tag k="entrance" v="yes"/>
  <tag k="image" v="http://ovc.catastro.meh.es/OVCServWeb/OVCWcfLibres/OVCFotoFachada.svc/RecuperarFotoFachadaGet?ReferenciaCatastral=000301800TL83H"/>
</node>
<node id="-405" action="modify" visible="true" lon="-5.492489278921363" lat="41.00536138075088">
  <tag k="addr:street" v="Calle R&#237;o Tormes"/>
  <tag k="addr:housenumber" v="2"/>
  <tag k="addr:postcode" v="37340"/>
  <tag k="entrance" v="yes"/>
  <tag k="image" v="http://ovc.catastro.meh.es/OVCServWeb/OVCWcfLibres/OVCFotoFachada.svc/RecuperarFotoFachadaGet?ReferenciaCatastral=0525101TL9402N"/>
</node>
<node id="-189" action="modify" visible="true" lon="-5.497179901312074" lat="41.005551286533496">
  <tag k="addr:street" v="Calle Vista Hermosa"/>
  <tag k="addr:housenumber" v="3"/>
  <tag k="addr:postcode" v="37340"/>
  <tag k="entrance" v="yes"/>
  <tag k="image" v="http://ovc.catastro.meh.es/OVCServWeb/OVCWcfLibres/OVCFotoFachada.svc/RecuperarFotoFachadaGet?ReferenciaCatastral=0026903TL9402N"/>
</node>
<node id="-216" action="modify" visible="true" lon="-5.497052588961638" lat="41.00945198445261">
  <tag k="addr:street" v="Calle del Matadero"/>
  <tag k="addr:housenumber" v="24"/>
  <tag k="addr:postcode" v="37340"/>
  <tag k="image" v="http://ovc.catastro.meh.es/OVCServWeb/OVCWcfLibres/OVCFotoFachada.svc/RecuperarFotoFachadaGet?ReferenciaCatastral=0129307TL9402N"/>
</node>
<node id="-225" action="modify" visible="true" lon="-5.499541779182787" lat="41.0080887476713">
  <tag k="addr:street" v="Calle del Peligro"/>
  <tag k="addr:housenumber" v="2"/>
  <tag k="addr:postcode" v="37340"/>
  <tag k="entrance" v="yes"/>
  <tag k="image" v="http://ovc.catastro.meh.es/OVCServWeb/OVCWcfLibres/OVCFotoFachada.svc/RecuperarFotoFachadaGet?ReferenciaCatastral=9929117TL8492N"/>
</node>
<node id="-226" action="modify" visible="true" lon="-5.499721324555375" lat="41.00820760876433">
  <tag k="addr:street" v="Calle del Peligro"/>
  <tag k="addr:housenumber" v="3"/>
  <tag k="addr:postcode" v="37340"/>
  <tag k="entrance" v="yes"/>
  <tag k="image" v="http://ovc.catastro.meh.es/OVCServWeb/OVCWcfLibres/OVCFotoFachada.svc/RecuperarFotoFachadaGet?ReferenciaCatastral=9728508TL8492N"/>
</node>
<node id="-304" action="modify" visible="true" lon="-5.524265333084997" lat="40.97904025409669">
  <tag k="addr:place" v="Caser&#237;o Islas Caballo"/>
  <tag k="addr:housenumber" v="27"/>
  <tag k="addr:postcode" v="37340"/>
  <tag k="image" v="http://ovc.catastro.meh.es/OVCServWeb/OVCWcfLibres/OVCFotoFachada.svc/RecuperarFotoFachadaGet?ReferenciaCatastral=000300700TL83H"/>
</node>
<node id="-296" action="modify" visible="true" lon="-5.500972256169069" lat="41.00726168420144">
  <tag k="addr:street" v="Calle de Can&#243;nigo Bellido"/>
  <tag k="addr:housenumber" v="22"/>
  <tag k="addr:postcode" v="37340"/>
  <tag k="entrance" v="yes"/>
  <tag k="image" v="http://ovc.catastro.meh.es/OVCServWeb/OVCWcfLibres/OVCFotoFachada.svc/RecuperarFotoFachadaGet?ReferenciaCatastral=9727228TL8492N"/>
</node>
<node id="-184" action="modify" visible="true" lon="-5.502072055297184" lat="41.00837588764669">
  <tag k="addr:street" v="Calle de Arriba"/>
  <tag k="addr:housenumber" v="4"/>
  <tag k="addr:postcode" v="37340"/>
  <tag k="entrance" v="yes"/>
  <tag k="image" v="http://ovc.catastro.meh.es/OVCServWeb/OVCWcfLibres/OVCFotoFachada.svc/RecuperarFotoFachadaGet?ReferenciaCatastral=9629902TL8492N"/>
</node>
<node id="-197" action="modify" visible="true" lon="-5.499961322315172" lat="41.00789594710043">
  <tag k="addr:street" v="Plaza del Hospital"/>
  <tag k="addr:housenumber" v="12"/>
  <tag k="addr:postcode" v="37340"/>
  <tag k="image" v="http://ovc.catastro.meh.es/OVCServWeb/OVCWcfLibres/OVCFotoFachada.svc/RecuperarFotoFachadaGet?ReferenciaCatastral=9828207TL8492N"/>
</node>
<node id="-332" action="modify" visible="true" lon="-5.499361834589728" lat="41.00905994000827">
  <tag k="addr:street" v="Calle Comuneros de Castilla"/>
  <tag k="addr:housenumber" v="4"/>
  <tag k="addr:postcode" v="37340"/>
  <tag k="image" v="http://ovc.catastro.meh.es/OVCServWeb/OVCWcfLibres/OVCFotoFachada.svc/RecuperarFotoFachadaGet?ReferenciaCatastral=9929308TL8492N"/>
</node>
<node id="-260" action="modify" visible="true" lon="-5.501853830840675" lat="41.00611122813008">
  <tag k="addr:street" v="Calle de Salamanca"/>
  <tag k="addr:housenumber" v="14A"/>
  <tag k="addr:postcode" v="37340"/>
  <tag k="image" v="http://ovc.catastro.meh.es/OVCServWeb/OVCWcfLibres/OVCFotoFachada.svc/RecuperarFotoFachadaGet?ReferenciaCatastral=9626507TL8492N"/>
</node>
<node id="-278" action="modify" visible="true" lon="-5.49756546451128" lat="41.008408210944104">
  <tag k="addr:street" v="Calle del Tentetieso"/>
  <tag k="addr:housenumber" v="7Z"/>
  <tag k="addr:postcode" v="37340"/>
  <tag k="image" v="http://ovc.catastro.meh.es/OVCServWeb/OVCWcfLibres/OVCFotoFachada.svc/RecuperarFotoFachadaGet?ReferenciaCatastral=0029148TL9402N"/>
</node>
<node id="-350" action="modify" visible="true" lon="-5.4951588073731985" lat="41.00580375157022">
  <tag k="addr:street" v="Paseo de los Jornaleros"/>
  <tag k="addr:housenumber" v="53"/>
  <tag k="addr:postcode" v="37340"/>
  <tag k="entrance" v="yes"/>
  <tag k="image" v="http://ovc.catastro.meh.es/OVCServWeb/OVCWcfLibres/OVCFotoFachada.svc/RecuperarFotoFachadaGet?ReferenciaCatastral=0226804TL9402N"/>
</node>
<node id="-368" action="modify" visible="true" lon="-5.502520485128579" lat="41.00771462027692">
  <tag k="addr:street" v="Calle Camino de los Partidos"/>
  <tag k="addr:housenumber" v="10"/>
  <tag k="addr:postcode" v="37340"/>
  <tag k="image" v="http://ovc.catastro.meh.es/OVCServWeb/OVCWcfLibres/OVCFotoFachada.svc/RecuperarFotoFachadaGet?ReferenciaCatastral=9528507TL8492N"/>
</node>
<node id="-386" action="modify" visible="true" lon="-5.498521314753713" lat="41.008119765708976">
  <tag k="addr:street" v="Plaza de la Villa"/>
  <tag k="addr:housenumber" v="3"/>
  <tag k="addr:postcode" v="37340"/>
  <tag k="entrance" v="yes"/>
  <tag k="image" v="http://ovc.catastro.meh.es/OVCServWeb/OVCWcfLibres/OVCFotoFachada.svc/RecuperarFotoFachadaGet?ReferenciaCatastral=0029137TL9402N"/>
</node>
<node id="-422" action="modify" visible="true" lon="-5.500754364180207" lat="41.0075695329358">
  <tag k="addr:street" v="Calle de San Pedro"/>
  <tag k="addr:housenumber" v="7"/>
  <tag k="addr:postcode" v="37340"/>
  <tag k="entrance" v="yes"/>
  <tag k="image" v="http://ovc.catastro.meh.es/OVCServWeb/OVCWcfLibres/OVCFotoFachada.svc/RecuperarFotoFachadaGet?ReferenciaCatastral=9727519TL8492N"/>
</node>
<node id="-251" action="modify" visible="true" lon="-5.49557217069341" lat="41.00574928390344">
  <tag k="addr:street" v="Calle del Prado"/>
  <tag k="addr:housenumber" v="63"/>
  <tag k="addr:postcode" v="37340"/>
  <tag k="entrance" v="yes"/>
  <tag k="image" v="http://ovc.catastro.meh.es/OVCServWeb/OVCWcfLibres/OVCFotoFachada.svc/RecuperarFotoFachadaGet?ReferenciaCatastral=0126601TL9402N"/>
</node>
<node id="-269" action="modify" visible="true" lon="-5.501381030863706" lat="41.00623970719572">
  <tag k="addr:street" v="Calle de Salamanca"/>
  <tag k="addr:housenumber" v="8D"/>
  <tag k="addr:postcode" v="37340"/>
  <tag k="entrance" v="yes"/>
  <tag k="image" v="http://ovc.catastro.meh.es/OVCServWeb/OVCWcfLibres/OVCFotoFachada.svc/RecuperarFotoFachadaGet?ReferenciaCatastral=9626504TL8492N"/>
</node>
<node id="-287" action="modify" visible="true" lon="-5.5006926663691935" lat="41.00800327369651">
  <tag k="addr:street" v="Calle Traviesa"/>
  <tag k="addr:housenumber" v="5"/>
  <tag k="addr:postcode" v="37340"/>
  <tag k="entrance" v="yes"/>
  <tag k="image" v="http://ovc.catastro.meh.es/OVCServWeb/OVCWcfLibres/OVCFotoFachada.svc/RecuperarFotoFachadaGet?ReferenciaCatastral=9728529TL8492N"/>
</node>
<node id="-323" action="modify" visible="true" lon="-5.4967155185024" lat="41.00966279389381">
  <tag k="addr:street" v="Calle de Pitiegua"/>
  <tag k="addr:housenumber" v="3"/>
  <tag k="addr:postcode" v="37340"/>
  <tag k="entrance" v="yes"/>
  <tag k="image" v="http://ovc.catastro.meh.es/OVCServWeb/OVCWcfLibres/OVCFotoFachada.svc/RecuperarFotoFachadaGet?ReferenciaCatastral=0130204TL9403S"/>
</node>
<node id="-341" action="modify" visible="true" lon="-5.495802871268327" lat="41.0064774549875">
  <tag k="addr:street" v="Paseo de los Jornaleros"/>
  <tag k="addr:housenumber" v="36"/>
  <tag k="addr:postcode" v="37340"/>
  <tag k="entrance" v="yes"/>
  <tag k="image" v="http://ovc.catastro.meh.es/OVCServWeb/OVCWcfLibres/OVCFotoFachada.svc/RecuperarFotoFachadaGet?ReferenciaCatastral=0126609TL9402N"/>
</node>
<node id="-359" action="modify" visible="true" lon="-5.501066446840198" lat="41.008276208765565">
  <tag k="addr:street" v="Plaza Adrial"/>
  <tag k="addr:housenumber" v="8"/>
  <tag k="addr:postcode" v="37340"/>
  <tag k="entrance" v="yes"/>
  <tag k="image" v="http://ovc.catastro.meh.es/OVCServWeb/OVCWcfLibres/OVCFotoFachada.svc/RecuperarFotoFachadaGet?ReferenciaCatastral=9729925TL8492N"/>
</node>
<node id="-377" action="modify" visible="true" lon="-5.502562694825895" lat="41.00782673238769">
  <tag k="addr:street" v="Calle Camino de los Partidos"/>
  <tag k="addr:housenumber" v="6"/>
  <tag k="addr:postcode" v="37340"/>
  <tag k="image" v="http://ovc.catastro.meh.es/OVCServWeb/OVCWcfLibres/OVCFotoFachada.svc/RecuperarFotoFachadaGet?ReferenciaCatastral=9528509TL8492N"/>
</node>
<node id="-413" action="modify" visible="true" lon="-5.500625850121182" lat="41.007612765050126">
  <tag k="addr:street" v="Calle de San Pedro"/>
  <tag k="addr:housenumber" v="1"/>
  <tag k="addr:postcode" v="37340"/>
  <tag k="entrance" v="yes"/>
  <tag k="image" v="http://ovc.catastro.meh.es/OVCServWeb/OVCWcfLibres/OVCFotoFachada.svc/RecuperarFotoFachadaGet?ReferenciaCatastral=9727516TL8492N"/>
</node>
<node id="-431" action="modify" visible="true" lon="-5.498938619380814" lat="41.00577891458864">
  <tag k="addr:street" v="Calle de la Ermita"/>
  <tag k="addr:housenumber" v="14"/>
  <tag k="addr:postcode" v="37340"/>
  <tag k="entrance" v="yes"/>
  <tag k="image" v="http://ovc.catastro.meh.es/OVCServWeb/OVCWcfLibres/OVCFotoFachada.svc/RecuperarFotoFachadaGet?ReferenciaCatastral=9926103TL8492N"/>
</node>
<node id="-14" action="modify" visible="true" lon="-5.498601860417052" lat="41.008684102962235">
  <tag k="addr:street" v="Calle del Arenal"/>
  <tag k="addr:housenumber" v="11"/>
  <tag k="addr:postcode" v="37340"/>
  <tag k="image" v="http://ovc.catastro.meh.es/OVCServWeb/OVCWcfLibres/OVCFotoFachada.svc/RecuperarFotoFachadaGet?ReferenciaCatastral=9929103TL8492N"/>
</node>
<node id="-32" action="modify" visible="true" lon="-5.497488923441167" lat="41.009402015324945">
  <tag k="addr:street" v="Calle del Arenal"/>
  <tag k="addr:housenumber" v="42"/>
  <tag k="addr:postcode" v="37340"/>
  <tag k="entrance" v="yes"/>
  <tag k="image" v="http://ovc.catastro.meh.es/OVCServWeb/OVCWcfLibres/OVCFotoFachada.svc/RecuperarFotoFachadaGet?ReferenciaCatastral=0029604TL9402N"/>
</node>
<node id="-50" action="modify" visible="true" lon="-5.49652366086785" lat="41.008114160354104">
  <tag k="addr:street" v="Calle de Torrubio"/>
  <tag k="addr:housenumber" v="24"/>
  <tag k="addr:postcode" v="37340"/>
  <tag k="entrance" v="yes"/>
  <tag k="image" v="http://ovc.catastro.meh.es/OVCServWeb/OVCWcfLibres/OVCFotoFachada.svc/RecuperarFotoFachadaGet?ReferenciaCatastral=0127303TL9402N"/>
</node>
<node id="-68" action="modify" visible="true" lon="-5.496758201269127" lat="41.00861689129111">
  <tag k="addr:street" v="Calle de San Miguel"/>
  <tag k="addr:housenumber" v="1"/>
  <tag k="addr:postcode" v="37340"/>
  <tag k="entrance" v="yes"/>
  <tag k="image" v="http://ovc.catastro.meh.es/OVCServWeb/OVCWcfLibres/OVCFotoFachada.svc/RecuperarFotoFachadaGet?ReferenciaCatastral=0028505TL9402N"/>
</node>
<node id="-86" action="modify" visible="true" lon="-5.4974077650057085" lat="41.006034441668476">
  <tag k="addr:street" v="Calle de las Huertas"/>
  <tag k="addr:housenumber" v="25"/>
  <tag k="addr:postcode" v="37340"/>
  <tag k="entrance" v="yes"/>
  <tag k="image" v="http://ovc.catastro.meh.es/OVCServWeb/OVCWcfLibres/OVCFotoFachada.svc/RecuperarFotoFachadaGet?ReferenciaCatastral=0026909TL9402N"/>
</node>
<node id="-104" action="modify" visible="true" lon="-5.4997891839015445" lat="41.00719122637673">
  <tag k="addr:street" v="Avenida de los Labradores"/>
  <tag k="addr:housenumber" v="13"/>
  <tag k="addr:postcode" v="37340"/>
  <tag k="image" v="http://ovc.catastro.meh.es/OVCServWeb/OVCWcfLibres/OVCFotoFachada.svc/RecuperarFotoFachadaGet?ReferenciaCatastral=9827431TL8492N"/>
</node>
<node id="-122" action="modify" visible="true" lon="-5.50012006247012" lat="41.00758946310784">
  <tag k="addr:street" v="Avenida de los Labradores"/>
  <tag k="addr:housenumber" v="4"/>
  <tag k="addr:postcode" v="37340"/>
  <tag k="entrance" v="yes"/>
  <tag k="image" v="http://ovc.catastro.meh.es/OVCServWeb/OVCWcfLibres/OVCFotoFachada.svc/RecuperarFotoFachadaGet?ReferenciaCatastral=9828201TL8492N"/>
</node>
<node id="-140" action="modify" visible="true" lon="-5.499853463814565" lat="41.008618975028284">
  <tag k="addr:street" v="Calle de Cantarranas"/>
  <tag k="addr:housenumber" v="37"/>
  <tag k="addr:postcode" v="37340"/>
  <tag k="entrance" v="yes"/>
  <tag k="image" v="http://ovc.catastro.meh.es/OVCServWeb/OVCWcfLibres/OVCFotoFachada.svc/RecuperarFotoFachadaGet?ReferenciaCatastral=9729904TL8492N"/>
</node>
<node id="-158" action="modify" visible="true" lon="-5.501612749415756" lat="41.00846807500443">
  <tag k="addr:street" v="Calle de la Fuente"/>
  <tag k="addr:housenumber" v="18"/>
  <tag k="addr:postcode" v="37340"/>
  <tag k="entrance" v="yes"/>
  <tag k="image" v="http://ovc.catastro.meh.es/OVCServWeb/OVCWcfLibres/OVCFotoFachada.svc/RecuperarFotoFachadaGet?ReferenciaCatastral=9729937TL8492N"/>
</node>
<node id="-176" action="modify" visible="true" lon="-5.501942924802798" lat="41.00833066531697">
  <tag k="addr:street" v="Calle de Arriba"/>
  <tag k="addr:housenumber" v="1"/>
  <tag k="addr:postcode" v="37340"/>
  <tag k="entrance" v="yes"/>
  <tag k="image" v="http://ovc.catastro.meh.es/OVCServWeb/OVCWcfLibres/OVCFotoFachada.svc/RecuperarFotoFachadaGet?ReferenciaCatastral=9628623TL8492N"/>
</node>
<node id="-394" action="modify" visible="true" lon="-5.498373366755173" lat="41.00645209709539">
  <tag k="addr:street" v="Calle Particular"/>
  <tag k="addr:housenumber" v="7"/>
  <tag k="addr:postcode" v="37340"/>
  <tag k="image" v="http://ovc.catastro.meh.es/OVCServWeb/OVCWcfLibres/OVCFotoFachada.svc/RecuperarFotoFachadaGet?ReferenciaCatastral=0027668TL8492N"/>
</node>
<node id="-152" action="modify" visible="true" lon="-5.501671288732811" lat="41.008198462437846">
  <tag k="addr:street" v="Calle de la Fuente"/>
  <tag k="addr:housenumber" v="1"/>
  <tag k="addr:postcode" v="37340"/>
  <tag k="entrance" v="yes"/>
  <tag k="image" v="http://ovc.catastro.meh.es/OVCServWeb/OVCWcfLibres/OVCFotoFachada.svc/RecuperarFotoFachadaGet?ReferenciaCatastral=9628620TL8492N"/>
</node>
<node id="-175" action="modify" visible="true" lon="-5.50102011138184" lat="41.00660479435043">
  <tag k="addr:street" v="Calle de Benito Herreros"/>
  <tag k="addr:housenumber" v="6"/>
  <tag k="addr:postcode" v="37340"/>
  <tag k="entrance" v="yes"/>
  <tag k="image" v="http://ovc.catastro.meh.es/OVCServWeb/OVCWcfLibres/OVCFotoFachada.svc/RecuperarFotoFachadaGet?ReferenciaCatastral=9727003TL8492N"/>
</node>
<node id="-23" action="modify" visible="true" lon="-5.497962365482737" lat="41.009226091101176">
  <tag k="addr:street" v="Calle del Arenal"/>
  <tag k="addr:housenumber" v="27"/>
  <tag k="addr:postcode" v="37340"/>
  <tag k="entrance" v="yes"/>
  <tag k="image" v="http://ovc.catastro.meh.es/OVCServWeb/OVCWcfLibres/OVCFotoFachada.svc/RecuperarFotoFachadaGet?ReferenciaCatastral=0030108TL9403S"/>
</node>
<node id="-41" action="modify" visible="true" lon="-5.497878232047561" lat="41.00779031594922">
  <tag k="addr:street" v="Calle de Torrubio"/>
  <tag k="addr:housenumber" v="10"/>
  <tag k="addr:postcode" v="37340"/>
  <tag k="entrance" v="yes"/>
  <tag k="image" v="http://ovc.catastro.meh.es/OVCServWeb/OVCWcfLibres/OVCFotoFachada.svc/RecuperarFotoFachadaGet?ReferenciaCatastral=0027624TL9402N"/>
</node>
<node id="-59" action="modify" visible="true" lon="-5.496068790865453" lat="41.00822720450678">
  <tag k="addr:street" v="Calle de Torrubio"/>
  <tag k="addr:housenumber" v="37"/>
  <tag k="addr:postcode" v="37340"/>
  <tag k="entrance" v="yes"/>
  <tag k="image" v="http://ovc.catastro.meh.es/OVCServWeb/OVCWcfLibres/OVCFotoFachada.svc/RecuperarFotoFachadaGet?ReferenciaCatastral=0128502TL9402N"/>
</node>
<node id="-77" action="modify" visible="true" lon="-5.4976415458172045" lat="41.00732711579973">
  <tag k="addr:street" v="Calle de las Huertas"/>
  <tag k="addr:housenumber" v="14"/>
  <tag k="addr:postcode" v="37340"/>
  <tag k="entrance" v="yes"/>
  <tag k="image" v="http://ovc.catastro.meh.es/OVCServWeb/OVCWcfLibres/OVCFotoFachada.svc/RecuperarFotoFachadaGet?ReferenciaCatastral=0027618TL9402N"/>
</node>
<node id="-95" action="modify" visible="true" lon="-5.497546703042598" lat="41.005818828083655">
  <tag k="addr:street" v="Calle de las Huertas"/>
  <tag k="addr:housenumber" v="48"/>
  <tag k="addr:postcode" v="37340"/>
  <tag k="image" v="http://ovc.catastro.meh.es/OVCServWeb/OVCWcfLibres/OVCFotoFachada.svc/RecuperarFotoFachadaGet?ReferenciaCatastral=0026101TL9402N"/>
</node>
<node id="-113" action="modify" visible="true" lon="-5.5001126039687005" lat="41.005628965133425">
  <tag k="addr:street" v="Avenida de los Labradores"/>
  <tag k="addr:housenumber" v="20D"/>
  <tag k="addr:postcode" v="37340"/>
  <tag k="image" v="http://ovc.catastro.meh.es/OVCServWeb/OVCWcfLibres/OVCFotoFachada.svc/RecuperarFotoFachadaGet?ReferenciaCatastral=9826801TL8492N"/>
</node>
<node id="-131" action="modify" visible="true" lon="-5.500676362746428" lat="41.00857562340971">
  <tag k="addr:street" v="Calle de Cantarranas"/>
  <tag k="addr:housenumber" v="19"/>
  <tag k="addr:postcode" v="37340"/>
  <tag k="entrance" v="yes"/>
  <tag k="image" v="http://ovc.catastro.meh.es/OVCServWeb/OVCWcfLibres/OVCFotoFachada.svc/RecuperarFotoFachadaGet?ReferenciaCatastral=9729914TL8492N"/>
</node>
<node id="-149" action="modify" visible="true" lon="-5.498905651983231" lat="41.008877347632534">
  <tag k="addr:street" v="Calle de Cantarranas"/>
  <tag k="addr:housenumber" v="55A"/>
  <tag k="addr:postcode" v="37340"/>
  <tag k="image" v="http://ovc.catastro.meh.es/OVCServWeb/OVCWcfLibres/OVCFotoFachada.svc/RecuperarFotoFachadaGet?ReferenciaCatastral=9929301TL8492N"/>
</node>
<node id="-167" action="modify" visible="true" lon="-5.501194368883581" lat="41.00654516718123">
  <tag k="addr:street" v="Calle de Benito Herreros"/>
  <tag k="addr:housenumber" v="10"/>
  <tag k="addr:postcode" v="37340"/>
  <tag k="entrance" v="yes"/>
  <tag k="image" v="http://ovc.catastro.meh.es/OVCServWeb/OVCWcfLibres/OVCFotoFachada.svc/RecuperarFotoFachadaGet?ReferenciaCatastral=9727005TL8492N"/>
</node>
<node id="-231" action="modify" visible="true" lon="-5.496983421912829" lat="41.00650367643554">
  <tag k="addr:street" v="Calle del Prado"/>
  <tag k="addr:housenumber" v="14"/>
  <tag k="addr:postcode" v="37340"/>
  <tag k="entrance" v="yes"/>
  <tag k="image" v="http://ovc.catastro.meh.es/OVCServWeb/OVCWcfLibres/OVCFotoFachada.svc/RecuperarFotoFachadaGet?ReferenciaCatastral=0026410TL9402N"/>
</node>
<node id="-403" action="modify" visible="true" lon="-5.491887446887738" lat="41.0050290615096">
  <tag k="addr:street" v="Calle R&#237;o Tormes"/>
  <tag k="addr:housenumber" v="15"/>
  <tag k="addr:postcode" v="37340"/>
  <tag k="image" v="http://ovc.catastro.meh.es/OVCServWeb/OVCWcfLibres/OVCFotoFachada.svc/RecuperarFotoFachadaGet?ReferenciaCatastral=0525208TL9402N"/>
</node>
<node id="-440" action="modify" visible="true" lon="-5.502900489023068" lat="41.0090149940641">
  <tag k="addr:street" v="Plaza de la Fuente"/>
  <tag k="addr:housenumber" v="2"/>
  <tag k="addr:postcode" v="37340"/>
  <tag k="image" v="http://ovc.catastro.meh.es/OVCServWeb/OVCWcfLibres/OVCFotoFachada.svc/RecuperarFotoFachadaGet?ReferenciaCatastral=9529911TL8492N"/>
</node>
<node id="-212" action="modify" visible="true" lon="-5.496771454542991" lat="41.008921968785195">
  <tag k="addr:street" v="Calle del Matadero"/>
  <tag k="addr:housenumber" v="14"/>
  <tag k="addr:postcode" v="37340"/>
  <tag k="entrance" v="yes"/>
  <tag k="image" v="http://ovc.catastro.meh.es/OVCServWeb/OVCWcfLibres/OVCFotoFachada.svc/RecuperarFotoFachadaGet?ReferenciaCatastral=0129302TL9402N"/>
</node>
<node id="-235" action="modify" visible="true" lon="-5.496947885219779" lat="41.00609638084661">
  <tag k="addr:street" v="Calle del Prado"/>
  <tag k="addr:housenumber" v="22"/>
  <tag k="addr:postcode" v="37340"/>
  <tag k="entrance" v="yes"/>
  <tag k="image" v="http://ovc.catastro.meh.es/OVCServWeb/OVCWcfLibres/OVCFotoFachada.svc/RecuperarFotoFachadaGet?ReferenciaCatastral=0026910TL9402N"/>
</node>
<node id="-314" action="modify" visible="true" lon="-5.523830218169677" lat="40.9774680521071">
  <tag k="addr:place" v="Caser&#237;o Islas Caballo"/>
  <tag k="addr:housenumber" v="43"/>
  <tag k="addr:postcode" v="37340"/>
  <tag k="image" v="http://ovc.catastro.meh.es/OVCServWeb/OVCWcfLibres/OVCFotoFachada.svc/RecuperarFotoFachadaGet?ReferenciaCatastral=000302000TL83H"/>
</node>
<node id="-305" action="modify" visible="true" lon="-5.523944364641083" lat="40.97857685760693">
  <tag k="addr:place" v="Caser&#237;o Islas Caballo"/>
  <tag k="addr:housenumber" v="28"/>
  <tag k="addr:postcode" v="37340"/>
  <tag k="image" v="http://ovc.catastro.meh.es/OVCServWeb/OVCWcfLibres/OVCFotoFachada.svc/RecuperarFotoFachadaGet?ReferenciaCatastral=000300800TL83H"/>
</node>
<node id="-183" action="modify" visible="true" lon="-5.502125889206896" lat="41.00828095614776">
  <tag k="addr:street" v="Calle de Arriba"/>
  <tag k="addr:housenumber" v="3"/>
  <tag k="addr:postcode" v="37340"/>
  <tag k="entrance" v="yes"/>
  <tag k="image" v="http://ovc.catastro.meh.es/OVCServWeb/OVCWcfLibres/OVCFotoFachada.svc/RecuperarFotoFachadaGet?ReferenciaCatastral=9628624TL8492N"/>
</node>
<node id="-202" action="modify" visible="true" lon="-5.499281436087581" lat="41.00765866941202">
  <tag k="addr:street" v="Plaza del Hospital"/>
  <tag k="addr:housenumber" v="2"/>
  <tag k="addr:postcode" v="37340"/>
  <tag k="entrance" v="yes"/>
  <tag k="image" v="http://ovc.catastro.meh.es/OVCServWeb/OVCWcfLibres/OVCFotoFachada.svc/RecuperarFotoFachadaGet?ReferenciaCatastral=0027640TL9402N"/>
</node>
<node id="-261" action="modify" visible="true" lon="-5.501923471644516" lat="41.006158083364156">
  <tag k="addr:street" v="Calle de Salamanca"/>
  <tag k="addr:housenumber" v="14B"/>
  <tag k="addr:postcode" v="37340"/>
  <tag k="image" v="http://ovc.catastro.meh.es/OVCServWeb/OVCWcfLibres/OVCFotoFachada.svc/RecuperarFotoFachadaGet?ReferenciaCatastral=9626512TL8492N"/>
</node>
<node id="-279" action="modify" visible="true" lon="-5.497590627711779" lat="41.008768937040294">
  <tag k="addr:street" v="Calle del Tentetieso"/>
  <tag k="addr:housenumber" v="9D"/>
  <tag k="addr:postcode" v="37340"/>
  <tag k="image" v="http://ovc.catastro.meh.es/OVCServWeb/OVCWcfLibres/OVCFotoFachada.svc/RecuperarFotoFachadaGet?ReferenciaCatastral=0029149TL9402N"/>
</node>
<node id="-297" action="modify" visible="true" lon="-5.500851781452956" lat="41.00709695246654">
  <tag k="addr:street" v="Calle de Can&#243;nigo Bellido"/>
  <tag k="addr:housenumber" v="32"/>
  <tag k="addr:postcode" v="37340"/>
  <tag k="entrance" v="yes"/>
  <tag k="image" v="http://ovc.catastro.meh.es/OVCServWeb/OVCWcfLibres/OVCFotoFachada.svc/RecuperarFotoFachadaGet?ReferenciaCatastral=9727202TL8492N"/>
</node>
<node id="-333" action="modify" visible="true" lon="-5.499295726779922" lat="41.00915781496212">
  <tag k="addr:street" v="Calle Comuneros de Castilla"/>
  <tag k="addr:housenumber" v="5"/>
  <tag k="addr:postcode" v="37340"/>
  <tag k="entrance" v="yes"/>
  <tag k="image" v="http://ovc.catastro.meh.es/OVCServWeb/OVCWcfLibres/OVCFotoFachada.svc/RecuperarFotoFachadaGet?ReferenciaCatastral=9829503TL8492N"/>
</node>
<node id="-351" action="modify" visible="true" lon="-5.495026557939573" lat="41.005520416717104">
  <tag k="addr:street" v="Paseo de los Jornaleros"/>
  <tag k="addr:housenumber" v="55"/>
  <tag k="addr:postcode" v="37340"/>
  <tag k="image" v="http://ovc.catastro.meh.es/OVCServWeb/OVCWcfLibres/OVCFotoFachada.svc/RecuperarFotoFachadaGet?ReferenciaCatastral=0225902TL9402N"/>
</node>
<node id="-369" action="modify" visible="true" lon="-5.502893815573106" lat="41.00762487440459">
  <tag k="addr:street" v="Calle Camino de los Partidos"/>
  <tag k="addr:housenumber" v="10"/>
  <tag k="addr:postcode" v="37340"/>
  <tag k="image" v="http://ovc.catastro.meh.es/OVCServWeb/OVCWcfLibres/OVCFotoFachada.svc/RecuperarFotoFachadaGet?ReferenciaCatastral=9528507TL8492N"/>
</node>
<node id="-387" action="modify" visible="true" lon="-5.498446486739646" lat="41.007991805573916">
  <tag k="addr:street" v="Plaza de la Villa"/>
  <tag k="addr:housenumber" v="4"/>
  <tag k="addr:postcode" v="37340"/>
  <tag k="entrance" v="yes"/>
  <tag k="image" v="http://ovc.catastro.meh.es/OVCServWeb/OVCWcfLibres/OVCFotoFachada.svc/RecuperarFotoFachadaGet?ReferenciaCatastral=0029146TL9402N"/>
</node>
<node id="-423" action="modify" visible="true" lon="-5.5010284480701666" lat="41.00764142672942">
  <tag k="addr:street" v="Calle de San Pedro"/>
  <tag k="addr:housenumber" v="8"/>
  <tag k="addr:postcode" v="37340"/>
  <tag k="entrance" v="yes"/>
  <tag k="image" v="http://ovc.catastro.meh.es/OVCServWeb/OVCWcfLibres/OVCFotoFachada.svc/RecuperarFotoFachadaGet?ReferenciaCatastral=9728905TL8492N"/>
</node>
<node id="-188" action="modify" visible="true" lon="-5.497271849961898" lat="41.00553186444266">
  <tag k="addr:street" v="Calle Vista Hermosa"/>
  <tag k="addr:housenumber" v="1"/>
  <tag k="addr:postcode" v="37340"/>
  <tag k="entrance" v="yes"/>
  <tag k="image" v="http://ovc.catastro.meh.es/OVCServWeb/OVCWcfLibres/OVCFotoFachada.svc/RecuperarFotoFachadaGet?ReferenciaCatastral=0026901TL9402N"/>
</node>
<node id="-218" action="modify" visible="true" lon="-5.497258547017133" lat="41.009861132002854">
  <tag k="addr:street" v="Calle del Matadero"/>
  <tag k="addr:housenumber" v="28"/>
  <tag k="addr:postcode" v="37340"/>
  <tag k="entrance" v="yes"/>
  <tag k="image" v="http://ovc.catastro.meh.es/OVCServWeb/OVCWcfLibres/OVCFotoFachada.svc/RecuperarFotoFachadaGet?ReferenciaCatastral=0030601TL9403S"/>
</node>
<node id="-252" action="modify" visible="true" lon="-5.497082135388531" lat="41.00674769117862">
  <tag k="addr:street" v="Calle del Prado"/>
  <tag k="addr:housenumber" v="8"/>
  <tag k="addr:postcode" v="37340"/>
  <tag k="entrance" v="yes"/>
  <tag k="image" v="http://ovc.catastro.meh.es/OVCServWeb/OVCWcfLibres/OVCFotoFachada.svc/RecuperarFotoFachadaGet?ReferenciaCatastral=0026406TL9402N"/>
</node>
<node id="-270" action="modify" visible="true" lon="-5.501696784122073" lat="41.006036955999406">
  <tag k="addr:street" v="Calle de Salamanca"/>
  <tag k="addr:housenumber" v="9"/>
  <tag k="addr:postcode" v="37340"/>
  <tag k="entrance" v="yes"/>
  <tag k="image" v="http://ovc.catastro.meh.es/OVCServWeb/OVCWcfLibres/OVCFotoFachada.svc/RecuperarFotoFachadaGet?ReferenciaCatastral=9726404TL8492N"/>
</node>
<node id="-288" action="modify" visible="true" lon="-5.500631791755879" lat="41.00785548131575">
  <tag k="addr:street" v="Calle Traviesa"/>
  <tag k="addr:housenumber" v="6"/>
  <tag k="addr:postcode" v="37340"/>
  <tag k="entrance" v="yes"/>
  <tag k="image" v="http://ovc.catastro.meh.es/OVCServWeb/OVCWcfLibres/OVCFotoFachada.svc/RecuperarFotoFachadaGet?ReferenciaCatastral=9728911TL8492N"/>
</node>
<node id="-324" action="modify" visible="true" lon="-5.496620779085597" lat="41.00969365812163">
  <tag k="addr:street" v="Calle de Pitiegua"/>
  <tag k="addr:housenumber" v="5"/>
  <tag k="addr:postcode" v="37340"/>
  <tag k="entrance" v="yes"/>
  <tag k="image" v="http://ovc.catastro.meh.es/OVCServWeb/OVCWcfLibres/OVCFotoFachada.svc/RecuperarFotoFachadaGet?ReferenciaCatastral=0130203TL9403S"/>
</node>
<node id="-342" action="modify" visible="true" lon="-5.495752221620135" lat="41.006417523867235">
  <tag k="addr:street" v="Paseo de los Jornaleros"/>
  <tag k="addr:housenumber" v="38"/>
  <tag k="addr:postcode" v="37340"/>
  <tag k="image" v="http://ovc.catastro.meh.es/OVCServWeb/OVCWcfLibres/OVCFotoFachada.svc/RecuperarFotoFachadaGet?ReferenciaCatastral=0126608TL9402N"/>
</node>
<node id="-360" action="modify" visible="true" lon="-5.50094212719354" lat="41.008235678429166">
  <tag k="addr:street" v="Plaza Adrial"/>
  <tag k="addr:housenumber" v="9"/>
  <tag k="addr:postcode" v="37340"/>
  <tag k="entrance" v="yes"/>
  <tag k="image" v="http://ovc.catastro.meh.es/OVCServWeb/OVCWcfLibres/OVCFotoFachada.svc/RecuperarFotoFachadaGet?ReferenciaCatastral=9728527TL8492N"/>
</node>
<node id="-378" action="modify" visible="true" lon="-5.502934775229778" lat="41.0077363019814">
  <tag k="addr:street" v="Calle Camino de los Partidos"/>
  <tag k="addr:housenumber" v="6"/>
  <tag k="addr:postcode" v="37340"/>
  <tag k="image" v="http://ovc.catastro.meh.es/OVCServWeb/OVCWcfLibres/OVCFotoFachada.svc/RecuperarFotoFachadaGet?ReferenciaCatastral=9528509TL8492N"/>
</node>
<node id="-414" action="modify" visible="true" lon="-5.501267337748981" lat="41.007472986046736">
  <tag k="addr:street" v="Calle de San Pedro"/>
  <tag k="addr:housenumber" v="11"/>
  <tag k="addr:postcode" v="37340"/>
  <tag k="image" v="http://ovc.catastro.meh.es/OVCServWeb/OVCWcfLibres/OVCFotoFachada.svc/RecuperarFotoFachadaGet?ReferenciaCatastral=9727218TL8492N"/>
</node>
<node id="-392" action="modify" visible="true" lon="-5.498556572156877" lat="41.00700758205462">
  <tag k="addr:street" v="Calle Particular"/>
  <tag k="addr:housenumber" v="17"/>
  <tag k="addr:postcode" v="37340"/>
  <tag k="entrance" v="yes"/>
  <tag k="image" v="http://ovc.catastro.meh.es/OVCServWeb/OVCWcfLibres/OVCFotoFachada.svc/RecuperarFotoFachadaGet?ReferenciaCatastral=0027673TL9402N"/>
</node>
<node id="-230" action="modify" visible="true" lon="-5.499933631006479" lat="41.00844362741388">
  <tag k="addr:street" v="Calle del Peligro"/>
  <tag k="addr:housenumber" v="9"/>
  <tag k="addr:postcode" v="37340"/>
  <tag k="entrance" v="yes"/>
  <tag k="image" v="http://ovc.catastro.meh.es/OVCServWeb/OVCWcfLibres/OVCFotoFachada.svc/RecuperarFotoFachadaGet?ReferenciaCatastral=9728515TL8492N"/>
</node>
<node id="-15" action="modify" visible="true" lon="-5.498543227710065" lat="41.00863875856641">
  <tag k="addr:street" v="Calle del Arenal"/>
  <tag k="addr:housenumber" v="12"/>
  <tag k="addr:postcode" v="37340"/>
  <tag k="entrance" v="yes"/>
  <tag k="image" v="http://ovc.catastro.meh.es/OVCServWeb/OVCWcfLibres/OVCFotoFachada.svc/RecuperarFotoFachadaGet?ReferenciaCatastral=0029130TL9402N"/>
</node>
<node id="-33" action="modify" visible="true" lon="-5.497453564773241" lat="41.00957769324008">
  <tag k="addr:street" v="Calle del Arenal"/>
  <tag k="addr:housenumber" v="43"/>
  <tag k="addr:postcode" v="37340"/>
  <tag k="entrance" v="yes"/>
  <tag k="image" v="http://ovc.catastro.meh.es/OVCServWeb/OVCWcfLibres/OVCFotoFachada.svc/RecuperarFotoFachadaGet?ReferenciaCatastral=0030101TL9403S"/>
</node>
<node id="-51" action="modify" visible="true" lon="-5.496373133362706" lat="41.008108029218924">
  <tag k="addr:street" v="Calle de Torrubio"/>
  <tag k="addr:housenumber" v="26"/>
  <tag k="addr:postcode" v="37340"/>
  <tag k="entrance" v="yes"/>
  <tag k="image" v="http://ovc.catastro.meh.es/OVCServWeb/OVCWcfLibres/OVCFotoFachada.svc/RecuperarFotoFachadaGet?ReferenciaCatastral=0127302TL9402N"/>
</node>
<node id="-69" action="modify" visible="true" lon="-5.4972362787167475" lat="41.008418531469616">
  <tag k="addr:street" v="Calle de San Miguel"/>
  <tag k="addr:housenumber" v="11"/>
  <tag k="addr:postcode" v="37340"/>
  <tag k="image" v="http://ovc.catastro.meh.es/OVCServWeb/OVCWcfLibres/OVCFotoFachada.svc/RecuperarFotoFachadaGet?ReferenciaCatastral=0028514TL9402N"/>
</node>
<node id="-87" action="modify" visible="true" lon="-5.4975739057569735" lat="41.006925470737386">
  <tag k="addr:street" v="Calle de las Huertas"/>
  <tag k="addr:housenumber" v="26"/>
  <tag k="addr:postcode" v="37340"/>
  <tag k="entrance" v="yes"/>
  <tag k="image" v="http://ovc.catastro.meh.es/OVCServWeb/OVCWcfLibres/OVCFotoFachada.svc/RecuperarFotoFachadaGet?ReferenciaCatastral=0027611TL9402N"/>
</node>
<node id="-105" action="modify" visible="true" lon="-5.49981150783925" lat="41.007250188288324">
  <tag k="addr:street" v="Avenida de los Labradores"/>
  <tag k="addr:housenumber" v="13C"/>
  <tag k="addr:postcode" v="37340"/>
  <tag k="image" v="http://ovc.catastro.meh.es/OVCServWeb/OVCWcfLibres/OVCFotoFachada.svc/RecuperarFotoFachadaGet?ReferenciaCatastral=9827413TL8492N"/>
</node>
<node id="-123" action="modify" visible="true" lon="-5.50026686524647" lat="41.00637489309614">
  <tag k="addr:street" v="Avenida de los Labradores"/>
  <tag k="addr:housenumber" v="43"/>
  <tag k="addr:postcode" v="37340"/>
  <tag k="entrance" v="yes"/>
  <tag k="image" v="http://ovc.catastro.meh.es/OVCServWeb/OVCWcfLibres/OVCFotoFachada.svc/RecuperarFotoFachadaGet?ReferenciaCatastral=9826301TL8492N"/>
</node>
<node id="-141" action="modify" visible="true" lon="-5.498727768683041" lat="41.00884493996252">
  <tag k="addr:street" v="Calle de Cantarranas"/>
  <tag k="addr:housenumber" v="38"/>
  <tag k="addr:postcode" v="37340"/>
  <tag k="entrance" v="yes"/>
  <tag k="image" v="http://ovc.catastro.meh.es/OVCServWeb/OVCWcfLibres/OVCFotoFachada.svc/RecuperarFotoFachadaGet?ReferenciaCatastral=9929104TL8492N"/>
</node>
<node id="-159" action="modify" visible="true" lon="-5.501848678596943" lat="41.00846261676518">
  <tag k="addr:street" v="Calle de la Fuente"/>
  <tag k="addr:housenumber" v="20"/>
  <tag k="addr:postcode" v="37340"/>
  <tag k="entrance" v="yes"/>
  <tag k="image" v="http://ovc.catastro.meh.es/OVCServWeb/OVCWcfLibres/OVCFotoFachada.svc/RecuperarFotoFachadaGet?ReferenciaCatastral=9729938TL8492N"/>
</node>
<node id="-177" action="modify" visible="true" lon="-5.50268954284003" lat="41.00830568484102">
  <tag k="addr:street" v="Calle de Arriba"/>
  <tag k="addr:housenumber" v="10"/>
  <tag k="addr:postcode" v="37340"/>
  <tag k="entrance" v="yes"/>
  <tag k="image" v="http://ovc.catastro.meh.es/OVCServWeb/OVCWcfLibres/OVCFotoFachada.svc/RecuperarFotoFachadaGet?ReferenciaCatastral=9529903TL8492N"/>
</node>
<node id="-240" action="modify" visible="true" lon="-5.496342664248626" lat="41.006262757015186">
  <tag k="addr:street" v="Calle del Prado"/>
  <tag k="addr:housenumber" v="45"/>
  <tag k="addr:postcode" v="37340"/>
  <tag k="entrance" v="yes"/>
  <tag k="image" v="http://ovc.catastro.meh.es/OVCServWeb/OVCWcfLibres/OVCFotoFachada.svc/RecuperarFotoFachadaGet?ReferenciaCatastral=0126907TL9402N"/>
</node>
<node id="-24" action="modify" visible="true" lon="-5.499114176929407" lat="41.00840915658725">
  <tag k="addr:street" v="Calle del Arenal"/>
  <tag k="addr:housenumber" v="3"/>
  <tag k="addr:postcode" v="37340"/>
  <tag k="entrance" v="yes"/>
  <tag k="image" v="http://ovc.catastro.meh.es/OVCServWeb/OVCWcfLibres/OVCFotoFachada.svc/RecuperarFotoFachadaGet?ReferenciaCatastral=9929111TL8492N"/>
</node>
<node id="-42" action="modify" visible="true" lon="-5.4976983860566655" lat="41.00798655219128">
  <tag k="addr:street" v="Calle de Torrubio"/>
  <tag k="addr:housenumber" v="11"/>
  <tag k="addr:postcode" v="37340"/>
  <tag k="entrance" v="yes"/>
  <tag k="image" v="http://ovc.catastro.meh.es/OVCServWeb/OVCWcfLibres/OVCFotoFachada.svc/RecuperarFotoFachadaGet?ReferenciaCatastral=0029106TL9402N"/>
</node>
<node id="-60" action="modify" visible="true" lon="-5.495884593309727" lat="41.00824383285892">
  <tag k="addr:street" v="Calle de Torrubio"/>
  <tag k="addr:housenumber" v="39"/>
  <tag k="addr:postcode" v="37340"/>
  <tag k="entrance" v="yes"/>
  <tag k="image" v="http://ovc.catastro.meh.es/OVCServWeb/OVCWcfLibres/OVCFotoFachada.svc/RecuperarFotoFachadaGet?ReferenciaCatastral=0128501TL9402N"/>
</node>
<node id="-78" action="modify" visible="true" lon="-5.497452708055637" lat="41.00647558196345">
  <tag k="addr:street" v="Calle de las Huertas"/>
  <tag k="addr:housenumber" v="15"/>
  <tag k="addr:postcode" v="37340"/>
  <tag k="entrance" v="yes"/>
  <tag k="image" v="http://ovc.catastro.meh.es/OVCServWeb/OVCWcfLibres/OVCFotoFachada.svc/RecuperarFotoFachadaGet?ReferenciaCatastral=0026403TL9402N"/>
</node>
<node id="-96" action="modify" visible="true" lon="-5.49746008594501" lat="41.00695579437762">
  <tag k="addr:street" v="Calle de las Huertas"/>
  <tag k="addr:housenumber" v="5"/>
  <tag k="addr:postcode" v="37340"/>
  <tag k="entrance" v="yes"/>
  <tag k="image" v="http://ovc.catastro.meh.es/OVCServWeb/OVCWcfLibres/OVCFotoFachada.svc/RecuperarFotoFachadaGet?ReferenciaCatastral=0027903TL9402N"/>
</node>
<node id="-114" action="modify" visible="true" lon="-5.500471062141129" lat="41.00708886506502">
  <tag k="addr:street" v="Avenida de los Labradores"/>
  <tag k="addr:housenumber" v="27"/>
  <tag k="addr:postcode" v="37340"/>
  <tag k="entrance" v="yes"/>
  <tag k="image" v="http://ovc.catastro.meh.es/OVCServWeb/OVCWcfLibres/OVCFotoFachada.svc/RecuperarFotoFachadaGet?ReferenciaCatastral=9827421TL8492N"/>
</node>
<node id="-132" action="modify" visible="true" lon="-5.500603450370247" lat="41.00851213285417">
  <tag k="addr:street" v="Calle de Cantarranas"/>
  <tag k="addr:housenumber" v="21"/>
  <tag k="addr:postcode" v="37340"/>
  <tag k="entrance" v="yes"/>
  <tag k="image" v="http://ovc.catastro.meh.es/OVCServWeb/OVCWcfLibres/OVCFotoFachada.svc/RecuperarFotoFachadaGet?ReferenciaCatastral=9729913TL8492N"/>
</node>
<node id="-150" action="modify" visible="true" lon="-5.498549358112607" lat="41.00892651538583">
  <tag k="addr:street" v="Calle de Cantarranas"/>
  <tag k="addr:housenumber" v="59"/>
  <tag k="addr:postcode" v="37340"/>
  <tag k="entrance" v="yes"/>
  <tag k="image" v="http://ovc.catastro.meh.es/OVCServWeb/OVCWcfLibres/OVCFotoFachada.svc/RecuperarFotoFachadaGet?ReferenciaCatastral=0030113TL9403S"/>
</node>
<node id="-168" action="modify" visible="true" lon="-5.501281426859869" lat="41.006514410036694">
  <tag k="addr:street" v="Calle de Benito Herreros"/>
  <tag k="addr:housenumber" v="12"/>
  <tag k="addr:postcode" v="37340"/>
  <tag k="entrance" v="yes"/>
  <tag k="image" v="http://ovc.catastro.meh.es/OVCServWeb/OVCWcfLibres/OVCFotoFachada.svc/RecuperarFotoFachadaGet?ReferenciaCatastral=9727006TL8492N"/>
</node>
<node id="-209" action="modify" visible="true" lon="-5.499886406347178" lat="41.00777326392326">
  <tag k="addr:street" v="Plaza del Hospital"/>
  <tag k="addr:housenumber" v="9"/>
  <tag k="addr:postcode" v="37340"/>
  <tag k="entrance" v="yes"/>
  <tag k="image" v="http://ovc.catastro.meh.es/OVCServWeb/OVCWcfLibres/OVCFotoFachada.svc/RecuperarFotoFachadaGet?ReferenciaCatastral=9828804TL8492N"/>
</node>
<node id="-435" action="modify" visible="true" lon="-5.5032632024473624" lat="41.00931880986979">
  <tag k="addr:street" v="Calle de Fray Luis de Le&#243;n"/>
  <tag k="addr:housenumber" v="10"/>
  <tag k="addr:postcode" v="37340"/>
  <tag k="entrance" v="yes"/>
  <tag k="image" v="http://ovc.catastro.meh.es/OVCServWeb/OVCWcfLibres/OVCFotoFachada.svc/RecuperarFotoFachadaGet?ReferenciaCatastral=9630102TL8493S"/>
</node>
<node id="-409" action="modify" visible="true" lon="-5.492348647564459" lat="41.00525058302979">
  <tag k="addr:street" v="Calle R&#237;o Tormes"/>
  <tag k="addr:housenumber" v="6"/>
  <tag k="addr:postcode" v="37340"/>
  <tag k="image" v="http://ovc.catastro.meh.es/OVCServWeb/OVCWcfLibres/OVCFotoFachada.svc/RecuperarFotoFachadaGet?ReferenciaCatastral=0525103TL9402N"/>
</node>
<node id="-401" action="modify" visible="true" lon="-5.492006133863007" lat="41.005069853969886">
  <tag k="addr:street" v="Calle R&#237;o Tormes"/>
  <tag k="addr:housenumber" v="13"/>
  <tag k="addr:postcode" v="37340"/>
  <tag k="image" v="http://ovc.catastro.meh.es/OVCServWeb/OVCWcfLibres/OVCFotoFachada.svc/RecuperarFotoFachadaGet?ReferenciaCatastral=0525207TL9402N"/>
</node>
<node id="-442" action="modify" visible="true" lon="-5.503384913095307" lat="41.00917989299097">
  <tag k="addr:street" v="Plaza de la Fuente"/>
  <tag k="addr:housenumber" v="5"/>
  <tag k="addr:postcode" v="37340"/>
  <tag k="image" v="http://ovc.catastro.meh.es/OVCServWeb/OVCWcfLibres/OVCFotoFachada.svc/RecuperarFotoFachadaGet?ReferenciaCatastral=9529913TL8492N"/>
</node>
<node id="-315" action="modify" visible="true" lon="-5.4968052969529175" lat="41.009403367051654">
  <tag k="addr:street" v="Calle constituci&#243;n"/>
  <tag k="addr:housenumber" v="1"/>
  <tag k="addr:postcode" v="37340"/>
  <tag k="entrance" v="yes"/>
  <tag k="image" v="http://ovc.catastro.meh.es/OVCServWeb/OVCWcfLibres/OVCFotoFachada.svc/RecuperarFotoFachadaGet?ReferenciaCatastral=0130105TL9403S"/>
</node>
<node id="-306" action="modify" visible="true" lon="-5.526023546963138" lat="40.97791809596133">
  <tag k="addr:place" v="Caser&#237;o Islas Caballo"/>
  <tag k="addr:housenumber" v="3"/>
  <tag k="addr:postcode" v="37340"/>
  <tag k="image" v="http://ovc.catastro.meh.es/OVCServWeb/OVCWcfLibres/OVCFotoFachada.svc/RecuperarFotoFachadaGet?ReferenciaCatastral=000303300TL83H"/>
</node>
<node id="-233" action="modify" visible="true" lon="-5.497433568327035" lat="41.00726168976115">
  <tag k="addr:street" v="Calle del Prado"/>
  <tag k="addr:housenumber" v="2"/>
  <tag k="addr:postcode" v="37340"/>
  <tag k="entrance" v="yes"/>
  <tag k="image" v="http://ovc.catastro.meh.es/OVCServWeb/OVCWcfLibres/OVCFotoFachada.svc/RecuperarFotoFachadaGet?ReferenciaCatastral=0027401TL9402N"/>
</node>
<node id="-203" action="modify" visible="true" lon="-5.4994131882779165" lat="41.00764495742345">
  <tag k="addr:street" v="Plaza del Hospital"/>
  <tag k="addr:housenumber" v="3"/>
  <tag k="addr:postcode" v="37340"/>
  <tag k="entrance" v="yes"/>
  <tag k="image" v="http://ovc.catastro.meh.es/OVCServWeb/OVCWcfLibres/OVCFotoFachada.svc/RecuperarFotoFachadaGet?ReferenciaCatastral=9827405TL8492N"/>
</node>
<node id="-182" action="modify" visible="true" lon="-5.501962189780518" lat="41.00841362664334">
  <tag k="addr:street" v="Calle de Arriba"/>
  <tag k="addr:housenumber" v="2"/>
  <tag k="addr:postcode" v="37340"/>
  <tag k="entrance" v="yes"/>
  <tag k="image" v="http://ovc.catastro.meh.es/OVCServWeb/OVCWcfLibres/OVCFotoFachada.svc/RecuperarFotoFachadaGet?ReferenciaCatastral=9629901TL8492N"/>
</node>
<node id="-262" action="modify" visible="true" lon="-5.502490797990063" lat="41.00586188624389">
  <tag k="addr:street" v="Calle de Salamanca"/>
  <tag k="addr:housenumber" v="15"/>
  <tag k="addr:postcode" v="37340"/>
  <tag k="image" v="http://ovc.catastro.meh.es/OVCServWeb/OVCWcfLibres/OVCFotoFachada.svc/RecuperarFotoFachadaGet?ReferenciaCatastral=9726406TL8492N"/>
</node>
<node id="-280" action="modify" visible="true" lon="-5.500860226700107" lat="41.00816459758461">
  <tag k="addr:street" v="Calle Traviesa"/>
  <tag k="addr:housenumber" v="1"/>
  <tag k="addr:postcode" v="37340"/>
  <tag k="entrance" v="yes"/>
  <tag k="image" v="http://ovc.catastro.meh.es/OVCServWeb/OVCWcfLibres/OVCFotoFachada.svc/RecuperarFotoFachadaGet?ReferenciaCatastral=9728528TL8492N"/>
</node>
<node id="-298" action="modify" visible="true" lon="-5.50101634083862" lat="41.00737880899914">
  <tag k="addr:street" v="Calle de Can&#243;nigo Bellido"/>
  <tag k="addr:housenumber" v="7"/>
  <tag k="addr:postcode" v="37340"/>
  <tag k="entrance" v="yes"/>
  <tag k="image" v="http://ovc.catastro.meh.es/OVCServWeb/OVCWcfLibres/OVCFotoFachada.svc/RecuperarFotoFachadaGet?ReferenciaCatastral=9727523TL8492N"/>
</node>
<node id="-316" action="modify" visible="true" lon="-5.496701494741595" lat="41.0091978503356">
  <tag k="addr:street" v="Calle constituci&#243;n"/>
  <tag k="addr:housenumber" v="2"/>
  <tag k="addr:postcode" v="37340"/>
  <tag k="image" v="http://ovc.catastro.meh.es/OVCServWeb/OVCWcfLibres/OVCFotoFachada.svc/RecuperarFotoFachadaGet?ReferenciaCatastral=0129309TL9402N"/>
</node>
<node id="-334" action="modify" visible="true" lon="-5.4992440653213075" lat="41.00909459917971">
  <tag k="addr:street" v="Calle Comuneros de Castilla"/>
  <tag k="addr:housenumber" v="6"/>
  <tag k="addr:postcode" v="37340"/>
  <tag k="entrance" v="yes"/>
  <tag k="image" v="http://ovc.catastro.meh.es/OVCServWeb/OVCWcfLibres/OVCFotoFachada.svc/RecuperarFotoFachadaGet?ReferenciaCatastral=9929309TL8492N"/>
</node>
<node id="-352" action="modify" visible="true" lon="-5.494901025125245" lat="41.00533358469706">
  <tag k="addr:street" v="Paseo de los Jornaleros"/>
  <tag k="addr:housenumber" v="57"/>
  <tag k="addr:postcode" v="37340"/>
  <tag k="entrance" v="yes"/>
  <tag k="image" v="http://ovc.catastro.meh.es/OVCServWeb/OVCWcfLibres/OVCFotoFachada.svc/RecuperarFotoFachadaGet?ReferenciaCatastral=0225901TL9402N"/>
</node>
<node id="-370" action="modify" visible="true" lon="-5.502470351131535" lat="41.00760345939769">
  <tag k="addr:street" v="Calle Camino de los Partidos"/>
  <tag k="addr:housenumber" v="14"/>
  <tag k="addr:postcode" v="37340"/>
  <tag k="image" v="http://ovc.catastro.meh.es/OVCServWeb/OVCWcfLibres/OVCFotoFachada.svc/RecuperarFotoFachadaGet?ReferenciaCatastral=9528505TL8492N"/>
</node>
<node id="-388" action="modify" visible="true" lon="-5.498386191427321" lat="41.00777463271324">
  <tag k="addr:street" v="Plaza de la Villa"/>
  <tag k="addr:housenumber" v="5"/>
  <tag k="addr:postcode" v="37340"/>
  <tag k="entrance" v="yes"/>
  <tag k="image" v="http://ovc.catastro.meh.es/OVCServWeb/OVCWcfLibres/OVCFotoFachada.svc/RecuperarFotoFachadaGet?ReferenciaCatastral=0027629TL9402N"/>
</node>
<node id="-424" action="modify" visible="true" lon="-5.500795904441755" lat="41.007548832608784">
  <tag k="addr:street" v="Calle de San Pedro"/>
  <tag k="addr:housenumber" v="9"/>
  <tag k="addr:postcode" v="37340"/>
  <tag k="entrance" v="yes"/>
  <tag k="image" v="http://ovc.catastro.meh.es/OVCServWeb/OVCWcfLibres/OVCFotoFachada.svc/RecuperarFotoFachadaGet?ReferenciaCatastral=9727520TL8492N"/>
</node>
<node id="-433" action="modify" visible="true" lon="-5.498301772486314" lat="41.00593516016358">
  <tag k="addr:street" v="Calle de la Ermita"/>
  <tag k="addr:housenumber" v="6"/>
  <tag k="addr:postcode" v="37340"/>
  <tag k="entrance" v="yes"/>
  <tag k="image" v="http://ovc.catastro.meh.es/OVCServWeb/OVCWcfLibres/OVCFotoFachada.svc/RecuperarFotoFachadaGet?ReferenciaCatastral=9927736TL8492N"/>
</node>
<node id="-9" action="modify" visible="true" lon="-5.500335778527631" lat="41.00795400033757">
  <tag k="addr:street" v="Calle de las Angustias"/>
  <tag k="addr:housenumber" v="3D"/>
  <tag k="addr:postcode" v="37340"/>
  <tag k="entrance" v="yes"/>
  <tag k="image" v="http://ovc.catastro.meh.es/OVCServWeb/OVCWcfLibres/OVCFotoFachada.svc/RecuperarFotoFachadaGet?ReferenciaCatastral=9828211TL8492N"/>
</node>
<node id="-214" action="modify" visible="true" lon="-5.496799452924346" lat="41.00897855509869">
  <tag k="addr:street" v="Calle del Matadero"/>
  <tag k="addr:housenumber" v="16"/>
  <tag k="addr:postcode" v="37340"/>
  <tag k="entrance" v="yes"/>
  <tag k="image" v="http://ovc.catastro.meh.es/OVCServWeb/OVCWcfLibres/OVCFotoFachada.svc/RecuperarFotoFachadaGet?ReferenciaCatastral=0129303TL9402N"/>
</node>
<node id="-253" action="modify" visible="true" lon="-5.4987205001220065" lat="41.008254993128766">
  <tag k="addr:street" v="Calle de la rosa"/>
  <tag k="addr:housenumber" v="1"/>
  <tag k="addr:postcode" v="37340"/>
  <tag k="image" v="http://ovc.catastro.meh.es/OVCServWeb/OVCWcfLibres/OVCFotoFachada.svc/RecuperarFotoFachadaGet?ReferenciaCatastral=9928303TL8492N"/>
</node>
<node id="-271" action="modify" visible="true" lon="-5.497863438654697" lat="41.006505343923195">
  <tag k="addr:street" v="Traves&#237;a del Tejar"/>
  <tag k="addr:housenumber" v="11"/>
  <tag k="addr:postcode" v="37340"/>
  <tag k="entrance" v="yes"/>
  <tag k="image" v="http://ovc.catastro.meh.es/OVCServWeb/OVCWcfLibres/OVCFotoFachada.svc/RecuperarFotoFachadaGet?ReferenciaCatastral=0027651TL9402N"/>
</node>
<node id="-289" action="modify" visible="true" lon="-5.500556194873303" lat="41.00783500858794">
  <tag k="addr:street" v="Calle Traviesa"/>
  <tag k="addr:housenumber" v="7"/>
  <tag k="addr:postcode" v="37340"/>
  <tag k="entrance" v="yes"/>
  <tag k="image" v="http://ovc.catastro.meh.es/OVCServWeb/OVCWcfLibres/OVCFotoFachada.svc/RecuperarFotoFachadaGet?ReferenciaCatastral=9828213TL8492N"/>
</node>
<node id="-325" action="modify" visible="true" lon="-5.495617991162005" lat="41.00605031511651">
  <tag k="addr:street" v="Calle de la Laguna Chica"/>
  <tag k="addr:housenumber" v="11"/>
  <tag k="addr:postcode" v="37340"/>
  <tag k="image" v="http://ovc.catastro.meh.es/OVCServWeb/OVCWcfLibres/OVCFotoFachada.svc/RecuperarFotoFachadaGet?ReferenciaCatastral=0126604TL9402N"/>
</node>
<node id="-343" action="modify" visible="true" lon="-5.496323257946434" lat="41.007938398915506">
  <tag k="addr:street" v="Paseo de los Jornaleros"/>
  <tag k="addr:housenumber" v="4"/>
  <tag k="addr:postcode" v="37340"/>
  <tag k="image" v="http://ovc.catastro.meh.es/OVCServWeb/OVCWcfLibres/OVCFotoFachada.svc/RecuperarFotoFachadaGet?ReferenciaCatastral=0127313TL9402N"/>
</node>
<node id="-361" action="modify" visible="true" lon="-5.501282836396438" lat="41.00675585598368">
  <tag k="addr:street" v="Calle del Palomar"/>
  <tag k="addr:housenumber" v="10"/>
  <tag k="addr:postcode" v="37340"/>
  <tag k="entrance" v="yes"/>
  <tag k="image" v="http://ovc.catastro.meh.es/OVCServWeb/OVCWcfLibres/OVCFotoFachada.svc/RecuperarFotoFachadaGet?ReferenciaCatastral=9727210TL8492N"/>
</node>
<node id="-379" action="modify" visible="true" lon="-5.5025414908042665" lat="41.00777041278198">
  <tag k="addr:street" v="Calle Camino de los Partidos"/>
  <tag k="addr:housenumber" v="8"/>
  <tag k="addr:postcode" v="37340"/>
  <tag k="image" v="http://ovc.catastro.meh.es/OVCServWeb/OVCWcfLibres/OVCFotoFachada.svc/RecuperarFotoFachadaGet?ReferenciaCatastral=9528508TL8492N"/>
</node>
<node id="-415" action="modify" visible="true" lon="-5.501466318552049" lat="41.007334676685545">
  <tag k="addr:street" v="Calle de San Pedro"/>
  <tag k="addr:housenumber" v="13"/>
  <tag k="addr:postcode" v="37340"/>
  <tag k="entrance" v="yes"/>
  <tag k="image" v="http://ovc.catastro.meh.es/OVCServWeb/OVCWcfLibres/OVCFotoFachada.svc/RecuperarFotoFachadaGet?ReferenciaCatastral=9727221TL8492N"/>
</node>
<node id="-16" action="modify" visible="true" lon="-5.498477866366081" lat="41.00877523270093">
  <tag k="addr:street" v="Calle del Arenal"/>
  <tag k="addr:housenumber" v="13"/>
  <tag k="addr:postcode" v="37340"/>
  <tag k="entrance" v="yes"/>
  <tag k="image" v="http://ovc.catastro.meh.es/OVCServWeb/OVCWcfLibres/OVCFotoFachada.svc/RecuperarFotoFachadaGet?ReferenciaCatastral=9929102TL8492N"/>
</node>
<node id="-34" action="modify" visible="true" lon="-5.49738706974575" lat="41.00946939012967">
  <tag k="addr:street" v="Calle del Arenal"/>
  <tag k="addr:housenumber" v="44"/>
  <tag k="addr:postcode" v="37340"/>
  <tag k="entrance" v="yes"/>
  <tag k="image" v="http://ovc.catastro.meh.es/OVCServWeb/OVCWcfLibres/OVCFotoFachada.svc/RecuperarFotoFachadaGet?ReferenciaCatastral=0029603TL9402N"/>
</node>
<node id="-52" action="modify" visible="true" lon="-5.496981657627312" lat="41.00812306731584">
  <tag k="addr:street" v="Calle de Torrubio"/>
  <tag k="addr:housenumber" v="27"/>
  <tag k="addr:postcode" v="37340"/>
  <tag k="entrance" v="yes"/>
  <tag k="image" v="http://ovc.catastro.meh.es/OVCServWeb/OVCWcfLibres/OVCFotoFachada.svc/RecuperarFotoFachadaGet?ReferenciaCatastral=0028504TL9402N"/>
</node>
<node id="-70" action="modify" visible="true" lon="-5.496906216352244" lat="41.008568157844735">
  <tag k="addr:street" v="Calle de San Miguel"/>
  <tag k="addr:housenumber" v="3"/>
  <tag k="addr:postcode" v="37340"/>
  <tag k="entrance" v="yes"/>
  <tag k="image" v="http://ovc.catastro.meh.es/OVCServWeb/OVCWcfLibres/OVCFotoFachada.svc/RecuperarFotoFachadaGet?ReferenciaCatastral=0028516TL9402N"/>
</node>
<node id="-88" action="modify" visible="true" lon="-5.497549185287145" lat="41.006594680117914">
  <tag k="addr:street" v="Calle de las Huertas"/>
  <tag k="addr:housenumber" v="32"/>
  <tag k="addr:postcode" v="37340"/>
  <tag k="entrance" v="yes"/>
  <tag k="image" v="http://ovc.catastro.meh.es/OVCServWeb/OVCWcfLibres/OVCFotoFachada.svc/RecuperarFotoFachadaGet?ReferenciaCatastral=0027608TL9402N"/>
</node>
<node id="-124" action="modify" visible="true" lon="-5.500209846991819" lat="41.00756916017017">
  <tag k="addr:street" v="Avenida de los Labradores"/>
  <tag k="addr:housenumber" v="6"/>
  <tag k="addr:postcode" v="37340"/>
  <tag k="entrance" v="yes"/>
  <tag k="image" v="http://ovc.catastro.meh.es/OVCServWeb/OVCWcfLibres/OVCFotoFachada.svc/RecuperarFotoFachadaGet?ReferenciaCatastral=9828204TL8492N"/>
</node>
<node id="-142" action="modify" visible="true" lon="-5.500698589929995" lat="41.008372751366615">
  <tag k="addr:street" v="Calle de Cantarranas"/>
  <tag k="addr:housenumber" v="4"/>
  <tag k="addr:postcode" v="37340"/>
  <tag k="entrance" v="yes"/>
  <tag k="image" v="http://ovc.catastro.meh.es/OVCServWeb/OVCWcfLibres/OVCFotoFachada.svc/RecuperarFotoFachadaGet?ReferenciaCatastral=9728526TL8492N"/>
</node>
<node id="-106" action="modify" visible="true" lon="-5.500567839791958" lat="41.00717453887972">
  <tag k="addr:street" v="Avenida de los Labradores"/>
  <tag k="addr:housenumber" v="14"/>
  <tag k="addr:postcode" v="37340"/>
  <tag k="entrance" v="yes"/>
  <tag k="image" v="http://ovc.catastro.meh.es/OVCServWeb/OVCWcfLibres/OVCFotoFachada.svc/RecuperarFotoFachadaGet?ReferenciaCatastral=9727504TL8492N"/>
</node>
<node id="-196" action="modify" visible="true" lon="-5.494791822702943" lat="41.00589437432097">
  <tag k="addr:street" v="Calle de la Rinconada"/>
  <tag k="addr:housenumber" v="5B"/>
  <tag k="addr:postcode" v="37340"/>
  <tag k="image" v="http://ovc.catastro.meh.es/OVCServWeb/OVCWcfLibres/OVCFotoFachada.svc/RecuperarFotoFachadaGet?ReferenciaCatastral=0226805TL9402N"/>
</node>
<node id="-160" action="modify" visible="true" lon="-5.501677096006847" lat="41.00858391851808">
  <tag k="addr:street" v="Calle de la Fuente"/>
  <tag k="addr:housenumber" v="22"/>
  <tag k="addr:postcode" v="37340"/>
  <tag k="entrance" v="yes"/>
  <tag k="image" v="http://ovc.catastro.meh.es/OVCServWeb/OVCWcfLibres/OVCFotoFachada.svc/RecuperarFotoFachadaGet?ReferenciaCatastral=9729935TL8492N"/>
</node>
<node id="-61" action="modify" visible="true" lon="-5.498160887517695" lat="41.007633859996936">
  <tag k="addr:street" v="Calle de Torrubio"/>
  <tag k="addr:housenumber" v="4"/>
  <tag k="addr:postcode" v="37340"/>
  <tag k="image" v="http://ovc.catastro.meh.es/OVCServWeb/OVCWcfLibres/OVCFotoFachada.svc/RecuperarFotoFachadaGet?ReferenciaCatastral=0027621TL9402N"/>
</node>
<node id="-79" action="modify" visible="true" lon="-5.4976334717670445" lat="41.00725990755658">
  <tag k="addr:street" v="Calle de las Huertas"/>
  <tag k="addr:housenumber" v="16"/>
  <tag k="addr:postcode" v="37340"/>
  <tag k="entrance" v="yes"/>
  <tag k="image" v="http://ovc.catastro.meh.es/OVCServWeb/OVCWcfLibres/OVCFotoFachada.svc/RecuperarFotoFachadaGet?ReferenciaCatastral=0027617TL9402N"/>
</node>
<node id="-25" action="modify" visible="true" lon="-5.497990565408882" lat="41.00886786314906">
  <tag k="addr:street" v="Calle del Arenal"/>
  <tag k="addr:housenumber" v="30"/>
  <tag k="addr:postcode" v="37340"/>
  <tag k="image" v="http://ovc.catastro.meh.es/OVCServWeb/OVCWcfLibres/OVCFotoFachada.svc/RecuperarFotoFachadaGet?ReferenciaCatastral=0029122TL9402N"/>
</node>
<node id="-43" action="modify" visible="true" lon="-5.4976096327122805" lat="41.00800577039384">
  <tag k="addr:street" v="Calle de Torrubio"/>
  <tag k="addr:housenumber" v="13"/>
  <tag k="addr:postcode" v="37340"/>
  <tag k="entrance" v="yes"/>
  <tag k="image" v="http://ovc.catastro.meh.es/OVCServWeb/OVCWcfLibres/OVCFotoFachada.svc/RecuperarFotoFachadaGet?ReferenciaCatastral=0029105TL9402N"/>
</node>
<node id="-97" action="modify" visible="true" lon="-5.497679997792158" lat="41.00758923659361">
  <tag k="addr:street" v="Calle de las Huertas"/>
  <tag k="addr:housenumber" v="6"/>
  <tag k="addr:postcode" v="37340"/>
  <tag k="image" v="http://ovc.catastro.meh.es/OVCServWeb/OVCWcfLibres/OVCFotoFachada.svc/RecuperarFotoFachadaGet?ReferenciaCatastral=0027622TL9402N"/>
</node>
<node id="-115" action="modify" visible="true" lon="-5.500507927055798" lat="41.0069556083873">
  <tag k="addr:street" v="Avenida de los Labradores"/>
  <tag k="addr:housenumber" v="29"/>
  <tag k="addr:postcode" v="37340"/>
  <tag k="image" v="http://ovc.catastro.meh.es/OVCServWeb/OVCWcfLibres/OVCFotoFachada.svc/RecuperarFotoFachadaGet?ReferenciaCatastral=9827418TL8492N"/>
</node>
<node id="-133" action="modify" visible="true" lon="-5.499437322651473" lat="41.00864216783551">
  <tag k="addr:street" v="Calle de Cantarranas"/>
  <tag k="addr:housenumber" v="26"/>
  <tag k="addr:postcode" v="37340"/>
  <tag k="entrance" v="yes"/>
  <tag k="image" v="http://ovc.catastro.meh.es/OVCServWeb/OVCWcfLibres/OVCFotoFachada.svc/RecuperarFotoFachadaGet?ReferenciaCatastral=9929120TL8492N"/>
</node>
<node id="-151" action="modify" visible="true" lon="-5.500614897470634" lat="41.0083981650921">
  <tag k="addr:street" v="Calle de Cantarranas"/>
  <tag k="addr:housenumber" v="6"/>
  <tag k="addr:postcode" v="37340"/>
  <tag k="entrance" v="yes"/>
  <tag k="image" v="http://ovc.catastro.meh.es/OVCServWeb/OVCWcfLibres/OVCFotoFachada.svc/RecuperarFotoFachadaGet?ReferenciaCatastral=9728525TL8492N"/>
</node>
<node id="-169" action="modify" visible="true" lon="-5.501367728208369" lat="41.006483935378384">
  <tag k="addr:street" v="Calle de Benito Herreros"/>
  <tag k="addr:housenumber" v="14"/>
  <tag k="addr:postcode" v="37340"/>
  <tag k="entrance" v="yes"/>
  <tag k="image" v="http://ovc.catastro.meh.es/OVCServWeb/OVCWcfLibres/OVCFotoFachada.svc/RecuperarFotoFachadaGet?ReferenciaCatastral=9727007TL8492N"/>
</node>
<node id="-239" action="modify" visible="true" lon="-5.496475200728625" lat="41.006368869164504">
  <tag k="addr:street" v="Calle del Prado"/>
  <tag k="addr:housenumber" v="41"/>
  <tag k="addr:postcode" v="37340"/>
  <tag k="entrance" v="yes"/>
  <tag k="image" v="http://ovc.catastro.meh.es/OVCServWeb/OVCWcfLibres/OVCFotoFachada.svc/RecuperarFotoFachadaGet?ReferenciaCatastral=0126909TL9402N"/>
</node>
<node id="-228" action="modify" visible="true" lon="-5.499796801759587" lat="41.00827829014868">
  <tag k="addr:street" v="Calle del Peligro"/>
  <tag k="addr:housenumber" v="5"/>
  <tag k="addr:postcode" v="37340"/>
  <tag k="entrance" v="yes"/>
  <tag k="image" v="http://ovc.catastro.meh.es/OVCServWeb/OVCWcfLibres/OVCFotoFachada.svc/RecuperarFotoFachadaGet?ReferenciaCatastral=9728509TL8492N"/>
</node>
<node id="-399" action="modify" visible="true" lon="-5.492069239863832" lat="41.00512981771461">
  <tag k="addr:street" v="Calle R&#237;o Tormes"/>
  <tag k="addr:housenumber" v="11"/>
  <tag k="addr:postcode" v="37340"/>
  <tag k="image" v="http://ovc.catastro.meh.es/OVCServWeb/OVCWcfLibres/OVCFotoFachada.svc/RecuperarFotoFachadaGet?ReferenciaCatastral=0525206TL9402N"/>
</node>
<node id="-444" action="modify" visible="true" lon="-5.503616643917217" lat="41.00945641170443">
  <tag k="addr:street" v="Plaza de la Fuente"/>
  <tag k="addr:housenumber" v="7"/>
  <tag k="addr:postcode" v="37340"/>
  <tag k="image" v="http://ovc.catastro.meh.es/OVCServWeb/OVCWcfLibres/OVCFotoFachada.svc/RecuperarFotoFachadaGet?ReferenciaCatastral=9530202TL8493S"/>
</node>
<node id="-210" action="modify" visible="true" lon="-5.496663147596809" lat="41.00878638498636">
  <tag k="addr:street" v="Calle del Matadero"/>
  <tag k="addr:housenumber" v="12"/>
  <tag k="addr:postcode" v="37340"/>
  <tag k="image" v="http://ovc.catastro.meh.es/OVCServWeb/OVCWcfLibres/OVCFotoFachada.svc/RecuperarFotoFachadaGet?ReferenciaCatastral=0129301TL9402N"/>
</node>
<node id="-224" action="modify" visible="true" lon="-5.499851583948234" lat="41.0084577162302">
  <tag k="addr:street" v="Calle del Peligro"/>
  <tag k="addr:housenumber" v="12"/>
  <tag k="addr:postcode" v="37340"/>
  <tag k="entrance" v="yes"/>
  <tag k="image" v="http://ovc.catastro.meh.es/OVCServWeb/OVCWcfLibres/OVCFotoFachada.svc/RecuperarFotoFachadaGet?ReferenciaCatastral=9929123TL8492N"/>
</node>
<node id="-170" action="modify" visible="true" lon="-5.501536708400176" lat="41.00642687759674">
  <tag k="addr:street" v="Calle de Benito Herreros"/>
  <tag k="addr:housenumber" v="18"/>
  <tag k="addr:postcode" v="37340"/>
  <tag k="entrance" v="yes"/>
  <tag k="image" v="http://ovc.catastro.meh.es/OVCServWeb/OVCWcfLibres/OVCFotoFachada.svc/RecuperarFotoFachadaGet?ReferenciaCatastral=9727009TL8492N"/>
</node>
<node id="-307" action="modify" visible="true" lon="-5.52432176260269" lat="40.97822041342204">
  <tag k="addr:place" v="Caser&#237;o Islas Caballo"/>
  <tag k="addr:housenumber" v="30"/>
  <tag k="addr:postcode" v="37340"/>
  <tag k="image" v="http://ovc.catastro.meh.es/OVCServWeb/OVCWcfLibres/OVCFotoFachada.svc/RecuperarFotoFachadaGet?ReferenciaCatastral=000301000TL83H"/>
</node>
<node id="-408" action="modify" visible="true" lon="-5.492257535193001" lat="41.00530874008457">
  <tag k="addr:street" v="Calle R&#237;o Tormes"/>
  <tag k="addr:housenumber" v="5"/>
  <tag k="addr:postcode" v="37340"/>
  <tag k="image" v="http://ovc.catastro.meh.es/OVCServWeb/OVCWcfLibres/OVCFotoFachada.svc/RecuperarFotoFachadaGet?ReferenciaCatastral=0525203TL9402N"/>
</node>
<node id="-263" action="modify" visible="true" lon="-5.501994032838002" lat="41.006071456185296">
  <tag k="addr:street" v="Calle de Salamanca"/>
  <tag k="addr:housenumber" v="16"/>
  <tag k="addr:postcode" v="37340"/>
  <tag k="entrance" v="yes"/>
  <tag k="image" v="http://ovc.catastro.meh.es/OVCServWeb/OVCWcfLibres/OVCFotoFachada.svc/RecuperarFotoFachadaGet?ReferenciaCatastral=9626508TL8492N"/>
</node>
<node id="-299" action="modify" visible="true" lon="-5.501661067085411" lat="41.00755306511878">
  <tag k="addr:street" v="Calle de Can&#243;nigo Bellido"/>
  <tag k="addr:housenumber" v="8"/>
  <tag k="addr:postcode" v="37340"/>
  <tag k="entrance" v="yes"/>
  <tag k="image" v="http://ovc.catastro.meh.es/OVCServWeb/OVCWcfLibres/OVCFotoFachada.svc/RecuperarFotoFachadaGet?ReferenciaCatastral=9628615TL8492N"/>
</node>
<node id="-335" action="modify" visible="true" lon="-5.49920490708063" lat="41.0091947384523">
  <tag k="addr:street" v="Calle Comuneros de Castilla"/>
  <tag k="addr:housenumber" v="7"/>
  <tag k="addr:postcode" v="37340"/>
  <tag k="entrance" v="yes"/>
  <tag k="image" v="http://ovc.catastro.meh.es/OVCServWeb/OVCWcfLibres/OVCFotoFachada.svc/RecuperarFotoFachadaGet?ReferenciaCatastral=9829504TL8492N"/>
</node>
<node id="-181" action="modify" visible="true" lon="-5.502903021772985" lat="41.00824898275508">
  <tag k="addr:street" v="Calle de Arriba"/>
  <tag k="addr:housenumber" v="14"/>
  <tag k="addr:postcode" v="37340"/>
  <tag k="entrance" v="yes"/>
  <tag k="image" v="http://ovc.catastro.meh.es/OVCServWeb/OVCWcfLibres/OVCFotoFachada.svc/RecuperarFotoFachadaGet?ReferenciaCatastral=9529915TL8492N"/>
</node>
<node id="-317" action="modify" visible="true" lon="-5.496662485018273" lat="41.00944646546853">
  <tag k="addr:street" v="Calle constituci&#243;n"/>
  <tag k="addr:housenumber" v="3"/>
  <tag k="addr:postcode" v="37340"/>
  <tag k="image" v="http://ovc.catastro.meh.es/OVCServWeb/OVCWcfLibres/OVCFotoFachada.svc/RecuperarFotoFachadaGet?ReferenciaCatastral=0130104TL9403S"/>
</node>
<node id="-281" action="modify" visible="true" lon="-5.50064452482195" lat="41.00769935103793">
  <tag k="addr:street" v="Calle Traviesa"/>
  <tag k="addr:housenumber" v="10"/>
  <tag k="addr:postcode" v="37340"/>
  <tag k="entrance" v="yes"/>
  <tag k="image" v="http://ovc.catastro.meh.es/OVCServWeb/OVCWcfLibres/OVCFotoFachada.svc/RecuperarFotoFachadaGet?ReferenciaCatastral=9728901TL8492N"/>
</node>
<node id="-353" action="modify" visible="true" lon="-5.496085062792016" lat="41.00787452212233">
  <tag k="addr:street" v="Paseo de los Jornaleros"/>
  <tag k="addr:housenumber" v="6"/>
  <tag k="addr:postcode" v="37340"/>
  <tag k="entrance" v="yes"/>
  <tag k="image" v="http://ovc.catastro.meh.es/OVCServWeb/OVCWcfLibres/OVCFotoFachada.svc/RecuperarFotoFachadaGet?ReferenciaCatastral=0127314TL9402N"/>
</node>
<node id="-371" action="modify" visible="true" lon="-5.502853949148864" lat="41.007514053549436">
  <tag k="addr:street" v="Calle Camino de los Partidos"/>
  <tag k="addr:housenumber" v="14"/>
  <tag k="addr:postcode" v="37340"/>
  <tag k="image" v="http://ovc.catastro.meh.es/OVCServWeb/OVCWcfLibres/OVCFotoFachada.svc/RecuperarFotoFachadaGet?ReferenciaCatastral=9528505TL8492N"/>
</node>
<node id="-389" action="modify" visible="true" lon="-5.498535777077852" lat="41.007754203400005">
  <tag k="addr:street" v="Plaza de la Villa"/>
  <tag k="addr:housenumber" v="6"/>
  <tag k="addr:postcode" v="37340"/>
  <tag k="entrance" v="yes"/>
  <tag k="image" v="http://ovc.catastro.meh.es/OVCServWeb/OVCWcfLibres/OVCFotoFachada.svc/RecuperarFotoFachadaGet?ReferenciaCatastral=0027630TL9402N"/>
</node>
<node id="-425" action="modify" visible="true" lon="-5.491575768193681" lat="41.00620825285845">
  <tag k="addr:street" v="Calle R&#237;o Huebra"/>
  <tag k="addr:housenumber" v="9"/>
  <tag k="addr:postcode" v="37340"/>
  <tag k="image" v="http://ovc.catastro.meh.es/OVCServWeb/OVCWcfLibres/OVCFotoFachada.svc/RecuperarFotoFachadaGet?ReferenciaCatastral=0526507TL9402N"/>
</node>
<node id="-254" action="modify" visible="true" lon="-5.498681885363781" lat="41.00828686467364">
  <tag k="addr:street" v="Calle de la rosa"/>
  <tag k="addr:housenumber" v="4"/>
  <tag k="addr:postcode" v="37340"/>
  <tag k="entrance" v="yes"/>
  <tag k="image" v="http://ovc.catastro.meh.es/OVCServWeb/OVCWcfLibres/OVCFotoFachada.svc/RecuperarFotoFachadaGet?ReferenciaCatastral=0029135TL9402N"/>
</node>
<node id="-290" action="modify" visible="true" lon="-5.500492171675708" lat="41.00773606277206">
  <tag k="addr:street" v="Calle Traviesa"/>
  <tag k="addr:housenumber" v="9"/>
  <tag k="addr:postcode" v="37340"/>
  <tag k="entrance" v="yes"/>
  <tag k="image" v="http://ovc.catastro.meh.es/OVCServWeb/OVCWcfLibres/OVCFotoFachada.svc/RecuperarFotoFachadaGet?ReferenciaCatastral=9828216TL8492N"/>
</node>
<node id="-326" action="modify" visible="true" lon="-5.499457178216285" lat="41.00911460042852">
  <tag k="addr:street" v="Calle Comuneros de Castilla"/>
  <tag k="addr:housenumber" v="1"/>
  <tag k="addr:postcode" v="37340"/>
  <tag k="entrance" v="yes"/>
  <tag k="image" v="http://ovc.catastro.meh.es/OVCServWeb/OVCWcfLibres/OVCFotoFachada.svc/RecuperarFotoFachadaGet?ReferenciaCatastral=9829501TL8492N"/>
</node>
<node id="-344" action="modify" visible="true" lon="-5.495660620313255" lat="41.00626932208052">
  <tag k="addr:street" v="Paseo de los Jornaleros"/>
  <tag k="addr:housenumber" v="42"/>
  <tag k="addr:postcode" v="37340"/>
  <tag k="entrance" v="yes"/>
  <tag k="image" v="http://ovc.catastro.meh.es/OVCServWeb/OVCWcfLibres/OVCFotoFachada.svc/RecuperarFotoFachadaGet?ReferenciaCatastral=0126606TL9402N"/>
</node>
<node id="-362" action="modify" visible="true" lon="-5.501467416313737" lat="41.00669413241653">
  <tag k="addr:street" v="Calle del Palomar"/>
  <tag k="addr:housenumber" v="12"/>
  <tag k="addr:postcode" v="37340"/>
  <tag k="image" v="http://ovc.catastro.meh.es/OVCServWeb/OVCWcfLibres/OVCFotoFachada.svc/RecuperarFotoFachadaGet?ReferenciaCatastral=9727211TL8492N"/>
</node>
<node id="-380" action="modify" visible="true" lon="-5.502914695863132" lat="41.007680174178425">
  <tag k="addr:street" v="Calle Camino de los Partidos"/>
  <tag k="addr:housenumber" v="8"/>
  <tag k="addr:postcode" v="37340"/>
  <tag k="image" v="http://ovc.catastro.meh.es/OVCServWeb/OVCWcfLibres/OVCFotoFachada.svc/RecuperarFotoFachadaGet?ReferenciaCatastral=9528508TL8492N"/>
</node>
<node id="-416" action="modify" visible="true" lon="-5.501401345973448" lat="41.00746056455897">
  <tag k="addr:street" v="Calle de San Pedro"/>
  <tag k="addr:housenumber" v="16"/>
  <tag k="addr:postcode" v="37340"/>
  <tag k="entrance" v="yes"/>
  <tag k="image" v="http://ovc.catastro.meh.es/OVCServWeb/OVCWcfLibres/OVCFotoFachada.svc/RecuperarFotoFachadaGet?ReferenciaCatastral=9628604TL8492N"/>
</node>
<node id="-434" action="modify" visible="true" lon="-5.49847058740055" lat="41.00590397374652">
  <tag k="addr:street" v="Calle de la Ermita"/>
  <tag k="addr:housenumber" v="8"/>
  <tag k="addr:postcode" v="37340"/>
  <tag k="image" v="http://ovc.catastro.meh.es/OVCServWeb/OVCWcfLibres/OVCFotoFachada.svc/RecuperarFotoFachadaGet?ReferenciaCatastral=0027664TL9402N"/>
</node>
<node id="-161" action="modify" visible="true" lon="-5.50168668450829" lat="41.008730896387874">
  <tag k="addr:street" v="Calle de la Fuente"/>
  <tag k="addr:housenumber" v="26"/>
  <tag k="addr:postcode" v="37340"/>
  <tag k="entrance" v="yes"/>
  <tag k="image" v="http://ovc.catastro.meh.es/OVCServWeb/OVCWcfLibres/OVCFotoFachada.svc/RecuperarFotoFachadaGet?ReferenciaCatastral=9729941TL8492N"/>
</node>
<node id="-179" action="modify" visible="true" lon="-5.502792364143928" lat="41.00827836561875">
  <tag k="addr:street" v="Calle de Arriba"/>
  <tag k="addr:housenumber" v="12"/>
  <tag k="addr:postcode" v="37340"/>
  <tag k="entrance" v="yes"/>
  <tag k="image" v="http://ovc.catastro.meh.es/OVCServWeb/OVCWcfLibres/OVCFotoFachada.svc/RecuperarFotoFachadaGet?ReferenciaCatastral=9529904TL8492N"/>
</node>
<node id="-125" action="modify" visible="true" lon="-5.500198077789369" lat="41.00752392487073">
  <tag k="addr:street" v="Avenida de los Labradores"/>
  <tag k="addr:housenumber" v="7"/>
  <tag k="addr:postcode" v="37340"/>
  <tag k="entrance" v="yes"/>
  <tag k="image" v="http://ovc.catastro.meh.es/OVCServWeb/OVCWcfLibres/OVCFotoFachada.svc/RecuperarFotoFachadaGet?ReferenciaCatastral=9827411TL8492N"/>
</node>
<node id="-143" action="modify" visible="true" lon="-5.4984853050636735" lat="41.00890199083521">
  <tag k="addr:street" v="Calle de Cantarranas"/>
  <tag k="addr:housenumber" v="44"/>
  <tag k="addr:postcode" v="37340"/>
  <tag k="entrance" v="yes"/>
  <tag k="image" v="http://ovc.catastro.meh.es/OVCServWeb/OVCWcfLibres/OVCFotoFachada.svc/RecuperarFotoFachadaGet?ReferenciaCatastral=9929101TL8492N"/>
</node>
<node id="-17" action="modify" visible="true" lon="-5.498350795910754" lat="41.00879330759313">
  <tag k="addr:street" v="Calle del Arenal"/>
  <tag k="addr:housenumber" v="18"/>
  <tag k="addr:postcode" v="37340"/>
  <tag k="entrance" v="yes"/>
  <tag k="image" v="http://ovc.catastro.meh.es/OVCServWeb/OVCWcfLibres/OVCFotoFachada.svc/RecuperarFotoFachadaGet?ReferenciaCatastral=0029147TL9402N"/>
</node>
<node id="-35" action="modify" visible="true" lon="-5.496985342266514" lat="41.00965872628846">
  <tag k="addr:street" v="Calle del Arenal"/>
  <tag k="addr:housenumber" v="46"/>
  <tag k="addr:postcode" v="37340"/>
  <tag k="entrance" v="yes"/>
  <tag k="image" v="http://ovc.catastro.meh.es/OVCServWeb/OVCWcfLibres/OVCFotoFachada.svc/RecuperarFotoFachadaGet?ReferenciaCatastral=0130207TL9403S"/>
</node>
<node id="-53" action="modify" visible="true" lon="-5.496876022767981" lat="41.00813899633284">
  <tag k="addr:street" v="Calle de Torrubio"/>
  <tag k="addr:housenumber" v="29"/>
  <tag k="addr:postcode" v="37340"/>
  <tag k="entrance" v="yes"/>
  <tag k="image" v="http://ovc.catastro.meh.es/OVCServWeb/OVCWcfLibres/OVCFotoFachada.svc/RecuperarFotoFachadaGet?ReferenciaCatastral=0028503TL9402N"/>
</node>
<node id="-71" action="modify" visible="true" lon="-5.496999017005444" lat="41.00851067880957">
  <tag k="addr:street" v="Calle de San Miguel"/>
  <tag k="addr:housenumber" v="5"/>
  <tag k="addr:postcode" v="37340"/>
  <tag k="entrance" v="yes"/>
  <tag k="image" v="http://ovc.catastro.meh.es/OVCServWeb/OVCWcfLibres/OVCFotoFachada.svc/RecuperarFotoFachadaGet?ReferenciaCatastral=0028508TL9402N"/>
</node>
<node id="-89" action="modify" visible="true" lon="-5.497540588377723" lat="41.006510014932346">
  <tag k="addr:street" v="Calle de las Huertas"/>
  <tag k="addr:housenumber" v="34"/>
  <tag k="addr:postcode" v="37340"/>
  <tag k="entrance" v="yes"/>
  <tag k="image" v="http://ovc.catastro.meh.es/OVCServWeb/OVCWcfLibres/OVCFotoFachada.svc/RecuperarFotoFachadaGet?ReferenciaCatastral=0027607TL9402N"/>
</node>
<node id="-107" action="modify" visible="true" lon="-5.499877238659577" lat="41.007148863852144">
  <tag k="addr:street" v="Avenida de los Labradores"/>
  <tag k="addr:housenumber" v="15"/>
  <tag k="addr:postcode" v="37340"/>
  <tag k="entrance" v="yes"/>
  <tag k="image" v="http://ovc.catastro.meh.es/OVCServWeb/OVCWcfLibres/OVCFotoFachada.svc/RecuperarFotoFachadaGet?ReferenciaCatastral=9827414TL8492N"/>
</node>
<node id="-217" action="modify" visible="true" lon="-5.497108692055848" lat="41.0095321997753">
  <tag k="addr:street" v="Calle del Matadero"/>
  <tag k="addr:housenumber" v="26"/>
  <tag k="addr:postcode" v="37340"/>
  <tag k="entrance" v="yes"/>
  <tag k="image" v="http://ovc.catastro.meh.es/OVCServWeb/OVCWcfLibres/OVCFotoFachada.svc/RecuperarFotoFachadaGet?ReferenciaCatastral=0129308TL9402N"/>
</node>
<node id="-238" action="modify" visible="true" lon="-5.496657344030132" lat="41.00638492734716">
  <tag k="addr:street" v="Calle del Prado"/>
  <tag k="addr:housenumber" v="32"/>
  <tag k="addr:postcode" v="37340"/>
  <tag k="image" v="http://ovc.catastro.meh.es/OVCServWeb/OVCWcfLibres/OVCFotoFachada.svc/RecuperarFotoFachadaGet?ReferenciaCatastral=0126801TL9402N"/>
</node>
<node id="-44" action="modify" visible="true" lon="-5.497092682895777" lat="41.008020985196204">
  <tag k="addr:street" v="Calle de Torrubio"/>
  <tag k="addr:housenumber" v="14"/>
  <tag k="addr:postcode" v="37340"/>
  <tag k="entrance" v="yes"/>
  <tag k="image" v="http://ovc.catastro.meh.es/OVCServWeb/OVCWcfLibres/OVCFotoFachada.svc/RecuperarFotoFachadaGet?ReferenciaCatastral=0127308TL9402N"/>
</node>
<node id="-62" action="modify" visible="true" lon="-5.494970941927908" lat="41.008327362069416">
  <tag k="addr:street" v="Calle de Torrubio"/>
  <tag k="addr:housenumber" v="49"/>
  <tag k="addr:postcode" v="37340"/>
  <tag k="entrance" v="yes"/>
  <tag k="image" v="http://ovc.catastro.meh.es/OVCServWeb/OVCWcfLibres/OVCFotoFachada.svc/RecuperarFotoFachadaGet?ReferenciaCatastral=0228401TL9402N"/>
</node>
<node id="-10" action="modify" visible="true" lon="-5.4999606296513655" lat="41.0079657656355">
  <tag k="addr:street" v="Calle de las Angustias"/>
  <tag k="addr:housenumber" v="4"/>
  <tag k="addr:postcode" v="37340"/>
  <tag k="entrance" v="yes"/>
  <tag k="image" v="http://ovc.catastro.meh.es/OVCServWeb/OVCWcfLibres/OVCFotoFachada.svc/RecuperarFotoFachadaGet?ReferenciaCatastral=9728503TL8492N"/>
</node>
<node id="-26" action="modify" visible="true" lon="-5.4979267952739" lat="41.00942096202822">
  <tag k="addr:street" v="Calle del Arenal"/>
  <tag k="addr:housenumber" v="31"/>
  <tag k="addr:postcode" v="37340"/>
  <tag k="image" v="http://ovc.catastro.meh.es/OVCServWeb/OVCWcfLibres/OVCFotoFachada.svc/RecuperarFotoFachadaGet?ReferenciaCatastral=0030106TL9403S"/>
</node>
<node id="-80" action="modify" visible="true" lon="-5.497444044875199" lat="41.006419381410446">
  <tag k="addr:street" v="Calle de las Huertas"/>
  <tag k="addr:housenumber" v="17"/>
  <tag k="addr:postcode" v="37340"/>
  <tag k="entrance" v="yes"/>
  <tag k="image" v="http://ovc.catastro.meh.es/OVCServWeb/OVCWcfLibres/OVCFotoFachada.svc/RecuperarFotoFachadaGet?ReferenciaCatastral=0026402TL9402N"/>
</node>
<node id="-98" action="modify" visible="true" lon="-5.497465769925283" lat="41.006859961887805">
  <tag k="addr:street" v="Calle de las Huertas"/>
  <tag k="addr:housenumber" v="7"/>
  <tag k="addr:postcode" v="37340"/>
  <tag k="image" v="http://ovc.catastro.meh.es/OVCServWeb/OVCWcfLibres/OVCFotoFachada.svc/RecuperarFotoFachadaGet?ReferenciaCatastral=0027902TL9402N"/>
</node>
<node id="-116" action="modify" visible="true" lon="-5.499986728509965" lat="41.00757756520713">
  <tag k="addr:street" v="Avenida de los Labradores"/>
  <tag k="addr:housenumber" v="3"/>
  <tag k="addr:postcode" v="37340"/>
  <tag k="entrance" v="yes"/>
  <tag k="image" v="http://ovc.catastro.meh.es/OVCServWeb/OVCWcfLibres/OVCFotoFachada.svc/RecuperarFotoFachadaGet?ReferenciaCatastral=9827409TL8492N"/>
</node>
<node id="-134" action="modify" visible="true" lon="-5.500408259078707" lat="41.00858916310345">
  <tag k="addr:street" v="Calle de Cantarranas"/>
  <tag k="addr:housenumber" v="29"/>
  <tag k="addr:postcode" v="37340"/>
  <tag k="entrance" v="yes"/>
  <tag k="image" v="http://ovc.catastro.meh.es/OVCServWeb/OVCWcfLibres/OVCFotoFachada.svc/RecuperarFotoFachadaGet?ReferenciaCatastral=9729909TL8492N"/>
</node>
<node id="-397" action="modify" visible="true" lon="-5.492197683039175" lat="41.00553852980571">
  <tag k="addr:street" v="Calle R&#237;o Tormes"/>
  <tag k="addr:housenumber" v="1"/>
  <tag k="addr:postcode" v="37340"/>
  <tag k="image" v="http://ovc.catastro.meh.es/OVCServWeb/OVCWcfLibres/OVCFotoFachada.svc/RecuperarFotoFachadaGet?ReferenciaCatastral=0525201TL9402N"/>
</node>
<node id="-193" action="modify" visible="true" lon="-5.50261491802217" lat="41.008654124423074">
  <tag k="addr:street" v="Calle del Jard&#237;n"/>
  <tag k="addr:housenumber" v="5"/>
  <tag k="addr:postcode" v="37340"/>
  <tag k="entrance" v="yes"/>
  <tag k="image" v="http://ovc.catastro.meh.es/OVCServWeb/OVCWcfLibres/OVCFotoFachada.svc/RecuperarFotoFachadaGet?ReferenciaCatastral=9529909TL8492N"/>
</node>
<node id="-172" action="modify" visible="true" lon="-5.5018766128991325" lat="41.00632656356856">
  <tag k="addr:street" v="Calle de Benito Herreros"/>
  <tag k="addr:housenumber" v="24"/>
  <tag k="addr:postcode" v="37340"/>
  <tag k="entrance" v="yes"/>
  <tag k="image" v="http://ovc.catastro.meh.es/OVCServWeb/OVCWcfLibres/OVCFotoFachada.svc/RecuperarFotoFachadaGet?ReferenciaCatastral=9727013TL8492N"/>
</node>
<node id="-221" action="modify" visible="true" lon="-5.499012643848536" lat="41.00810009136288">
  <tag k="addr:street" v="Plaza de la Libertad"/>
  <tag k="addr:housenumber" v="5"/>
  <tag k="addr:postcode" v="37340"/>
  <tag k="entrance" v="yes"/>
  <tag k="image" v="http://ovc.catastro.meh.es/OVCServWeb/OVCWcfLibres/OVCFotoFachada.svc/RecuperarFotoFachadaGet?ReferenciaCatastral=9928307TL8492N"/>
</node>
<node id="-198" action="modify" visible="true" lon="-5.499940442963156" lat="41.00787377904728">
  <tag k="addr:street" v="Plaza del Hospital"/>
  <tag k="addr:housenumber" v="13"/>
  <tag k="addr:postcode" v="37340"/>
  <tag k="entrance" v="yes"/>
  <tag k="image" v="http://ovc.catastro.meh.es/OVCServWeb/OVCWcfLibres/OVCFotoFachada.svc/RecuperarFotoFachadaGet?ReferenciaCatastral=9828209TL8492N"/>
</node>
<node id="-190" action="modify" visible="true" lon="-5.502845247143057" lat="41.00850789616319">
  <tag k="addr:street" v="Calle del Jard&#237;n"/>
  <tag k="addr:housenumber" v="1"/>
  <tag k="addr:postcode" v="37340"/>
  <tag k="entrance" v="yes"/>
  <tag k="image" v="http://ovc.catastro.meh.es/OVCServWeb/OVCWcfLibres/OVCFotoFachada.svc/RecuperarFotoFachadaGet?ReferenciaCatastral=9529907TL8492N"/>
</node>
<node id="-272" action="modify" visible="true" lon="-5.4978709091015165" lat="41.00657508908728">
  <tag k="addr:street" v="Traves&#237;a del Tejar"/>
  <tag k="addr:housenumber" v="15"/>
  <tag k="addr:postcode" v="37340"/>
  <tag k="entrance" v="yes"/>
  <tag k="image" v="http://ovc.catastro.meh.es/OVCServWeb/OVCWcfLibres/OVCFotoFachada.svc/RecuperarFotoFachadaGet?ReferenciaCatastral=0027677TL9402N"/>
</node>
<node id="-308" action="modify" visible="true" lon="-5.5245305210368505" lat="40.9782251165391">
  <tag k="addr:place" v="Caser&#237;o Islas Caballo"/>
  <tag k="addr:housenumber" v="31"/>
  <tag k="addr:postcode" v="37340"/>
  <tag k="image" v="http://ovc.catastro.meh.es/OVCServWeb/OVCWcfLibres/OVCFotoFachada.svc/RecuperarFotoFachadaGet?ReferenciaCatastral=000300600TL83H"/>
</node>
<node id="-406" action="modify" visible="true" lon="-5.492319969591334" lat="41.0053680652064">
  <tag k="addr:street" v="Calle R&#237;o Tormes"/>
  <tag k="addr:housenumber" v="3"/>
  <tag k="addr:postcode" v="37340"/>
  <tag k="image" v="http://ovc.catastro.meh.es/OVCServWeb/OVCWcfLibres/OVCFotoFachada.svc/RecuperarFotoFachadaGet?ReferenciaCatastral=0525202TL9402N"/>
</node>
<node id="-318" action="modify" visible="true" lon="-5.4965111778169184" lat="41.009488312792044">
  <tag k="addr:street" v="Calle constituci&#243;n"/>
  <tag k="addr:housenumber" v="5"/>
  <tag k="addr:postcode" v="37340"/>
  <tag k="entrance" v="yes"/>
  <tag k="image" v="http://ovc.catastro.meh.es/OVCServWeb/OVCWcfLibres/OVCFotoFachada.svc/RecuperarFotoFachadaGet?ReferenciaCatastral=0130103TL9403S"/>
</node>
<node id="-300" action="modify" visible="true" lon="-5.50083130612663" lat="41.00736102968351">
  <tag k="addr:street" v="Calle de Can&#243;nigo Bellido"/>
  <tag k="addr:housenumber" v="9"/>
  <tag k="addr:postcode" v="37340"/>
  <tag k="entrance" v="yes"/>
  <tag k="image" v="http://ovc.catastro.meh.es/OVCServWeb/OVCWcfLibres/OVCFotoFachada.svc/RecuperarFotoFachadaGet?ReferenciaCatastral=9727513TL8492N"/>
</node>
<node id="-336" action="modify" visible="true" lon="-5.499178045345879" lat="41.00911814970295">
  <tag k="addr:street" v="Calle Comuneros de Castilla"/>
  <tag k="addr:housenumber" v="8"/>
  <tag k="addr:postcode" v="37340"/>
  <tag k="image" v="http://ovc.catastro.meh.es/OVCServWeb/OVCWcfLibres/OVCFotoFachada.svc/RecuperarFotoFachadaGet?ReferenciaCatastral=9929310TL8492N"/>
</node>
<node id="-180" action="modify" visible="true" lon="-5.503386357176041" lat="41.008044011328366">
  <tag k="addr:street" v="Calle de Arriba"/>
  <tag k="addr:housenumber" v="13E"/>
  <tag k="addr:postcode" v="37340"/>
  <tag k="entrance" v="yes"/>
  <tag k="image" v="http://ovc.catastro.meh.es/OVCServWeb/OVCWcfLibres/OVCFotoFachada.svc/RecuperarFotoFachadaGet?ReferenciaCatastral=9528501TL8492N"/>
</node>
<node id="-204" action="modify" visible="true" lon="-5.499344518877562" lat="41.007523919381065">
  <tag k="addr:street" v="Plaza del Hospital"/>
  <tag k="addr:housenumber" v="4"/>
  <tag k="addr:postcode" v="37340"/>
  <tag k="entrance" v="yes"/>
  <tag k="image" v="http://ovc.catastro.meh.es/OVCServWeb/OVCWcfLibres/OVCFotoFachada.svc/RecuperarFotoFachadaGet?ReferenciaCatastral=9827403TL8492N"/>
</node>
<node id="-264" action="modify" visible="true" lon="-5.503107159445668" lat="41.00559035845265">
  <tag k="addr:street" v="Calle de Salamanca"/>
  <tag k="addr:housenumber" v="19"/>
  <tag k="addr:postcode" v="37340"/>
  <tag k="image" v="http://ovc.catastro.meh.es/OVCServWeb/OVCWcfLibres/OVCFotoFachada.svc/RecuperarFotoFachadaGet?ReferenciaCatastral=9825402TL8492N"/>
</node>
<node id="-282" action="modify" visible="true" lon="-5.500477842126624" lat="41.00761329106025">
  <tag k="addr:street" v="Calle Traviesa"/>
  <tag k="addr:housenumber" v="12"/>
  <tag k="addr:postcode" v="37340"/>
  <tag k="entrance" v="yes"/>
  <tag k="image" v="http://ovc.catastro.meh.es/OVCServWeb/OVCWcfLibres/OVCFotoFachada.svc/RecuperarFotoFachadaGet?ReferenciaCatastral=9727515TL8492N"/>
</node>
<node id="-354" action="modify" visible="true" lon="-5.496060704353831" lat="41.00778073612618">
  <tag k="addr:street" v="Paseo de los Jornaleros"/>
  <tag k="addr:housenumber" v="8"/>
  <tag k="addr:postcode" v="37340"/>
  <tag k="entrance" v="yes"/>
  <tag k="image" v="http://ovc.catastro.meh.es/OVCServWeb/OVCWcfLibres/OVCFotoFachada.svc/RecuperarFotoFachadaGet?ReferenciaCatastral=0127316TL9402N"/>
</node>
<node id="-372" action="modify" visible="true" lon="-5.502606089100187" lat="41.0079420207407">
  <tag k="addr:street" v="Calle Camino de los Partidos"/>
  <tag k="addr:housenumber" v="2"/>
  <tag k="addr:postcode" v="37340"/>
  <tag k="image" v="http://ovc.catastro.meh.es/OVCServWeb/OVCWcfLibres/OVCFotoFachada.svc/RecuperarFotoFachadaGet?ReferenciaCatastral=9528502TL8492N"/>
</node>
<node id="-390" action="modify" visible="true" lon="-5.498696234932492" lat="41.00773416151099">
  <tag k="addr:street" v="Plaza de la Villa"/>
  <tag k="addr:housenumber" v="7"/>
  <tag k="addr:postcode" v="37340"/>
  <tag k="image" v="http://ovc.catastro.meh.es/OVCServWeb/OVCWcfLibres/OVCFotoFachada.svc/RecuperarFotoFachadaGet?ReferenciaCatastral=0027631TL9402N"/>
</node>
<node id="-215" action="modify" visible="true" lon="-5.496929979756302" lat="41.00920520979849">
  <tag k="addr:street" v="Calle del Matadero"/>
  <tag k="addr:housenumber" v="20"/>
  <tag k="addr:postcode" v="37340"/>
  <tag k="entrance" v="yes"/>
  <tag k="image" v="http://ovc.catastro.meh.es/OVCServWeb/OVCWcfLibres/OVCFotoFachada.svc/RecuperarFotoFachadaGet?ReferenciaCatastral=0129305TL9402N"/>
</node>
<node id="-327" action="modify" visible="true" lon="-5.498385654468795" lat="41.009485900056355">
  <tag k="addr:street" v="Calle Comuneros de Castilla"/>
  <tag k="addr:housenumber" v="13"/>
  <tag k="addr:postcode" v="37340"/>
  <tag k="image" v="http://ovc.catastro.meh.es/OVCServWeb/OVCWcfLibres/OVCFotoFachada.svc/RecuperarFotoFachadaGet?ReferenciaCatastral=9930603TL8493S"/>
</node>
<node id="-208" action="modify" visible="true" lon="-5.499856287852026" lat="41.007719525474464">
  <tag k="addr:street" v="Plaza del Hospital"/>
  <tag k="addr:housenumber" v="8"/>
  <tag k="addr:postcode" v="37340"/>
  <tag k="entrance" v="yes"/>
  <tag k="image" v="http://ovc.catastro.meh.es/OVCServWeb/OVCWcfLibres/OVCFotoFachada.svc/RecuperarFotoFachadaGet?ReferenciaCatastral=9828803TL8492N"/>
</node>
<node id="-227" action="modify" visible="true" lon="-5.4995447087450104" lat="41.008181358949045">
  <tag k="addr:street" v="Calle del Peligro"/>
  <tag k="addr:housenumber" v="4"/>
  <tag k="addr:postcode" v="37340"/>
  <tag k="image" v="http://ovc.catastro.meh.es/OVCServWeb/OVCWcfLibres/OVCFotoFachada.svc/RecuperarFotoFachadaGet?ReferenciaCatastral=9929126TL8492N"/>
</node>
<node id="-236" action="modify" visible="true" lon="-5.4971804381683" lat="41.00598429025765">
  <tag k="addr:street" v="Calle del Prado"/>
  <tag k="addr:housenumber" v="26"/>
  <tag k="addr:postcode" v="37340"/>
  <tag k="entrance" v="yes"/>
  <tag k="image" v="http://ovc.catastro.meh.es/OVCServWeb/OVCWcfLibres/OVCFotoFachada.svc/RecuperarFotoFachadaGet?ReferenciaCatastral=0026916TL9402N"/>
</node>
<node id="-255" action="modify" visible="true" lon="-5.498766082154401" lat="41.00837107767104">
  <tag k="addr:street" v="Calle de la rosa"/>
  <tag k="addr:housenumber" v="6"/>
  <tag k="addr:postcode" v="37340"/>
  <tag k="image" v="http://ovc.catastro.meh.es/OVCServWeb/OVCWcfLibres/OVCFotoFachada.svc/RecuperarFotoFachadaGet?ReferenciaCatastral=0029134TL9402N"/>
</node>
<node id="-291" action="modify" visible="true" lon="-5.500247723404467" lat="41.0063973940395">
  <tag k="addr:street" v="Calle Vista Hermosa"/>
  <tag k="addr:housenumber" v="41D"/>
  <tag k="addr:postcode" v="37340"/>
  <tag k="image" v="http://ovc.catastro.meh.es/OVCServWeb/OVCWcfLibres/OVCFotoFachada.svc/RecuperarFotoFachadaGet?ReferenciaCatastral=9827430TL8492N"/>
</node>
<node id="-345" action="modify" visible="true" lon="-5.495634372375771" lat="41.00618399313974">
  <tag k="addr:street" v="Paseo de los Jornaleros"/>
  <tag k="addr:housenumber" v="44"/>
  <tag k="addr:postcode" v="37340"/>
  <tag k="entrance" v="yes"/>
  <tag k="image" v="http://ovc.catastro.meh.es/OVCServWeb/OVCWcfLibres/OVCFotoFachada.svc/RecuperarFotoFachadaGet?ReferenciaCatastral=0126605TL9402N"/>
</node>
<node id="-363" action="modify" visible="true" lon="-5.500854499154286" lat="41.00692996710411">
  <tag k="addr:street" v="Calle del Palomar"/>
  <tag k="addr:housenumber" v="2"/>
  <tag k="addr:postcode" v="37340"/>
  <tag k="entrance" v="yes"/>
  <tag k="image" v="http://ovc.catastro.meh.es/OVCServWeb/OVCWcfLibres/OVCFotoFachada.svc/RecuperarFotoFachadaGet?ReferenciaCatastral=9727201TL8492N"/>
</node>
<node id="-381" action="modify" visible="true" lon="-5.499483614549516" lat="41.00927937932433">
  <tag k="addr:street" v="Calle Primero de Mayo"/>
  <tag k="addr:housenumber" v="2"/>
  <tag k="addr:postcode" v="37340"/>
  <tag k="image" v="http://ovc.catastro.meh.es/OVCServWeb/OVCWcfLibres/OVCFotoFachada.svc/RecuperarFotoFachadaGet?ReferenciaCatastral=9829505TL8492N"/>
</node>
<node id="-417" action="modify" visible="true" lon="-5.502089056919443" lat="41.00734699302603">
  <tag k="addr:street" v="Calle de San Pedro"/>
  <tag k="addr:housenumber" v="19"/>
  <tag k="addr:postcode" v="37340"/>
  <tag k="entrance" v="yes"/>
  <tag k="image" v="http://ovc.catastro.meh.es/OVCServWeb/OVCWcfLibres/OVCFotoFachada.svc/RecuperarFotoFachadaGet?ReferenciaCatastral=9727225TL8492N"/>
</node>
</osm>
